address,city,company_name,phone,state,mon_from,mon_to,tue_from,tue_to,wed_from,wed_to,thu_from,thu_to,fri_from,fri_to,sat_from,sat_to,sun_from,sun_to,zip_code,longitude,latitude,gmaps,created_at,updated_at
505 Main St SW,Airdrie,Dollarama,1-403-945-0778,AB,9:00 AM,9:00 PM,9:00 AM,9:00 PM,9:00 AM,9:00 PM,9:00 AM,9:00 PM,9:00 AM,9:00 PM,8:30 AM,6:00 PM,10:00 AM,5:00 PM,T4B 3K3,-114.013,51.2879,,2013-09-16 07:37:12 UTC,2013-09-16 07:37:12 UTC
927 2nd Street W,Brooks,Dollarama,1-403-362-2559,AB,9:00 AM,9:00 PM,9:00 AM,9:00 PM,9:00 AM,9:00 PM,9:00 AM,9:00 PM,9:00 AM,9:00 PM,9:00 AM,6:00 PM,10:00 AM,5:00 PM,T1R 0B7,-111.897,50.5776,,2013-09-16 07:37:12 UTC,2013-09-16 07:37:12 UTC
5401 Temple Drive NE,Calgary,Dollarama,1-403-280-9972,AB,9:00 AM,9:00 PM,9:00 AM,9:00 PM,9:00 AM,9:00 PM,9:00 AM,9:00 PM,9:00 AM,9:00 PM,9:00 AM,6:00 PM,10:00 AM,5:00 PM,T1Y 3R7,-113.957,51.085,,2013-09-16 07:37:12 UTC,2013-09-16 07:37:12 UTC
3320 20 ave NE,Calgary,Dollarama,1-403-280-3505,AB,9:00 AM,9:00 PM,9:00 AM,9:00 PM,9:00 AM,9:00 PM,9:00 AM,9:00 PM,9:00 AM,9:00 PM,9:00 AM,6:00 PM,10:00 AM,5:00 PM,T1Y 6E8,-113.988,51.0708,,2013-09-16 07:37:12 UTC,2013-09-16 07:37:12 UTC
3508 32nd Ave. NE,Calgary,Dollarama,1-403-537-0218,AB,9:00 AM,9:00 PM,9:00 AM,9:00 PM,9:00 AM,9:00 PM,9:00 AM,9:00 PM,9:00 AM,9:00 PM,9:00 AM,9:00 PM,10:00 AM,6:00 PM,T1Y 6J2,-113.985,51.0816,,2013-09-16 07:37:12 UTC,2013-09-16 07:37:12 UTC
3800 Memorial Dr. NE,Calgary,Dollarama,1-403-537-0338,AB,10:00 AM,9:00 PM,10:00 AM,9:00 PM,10:00 AM,9:00 PM,10:00 AM,9:00 PM,10:00 AM,9:00 PM,10:00 AM,7:00 PM,12:00 PM,5:00 PM,T2A 2K2,-113.977,51.0528,,2013-09-16 07:37:12 UTC,2013-09-16 07:37:12 UTC
6060 Memorial Drive NE,Calgary,Dollarama,1-403-235-3234,AB,9:00 AM,9:00 PM,9:00 AM,9:00 PM,9:00 AM,9:00 PM,9:00 AM,9:00 PM,9:00 AM,9:00 PM,9:00 AM,6:00 PM,10:00 AM,6:00 PM,T2A 5Z5,-113.942,51.0525,,2013-09-16 07:37:12 UTC,2013-09-16 07:37:12 UTC
565 36 Street NE,Calgary,Dollarama,1-403-204-3542,AB,9:00 AM,9:00 PM,9:00 AM,9:00 PM,9:00 AM,9:00 PM,9:00 AM,9:00 PM,9:00 AM,9:00 PM,9:00 AM,6:00 PM,11:00 AM,5:00 PM,T2A 6K3,-113.985,51.0564,,2013-09-16 07:37:12 UTC,2013-09-16 07:37:12 UTC
1919 31st St. SE,Calgary,Dollarama,1-403-444-1075,AB,9:00 AM,9:00 PM,9:00 AM,9:00 PM,9:00 AM,9:00 PM,9:00 AM,9:00 PM,9:00 AM,9:00 PM,9:00 AM,6:00 PM,11:00 AM,5:00 PM,T2B 0S8,-113.989,51.0362,,2013-09-16 07:37:12 UTC,2013-09-16 07:37:12 UTC
163 Quarry Park Boulevard,Calgary,Dollarama,1-403-290-1837,AB,9:00 AM,9:00 PM,9:00 AM,9:00 PM,9:00 AM,9:00 PM,9:00 AM,9:00 PM,9:00 AM,9:00 PM,9:00 AM,6:00 PM,10:00 AM,5:00 PM,T2C 5E1,-114.011,50.9635,,2013-09-16 07:37:12 UTC,2013-09-16 07:37:12 UTC
52 Heritage Gate SE,Calgary,Dollarama,1-403-252-0789,AB,9:00 AM,9:00 PM,9:00 AM,9:00 PM,9:00 AM,9:00 PM,9:00 AM,9:00 PM,9:00 AM,9:00 PM,9:00 AM,6:00 PM,11:00 AM,5:00 PM,T2H 3A7,-114.044,50.9884,,2013-09-16 07:37:12 UTC,2013-09-16 07:37:12 UTC
180 94th Ave. SE,Calgary,Dollarama,1-403-444-1217,AB,9:00 AM,9:00 PM,9:00 AM,9:00 PM,9:00 AM,9:00 PM,9:00 AM,9:00 PM,9:00 AM,9:00 PM,9:00 AM,9:00 PM,9:00 AM,6:00 PM,T2J 3G8,-114.069,50.9687,,2013-09-16 07:37:12 UTC,2013-09-16 07:37:12 UTC
232 8th Avenue SW,Calgary,Dollarama,1-403-263-2056,AB,9:00 AM,6:00 PM,9:00 AM,6:00 PM,9:00 AM,6:00 PM,9:00 AM,6:00 PM,9:00 AM,6:00 PM,9:00 AM,6:00 PM,11:00 AM,5:00 PM,T2P 1B5,-114.067,51.0457,,2013-09-16 07:37:12 UTC,2013-09-16 07:37:12 UTC
240 Midpark Way S.E,Calgary,Dollarama,1-403-254-0964,AB,9:00 AM,9:00 PM,9:00 AM,9:00 PM,9:00 AM,9:00 PM,9:00 AM,9:00 PM,9:00 AM,9:00 PM,9:00 AM,9:00 PM,10:00 AM,6:00 PM,T2X 1N4,-114.064,50.9123,,2013-09-16 07:37:12 UTC,2013-09-16 07:37:12 UTC
4307 130 Ave. SE,Calgary,Dollarama,1-403-726-1295,AB,9:00 AM,9:00 PM,9:00 AM,9:00 PM,9:00 AM,9:00 PM,9:00 AM,9:00 PM,9:00 AM,9:00 PM,9:00 AM,6:00 PM,10:00 AM,5:00 PM,T2Z 3V8,-113.971,50.9301,,2013-09-16 07:37:12 UTC,2013-09-16 07:37:12 UTC
8888 Country Hills,Calgary,Dollarama,1-403-239-5620,AB,9:00 AM,9:00 PM,9:00 AM,9:00 PM,9:00 AM,9:00 PM,9:00 AM,9:00 PM,9:00 AM,9:00 PM,9:00 AM,6:00 PM,10:00 AM,5:00 PM,T3G 5T4,-114.213,51.1535,,2013-09-16 07:37:12 UTC,2013-09-16 07:37:12 UTC
8220 Centre St. NE,Calgary,Dollarama,1-403-275-7084,AB,9:00 AM,9:00 PM,9:00 AM,9:00 PM,9:00 AM,9:00 PM,9:00 AM,9:00 PM,9:00 AM,9:00 PM,9:00 AM,6:00 PM,11:00 AM,5:00 PM,T3K 1J7,-114.071,51.126,,2013-09-16 07:37:13 UTC,2013-09-16 07:37:13 UTC
12018 Symons Valley,Calgary,Dollarama,1-403 730 0365,AB,9:00 AM,9:00 PM,9:00 AM,9:00 PM,9:00 AM,9:00 PM,9:00 AM,9:00 PM,9:00 AM,9:00 PM,9:00 AM,6:00 PM,10:00 AM,5:00 PM,T3P 0A3,-114.125,51.1615,,2013-09-16 07:37:13 UTC,2013-09-16 07:37:13 UTC
12024 Sarcee Trail N.W,Calgary,Dollarama,1-403-274-1362,AB,9:00 AM,9:00 PM,9:00 AM,9:00 PM,9:00 AM,9:00 PM,9:00 AM,9:00 PM,9:00 AM,9:00 PM,9:00 AM,6:00 PM,10:00 AM,6:00 PM,T3R 0J1,-114.163,51.1622,,2013-09-16 07:37:13 UTC,2013-09-16 07:37:13 UTC
7300 48th Ave,Camrose,Dollarama,1-780-672-6571,AB,9:00 AM,9:00 PM,9:00 AM,9:00 PM,9:00 AM,9:00 PM,9:00 AM,9:00 PM,9:00 AM,9:00 PM,9:00 AM,6:00 PM,10:00 AM,6:00 PM,T4V 4W2,-112.862,53.018,,2013-09-16 07:37:13 UTC,2013-09-16 07:37:13 UTC
4341 50th Street,Drayton Valley,Dollarama,1-780-542-7524,AB,9:00 AM,6:00 PM,9:00 AM,6:00 PM,9:00 AM,6:00 PM,9:00 AM,9:00 PM,9:00 AM,9:00 PM,9:00 AM,5:00 PM,10:00 AM,6:00 PM,T7A 1M4,-114.977,53.2163,,2013-09-16 07:37:13 UTC,2013-09-16 07:37:13 UTC
201 North Railway Ave,Drumheller,Dollarama,1-403-823-7363,AB,9:00 AM,6:00 PM,9:00 AM,6:00 PM,9:00 AM,6:00 PM,9:00 AM,6:00 PM,9:00 AM,6:00 PM,9:00 AM,6:00 PM,11:00 AM,5:00 PM,T0J 0Y0,-112.712,51.4631,,2013-09-16 07:37:13 UTC,2013-09-16 07:37:13 UTC
137th Ave & 66th St,Edmonton,Dollarama,1-780-476-9009,AB,9:30 AM,9:00 PM,9:30 AM,9:00 PM,9:30 AM,9:00 PM,9:30 AM,9:00 PM,9:30 AM,9:00 PM,9:30 AM,5:30 PM,12:00 PM,5:00 PM,T5C 3C8,-113.443,53.5996,,2013-09-16 07:37:13 UTC,2013-09-16 07:37:13 UTC
9450 137 Ave NW,Edmonton,Dollarama,1-780-456-1801,AB,9:00 AM,9:00 PM,9:00 AM,9:00 PM,9:00 AM,9:00 PM,9:00 AM,9:00 PM,9:00 AM,9:00 PM,9:00 AM,9:00 PM,11:00 AM,5:00 PM,T5E 6C2,-113.489,53.5997,,2013-09-16 07:37:13 UTC,2013-09-16 07:37:13 UTC
C-001- 10200 102 Ave. NW,Edmonton,Dollarama,1-780-701-0305,AB,9:00 AM,6:00 PM,9:00 AM,6:00 PM,9:00 AM,6:00 PM,9:00 AM,8:00 PM,9:00 AM,8:00 PM,10:00 AM,6:00 PM,12:00 PM,5:00 PM,T5J 4B7,-113.496,53.5431,,2013-09-16 07:37:13 UTC,2013-09-16 07:37:13 UTC
12544 137th Ave. NW,Edmonton,Dollarama,1-780-406-0839,AB,9:00 AM,9:00 PM,9:00 AM,9:00 PM,9:00 AM,9:00 PM,9:00 AM,9:00 PM,9:00 AM,9:00 PM,9:00 AM,6:00 PM,10:00 AM,5:00 PM,T5L 4Y5,-113.539,53.5997,,2013-09-16 07:37:13 UTC,2013-09-16 07:37:13 UTC
111th Ave & Groat Road,Edmonton,Dollarama,1-780-701-0045,AB,9:30 AM,9:00 PM,9:30 AM,9:00 PM,9:30 AM,9:00 PM,9:30 AM,9:00 PM,9:30 AM,9:00 PM,10:00 AM,6:00 PM,12:00 PM,5:00 PM,T5M 3L7,-113.552,53.5589,,2013-09-16 07:37:13 UTC,2013-09-16 07:37:13 UTC
350 Mayfield Common NW,Edmonton,Dollarama,1-780-486-2256,AB,9:00 AM,9:00 PM,9:00 AM,9:00 PM,9:00 AM,9:00 PM,9:00 AM,9:00 PM,9:00 AM,9:00 PM,9:00 AM,6:00 PM,9:30 AM,5:00 PM,T5P 4B3,-113.613,53.5433,,2013-09-16 07:37:13 UTC,2013-09-16 07:37:13 UTC
8882 170th St. Un M102,Edmonton,Dollarama,1-780-483-5902,AB,9:30 AM,9:00 PM,9:30 AM,9:00 PM,9:30 AM,9:00 PM,9:30 AM,9:00 PM,9:30 AM,9:00 PM,9:30 AM,9:00 PM,10:00 AM,5:00 PM,T5T 4J2,-113.616,53.5242,,2013-09-16 07:37:13 UTC,2013-09-16 07:37:13 UTC
6655 178th St NW,Edmonton,Dollarama,1-780-486-7714,AB,9:00 AM,9:00 PM,9:00 AM,9:00 PM,9:00 AM,9:00 PM,9:00 AM,9:00 PM,9:00 AM,9:00 PM,9:00 AM,6:00 PM,11:00 AM,5:00 PM,T5T 4J5,-113.629,53.501,,2013-09-16 07:37:13 UTC,2013-09-16 07:37:13 UTC
15811 97th Street N.W,Edmonton,Dollarama,1-780-406-1914,AB,9:00 AM,9:00 PM,9:00 AM,9:00 PM,9:00 AM,9:00 PM,9:00 AM,9:00 PM,9:00 AM,9:00 PM,9:00 AM,6:00 PM,11:00 AM,5:00 PM,T5X 0C7,-113.492,53.6385,,2013-09-16 07:37:13 UTC,2013-09-16 07:37:13 UTC
4278 137 Ave. NW,Edmonton,Dollarama,1-780-456-1810,AB,9:00 AM,9:00 PM,9:00 AM,9:00 PM,9:00 AM,9:00 PM,9:00 AM,9:00 PM,9:00 AM,9:00 PM,9:00 AM,6:00 PM,9:00 AM,5:00 PM,T5Y 2W7,-113.407,53.5975,,2013-09-16 07:37:13 UTC,2013-09-16 07:37:13 UTC
8330 82 Ave Northwest,Edmonton,Dollarama,1-780-440-1864,AB,10:00 AM,9:00 PM,10:00 AM,9:00 PM,10:00 AM,9:00 PM,10:00 AM,9:00 PM,10:00 AM,9:00 PM,9:30 AM,5:30 PM,12:00 PM,5:00 PM,T6C 0Y6,-113.457,53.5181,,2013-09-16 07:37:13 UTC,2013-09-16 07:37:13 UTC
10455 80th Ave. NW,Edmonton,Dollarama,1-780-434-8171,AB,9:00 AM,8:00 PM,9:00 AM,8:00 PM,9:00 AM,8:00 PM,9:00 AM,8:00 PM,9:00 AM,8:00 PM,9:00 AM,6:00 PM,10:00 AM,5:00 PM,T6E 1V1,-113.5,53.5161,,2013-09-16 07:37:13 UTC,2013-09-16 07:37:13 UTC
5015 111 St. NW,Edmonton,Dollarama,1-780-432-3155,AB,10:00 AM,9:00 PM,10:00 AM,9:00 PM,10:00 AM,9:00 PM,10:00 AM,9:00 PM,10:00 AM,9:00 PM,9:30 AM,6:00 PM,11:00 AM,5:00 PM,T6H 4M6,-113.516,53.4871,,2013-09-16 07:37:13 UTC,2013-09-16 07:37:13 UTC
2331 66th St. NW,Edmonton,Dollarama,1-780-461-9966,AB,9:00 AM,9:00 PM,9:00 AM,9:00 PM,9:00 AM,9:00 PM,9:00 AM,9:00 PM,9:00 AM,9:00 PM,8:30 AM,6:00 PM,11:00 AM,5:00 PM,T6K 4B5,-113.434,53.4545,,2013-09-16 07:37:14 UTC,2013-09-16 07:37:14 UTC
1961 98th St. North West,Edmonton,Dollarama,1-780-701-0138,AB,9:00 AM,9:00 PM,9:00 AM,9:00 PM,9:00 AM,9:00 PM,9:00 AM,9:00 PM,9:00 AM,9:00 PM,9:00 AM,6:00 PM,9:00 AM,6:00 PM,T6N 1L5,-113.484,53.4496,,2013-09-16 07:37:14 UTC,2013-09-16 07:37:14 UTC
2008 38th Ave. NW,Edmonton,Dollarama,1-780-440-3512,AB,9:00 AM,9:00 PM,9:00 AM,9:00 PM,9:00 AM,9:00 PM,9:00 AM,9:00 PM,9:00 AM,9:00 PM,9:00 AM,6:00 PM,10:00 AM,6:00 PM,T6T 0B9,-113.373,53.4772,,2013-09-16 07:37:14 UTC,2013-09-16 07:37:14 UTC
6280 Currents Drive NW,Edmonton,Dollarama,1-780-481-8599,AB,8:00 AM,9:00 PM,8:00 AM,9:00 PM,8:00 AM,9:00 PM,8:00 AM,9:00 PM,8:00 AM,9:00 PM,8:00 AM,9:00 PM,9:00 AM,6:00 PM,T6W 0L8,-113.599,53.4356,,2013-09-16 07:37:14 UTC,2013-09-16 07:37:14 UTC
5030 2nd Ave,Edson,Dollarama,1-780-723-3049,AB,9:00 AM,6:00 PM,9:00 AM,6:00 PM,9:00 AM,6:00 PM,9:00 AM,6:00 PM,9:00 AM,6:00 PM,9:00 AM,6:00 PM,12:00 PM,5:00 PM,T7E 1W2,-116.431,53.5814,,2013-09-16 07:37:14 UTC,2013-09-16 07:37:14 UTC
8802 100th Street,Fort Saskatchewan,Dollarama,1-780-992-2269,AB,9:00 AM,9:00 PM,9:00 AM,9:00 PM,9:00 AM,9:00 PM,9:00 AM,9:00 PM,9:00 AM,9:00 PM,9:00 AM,6:00 PM,10:00 AM,6:00 PM,T8L 4R2,-113.207,53.6993,,2013-09-16 07:37:14 UTC,2013-09-16 07:37:14 UTC
10350 108 Street,Grande Prairie,Dollarama,1-780-532-2065,AB,9:00 AM,9:00 PM,9:00 AM,9:00 PM,9:00 AM,9:00 PM,9:00 AM,9:00 PM,9:00 AM,9:00 PM,9:00 AM,9:00 PM,9:00 AM,5:00 PM,T8V 7A8,-118.821,55.1721,,2013-09-16 07:37:14 UTC,2013-09-16 07:37:14 UTC
900 Carmichael Lane,Hinton,Dollarama,1-780-865-2235,AB,9:00 AM,9:00 PM,9:00 AM,9:00 PM,9:00 AM,9:00 PM,9:00 AM,9:00 PM,9:00 AM,9:00 PM,9:00 AM,6:00 PM,11:30 AM,5:00 PM,T7V 1Y6,-117.627,53.3885,,2013-09-16 07:37:14 UTC,2013-09-16 07:37:14 UTC
4804 50th St.,Innisfall,Dollarama,1-403-227-4534,AB,9:00 AM,6:00 PM,9:00 AM,6:00 PM,9:00 AM,6:00 PM,9:00 AM,9:00 PM,9:00 AM,9:00 PM,9:00 AM,6:00 PM,11:00 AM,5:00 PM,T4G 1C2,-113.945,52.0275,,2013-09-16 07:37:14 UTC,2013-09-16 07:37:14 UTC
5260 - 45 Street,Lacombe,Dollarama,1-403-786-1046,AB,9:00 AM,6:00 PM,9:00 AM,6:00 PM,9:00 AM,6:00 PM,9:00 AM,7:00 PM,9:00 AM,7:00 PM,9:00 AM,6:00 PM,12:00 PM,5:00 PM,T4L 2A1,-113.723,52.4683,,2013-09-16 07:37:14 UTC,2013-09-16 07:37:14 UTC
6102 50th Street,Leduc,Dollarama,1-780-986-1529,AB,9:00 AM,9:00 PM,9:00 AM,9:00 PM,9:00 AM,9:00 PM,9:00 AM,9:00 PM,9:00 AM,9:00 PM,9:00 AM,6:00 PM,9:00 AM,5:00 PM,T9E 7L2,-113.549,53.2746,,2013-09-16 07:37:14 UTC,2013-09-16 07:37:14 UTC
5309 Discovery Way,Leduc,Dollarama,1-780-986-9666,AB,9:00 AM,9:00 PM,9:00 AM,9:00 PM,9:00 AM,9:00 PM,9:00 AM,9:00 PM,9:00 AM,9:00 PM,9:00 AM,6:00 PM,10:00 AM,5:00 PM,T9E 8N4,-113.568,53.2673,,2013-09-16 07:37:14 UTC,2013-09-16 07:37:14 UTC
104 13th St N,Lethbridge,Dollarama,1-403-317-0202,AB,9:00 AM,9:00 PM,9:00 AM,9:00 PM,9:00 AM,9:00 PM,9:00 AM,9:00 PM,9:00 AM,9:00 PM,8:30 AM,7:00 PM,10:00 AM,5:00 PM,T1H 2R4,-112.825,49.6992,,2013-09-16 07:37:14 UTC,2013-09-16 07:37:14 UTC
3019 26th Ave. N.,Lethbridge,Dollarama,1-403-330-2354,AB,9:00 AM,9:00 PM,9:00 AM,9:00 PM,9:00 AM,9:00 PM,9:00 AM,9:00 PM,9:00 AM,9:00 PM,9:00 AM,6:00 PM,10:00 AM,5:00 PM,T1H 5P4,-112.784,49.7272,,2013-09-16 07:37:14 UTC,2013-09-16 07:37:14 UTC
3717 Mayor Magrath Dr S,Lethbridge,Dollarama,1-403-320-2552,AB,9:00 AM,9:00 PM,9:00 AM,9:00 PM,9:00 AM,9:00 PM,9:00 AM,9:00 PM,9:00 AM,9:00 PM,9:00 AM,9:00 PM,10:00 AM,6:00 PM,T1K 8A8,-112.793,49.6529,,2013-09-16 07:37:14 UTC,2013-09-16 07:37:14 UTC
1940 Strachan Rd. SE,Medicine Hat,Dollarama,1-403-526-9447,AB,9:00 AM,9:00 PM,9:00 AM,9:00 PM,9:00 AM,9:00 PM,9:00 AM,9:00 PM,9:00 AM,9:00 PM,9:00 AM,6:00 PM,10:00 AM,5:00 PM,T1B 4K4,-110.646,49.9972,,2013-09-16 07:37:14 UTC,2013-09-16 07:37:14 UTC
105 Southbank Blvd,Okotoks,Dollarama,1-403-938-1266,AB,9:00 AM,9:00 PM,9:00 AM,9:00 PM,9:00 AM,9:00 PM,9:00 AM,9:00 PM,9:00 AM,9:00 PM,9:00 AM,6:00 PM,11:00 AM,6:00 PM,T1S 0G1,-113.949,50.7049,,2013-09-16 07:37:14 UTC,2013-09-16 07:37:14 UTC
6700 46th St.,Olds,Dollarama,1-403-556-6745,AB,9:00 AM,9:00 PM,9:00 AM,9:00 PM,9:00 AM,9:00 PM,9:00 AM,9:00 PM,9:00 AM,9:00 PM,8:30 AM,7:00 PM,10:00 AM,5:00 PM,T4H 0A2,-114.12,51.7951,,2013-09-16 07:37:14 UTC,2013-09-16 07:37:14 UTC
37400 Highway 2,Red Deer,Dollarama,1-403-340-0135,AB,9:00 AM,9:00 PM,9:00 AM,9:00 PM,9:00 AM,9:00 PM,9:00 AM,9:00 PM,9:00 AM,9:00 PM,9:00 AM,6:00 PM,10:00 AM,5:00 PM,T4E 1B9,-113.815,52.2113,,2013-09-16 07:37:15 UTC,2013-09-16 07:37:15 UTC
6320 50 Avenue,Red Deer,Dollarama,1-403-341-3784,AB,9:00 AM,9:00 PM,9:00 AM,9:00 PM,9:00 AM,9:00 PM,9:00 AM,9:00 PM,9:00 AM,9:00 PM,9:00 AM,6:00 PM,11:00 AM,5:00 PM,T4N 4C6,-113.814,52.2837,,2013-09-16 07:37:15 UTC,2013-09-16 07:37:15 UTC
4747 67th Street,Red Deer,Dollarama,1-403-755-7525,AB,9:30 AM,9:00 PM,9:30 AM,9:00 PM,9:30 AM,9:00 PM,9:30 AM,9:00 PM,9:30 AM,9:00 PM,9:30 AM,6:00 PM,11:00 AM,5:00 PM,T4N 6H3,-113.809,52.2885,,2013-09-16 07:37:15 UTC,2013-09-16 07:37:15 UTC
1020 Sherwood Dr,Sherwood Park,Dollarama,1-780-449-2428,AB,9:00 AM,9:00 PM,9:00 AM,9:00 PM,9:00 AM,9:00 PM,9:00 AM,9:00 PM,9:00 AM,9:00 PM,9:00 AM,6:00 PM,10:00 AM,6:00 PM,T8A 2G4,-113.318,53.5198,,2013-09-16 07:37:15 UTC,2013-09-16 07:37:15 UTC
5000 Emerald Drive,Sherwood Park,Dollarama,1-780-416-1802,AB,9:00 AM,9:00 PM,9:00 AM,9:00 PM,9:00 AM,9:00 PM,9:00 AM,9:00 PM,9:00 AM,9:00 PM,9:00 AM,6:00 PM,10:00 AM,5:00 PM,T8H 0P5,-113.28,53.5671,,2013-09-16 07:37:15 UTC,2013-09-16 07:37:15 UTC
187 Highway 16A,Spruce Grove,Dollarama,1-780-960-8455,AB,9:00 AM,9:00 PM,9:00 AM,9:00 PM,9:00 AM,9:00 PM,9:00 AM,9:00 PM,9:00 AM,9:00 PM,9:00 AM,6:00 PM,10:00 AM,6:00 PM,T7X 4P9,-113.927,53.5414,,2013-09-16 07:37:15 UTC,2013-09-16 07:37:15 UTC
140 St. Albert Rd.,St. Albert,Dollarama,1-780-419-6602,AB,9:00 AM,9:00 PM,9:00 AM,9:00 PM,9:00 AM,9:00 PM,9:00 AM,9:00 PM,9:00 AM,9:00 PM,9:00 AM,6:00 PM,10:00 AM,5:00 PM,T8N 7C8,-113.612,53.6203,,2013-09-16 07:37:15 UTC,2013-09-16 07:37:15 UTC
6600 50th Ave,Stettler,Dollarama,1-403-742-8738,AB,9:00 AM,6:00 PM,9:00 AM,6:00 PM,9:00 AM,6:00 PM,9:00 AM,9:00 PM,9:00 AM,9:00 PM,9:00 AM,5:00 PM,10:00 AM,6:00 PM,T0C 2L2,-112.732,52.3252,,2013-09-16 07:37:15 UTC,2013-09-16 07:37:15 UTC
100 Ranch Market,Strathmore,Dollarama,1-403-934-6351,AB,9:00 AM,9:00 PM,9:00 AM,9:00 PM,9:00 AM,9:00 PM,9:00 AM,9:00 PM,9:00 AM,9:00 PM,9:00 AM,7:00 PM,10:00 AM,5:00 PM,T1P 0A8,-113.385,51.0382,,2013-09-16 07:37:15 UTC,2013-09-16 07:37:15 UTC
100-62 Thevenaz Ind Tr,Sylvan Lake,Dollarama,1-403-887-6165,AB,9:00 AM,9:00 PM,9:00 AM,9:00 PM,9:00 AM,9:00 PM,9:00 AM,9:00 PM,9:00 AM,9:00 PM,9:00 AM,6:00 PM,11:00 AM,5:00 PM,T4S 0B6,-114.069,52.3087,,2013-09-16 07:37:15 UTC,2013-09-16 07:37:15 UTC
3725 56th Street,Wetaskiwin,Dollarama,1-780-352-6524,AB,9:00 AM,6:00 PM,9:00 AM,6:00 PM,9:00 AM,6:00 PM,9:00 AM,9:00 PM,9:00 AM,9:00 PM,9:00 AM,6:00 PM,10:00 AM,6:00 PM,T9A 2V6,-113.39,52.9559,,2013-09-16 07:37:15 UTC,2013-09-16 07:37:15 UTC
34252 Marshall Rd,Abbotsford,Dollarama,1-604-852-3580,BC,9:00 AM,9:00 PM,9:00 AM,9:00 PM,9:00 AM,9:00 PM,9:00 AM,9:00 PM,9:00 AM,9:00 PM,9:00 AM,6:00 PM,10:00 AM,5:00 PM,V2S 1L9,-122.275,49.0381,,2013-09-16 07:37:15 UTC,2013-09-16 07:37:15 UTC
31940 South Fraser Way,Abbotsford,Dollarama,1-604-855-5167,BC,9:00 AM,9:00 PM,9:00 AM,9:00 PM,9:00 AM,9:00 PM,9:00 AM,9:00 PM,9:00 AM,9:00 PM,9:00 AM,7:00 PM,10:00 AM,6:00 PM,V2T 1V6,-122.339,49.0489,,2013-09-16 07:37:15 UTC,2013-09-16 07:37:15 UTC
3100 272nd St.,Aldergrove,Dollarama,1-604-607-0653,BC,9:00 AM,9:00 PM,9:00 AM,9:00 PM,9:00 AM,9:00 PM,9:00 AM,9:00 PM,9:00 AM,9:00 PM,9:00 AM,6:00 PM,10:00 AM,5:00 PM,V4W 3N7,-122.471,49.0604,,2013-09-16 07:37:15 UTC,2013-09-16 07:37:15 UTC
6200 Mckay Ave,Burnaby,Dollarama,1-604-433-6297,BC,9:00 AM,9:00 PM,9:00 AM,9:00 PM,9:00 AM,9:00 PM,9:00 AM,9:00 PM,9:00 AM,9:00 PM,9:00 AM,6:00 PM,10:00 AM,5:00 PM,V5H 4L7,-123.004,49.2279,,2013-09-16 07:37:15 UTC,2013-09-16 07:37:15 UTC
1350 Ironwood St,Campbell River,Dollarama,1-250-286-6461,BC,9:00 AM,8:00 PM,9:00 AM,8:00 PM,9:00 AM,8:00 PM,9:00 AM,9:00 PM,9:00 AM,9:00 PM,9:00 AM,7:00 PM,9:00 AM,6:00 PM,V9W 5T5,-125.255,50.0281,,2013-09-16 07:37:15 UTC,2013-09-16 07:37:15 UTC
1502 Columbia Ave,Castlegar,Dollarama,1-250-365-0852,BC,9:00 AM,6:00 PM,9:00 AM,6:00 PM,9:00 AM,6:00 PM,9:00 AM,9:00 PM,9:00 AM,9:00 PM,9:00 AM,6:00 PM,10:00 AM,5:00 PM,V1N 4G5,-117.659,49.3064,,2013-09-16 07:37:15 UTC,2013-09-16 07:37:15 UTC
2850-2929 Barnet Highway,Coquitlam,Dollarama,1-604-464-2833,BC,9:00 AM,9:00 PM,9:00 AM,9:00 PM,9:00 AM,9:00 PM,9:00 AM,9:00 PM,9:00 AM,9:00 PM,9:00 AM,7:00 PM,10:00 AM,6:00 PM,V3B 5R5,-122.803,49.2776,,2013-09-16 07:37:15 UTC,2013-09-16 07:37:15 UTC
2751 Cliffe Ave,Courtenay,Dollarama,1-250-331-9534,BC,9:00 AM,9:00 PM,9:00 AM,9:00 PM,9:00 AM,9:00 PM,9:00 AM,9:00 PM,9:00 AM,9:00 PM,9:00 AM,7:00 PM,10:00 AM,6:00 PM,V9N 2L8,-124.981,49.674,,2013-09-16 07:37:15 UTC,2013-09-16 07:37:15 UTC
1500 Cranbrook St N,Cranbrook,Dollarama,1-250-489-8055,BC,9:30 AM,5:30 PM,9:30 AM,5:30 PM,9:30 AM,5:30 PM,9:30 AM,9:00 PM,9:30 AM,9:00 PM,9:30 AM,5:30 PM,12:00 PM,5:00 PM,V1C 3S8,-115.749,49.5289,,2013-09-16 07:37:15 UTC,2013-09-16 07:37:15 UTC
11000 8th Street,Dawson Creek,Dollarama,1-250-782-3504,BC,9:30 AM,6:00 PM,9:30 AM,6:00 PM,9:30 AM,6:00 PM,9:30 AM,6:00 PM,9:30 AM,9:00 PM,9:30 AM,6:00 PM,11:00 AM,5:00 PM,V1G 4K6,-120.225,55.7507,,2013-09-16 07:37:15 UTC,2013-09-16 07:37:15 UTC
8661 120th Street,Delta,Dollarama,1-604-543-9526,BC,9:00 AM,9:00 PM,9:00 AM,9:00 PM,9:00 AM,9:00 PM,9:00 AM,9:00 PM,9:00 AM,9:00 PM,9:00 AM,6:00 PM,10:00 AM,5:00 PM,V4C 6R4,-122.89,49.1607,,2013-09-16 07:37:16 UTC,2013-09-16 07:37:16 UTC
7065 120th Street,Delta,Dollarama,1-604-635-0136,BC,9:00 AM,6:00 PM,9:00 AM,6:00 PM,9:00 AM,6:00 PM,9:00 AM,9:00 PM,9:00 AM,9:00 PM,9:00 AM,6:00 PM,12:00 PM,5:00 PM,V4E 2A9,-122.891,49.1325,,2013-09-16 07:37:16 UTC,2013-09-16 07:37:16 UTC
9600 93 Ave,Fort St. John,Dollarama,1-250-261-5384,BC,9:30 AM,6:00 PM,9:30 AM,6:00 PM,9:30 AM,6:00 PM,9:30 AM,6:00 PM,9:30 AM,9:00 PM,9:30 AM,6:00 PM,12:00 PM,5:00 PM,V1J 5Z2,-120.844,56.2391,,2013-09-16 07:37:16 UTC,2013-09-16 07:37:16 UTC
450 Lansdowne St,Kamloops,Dollarama,1-250-372-0810,BC,9:00 AM,9:00 PM,9:00 AM,9:00 PM,9:00 AM,9:00 PM,9:00 AM,9:00 PM,9:00 AM,9:00 PM,9:00 AM,9:00 PM,10:00 AM,6:00 PM,V2C 1Y3,-120.327,50.6767,,2013-09-16 07:37:16 UTC,2013-09-16 07:37:16 UTC
1801 Princeton Kamloops,Kamloops,Dollarama,1-250-374-9872,BC,9:00 AM,9:00 PM,9:00 AM,9:00 PM,9:00 AM,9:00 PM,9:00 AM,9:00 PM,9:00 AM,9:00 PM,9:00 AM,9:00 PM,10:00 AM,6:00 PM,V2E 2J7,-120.627,50.032,,2013-09-16 07:37:16 UTC,2013-09-16 07:37:16 UTC
525 Highway 97 South,Kelowna,Dollarama,1-250-769-0286,BC,9:00 AM,9:00 PM,9:00 AM,9:00 PM,9:00 AM,9:00 PM,9:00 AM,9:00 PM,9:00 AM,9:00 PM,9:00 AM,9:00 PM,10:00 AM,6:00 PM,V1Z 4C9,-122.792,54.6985,,2013-09-16 07:37:16 UTC,2013-09-16 07:37:16 UTC
6339 200th Street,Langley,Dollarama,1-604-532-9272,BC,9:00 AM,9:00 PM,9:00 AM,9:00 PM,9:00 AM,9:00 PM,9:00 AM,9:00 PM,9:00 AM,9:00 PM,9:00 AM,7:00 PM,10:00 AM,6:00 PM,V2Y 1A2,-122.671,49.1182,,2013-09-16 07:37:16 UTC,2013-09-16 07:37:16 UTC
20398 Dewdney Rd #130-140-150,Maple Ridge,Dollarama,1-604-460-8765,BC,9:00 AM,9:00 PM,9:00 AM,9:00 PM,9:00 AM,9:00 PM,9:00 AM,9:00 PM,9:00 AM,9:00 PM,9:00 AM,7:00 PM,9:00 AM,6:00 PM,V2X 3E3,-122.655,49.2213,,2013-09-16 07:37:16 UTC,2013-09-16 07:37:16 UTC
1150 Terminal Ave N,Nanaimo,Dollarama,1-250-714-0739,BC,8:30 AM,9:00 PM,8:30 AM,9:00 PM,8:30 AM,9:00 PM,8:30 AM,9:00 PM,8:30 AM,9:00 PM,9:00 AM,9:00 PM,9:00 AM,8:00 PM,V9S 5L6,-123.954,49.1837,,2013-09-16 07:37:16 UTC,2013-09-16 07:37:16 UTC
610 6th St.,New Westminster,Dollarama,1-604-522-2368,BC,9:30 AM,5:30 PM,9:30 AM,5:30 PM,9:30 AM,5:30 PM,9:30 AM,9:00 PM,9:30 AM,9:00 PM,9:30 AM,5:30 PM,12:00 PM,5:00 PM,V3L 3C2,-122.921,49.2138,,2013-09-16 07:37:16 UTC,2013-09-16 07:37:16 UTC
1341 Main Street,North Vancouver,Dollarama,1-604-924-5061,BC,9:00 AM,9:00 PM,9:00 AM,9:00 PM,9:00 AM,9:00 PM,9:00 AM,9:00 PM,9:00 AM,9:00 PM,9:00 AM,9:00 PM,10:00 AM,6:00 PM,V7J 1C4,-123.037,49.3063,,2013-09-16 07:37:16 UTC,2013-09-16 07:37:16 UTC
36058 97th Street,Oliver,Dollarama,1-250-498-3073,BC,9:00 AM,9:00 PM,9:00 AM,9:00 PM,9:00 AM,9:00 PM,9:00 AM,9:00 PM,9:00 AM,9:00 PM,9:00 AM,9:00 PM,10:00 AM,6:00 PM,V0H 1T0,-119.55,49.1855,,2013-09-16 07:37:16 UTC,2013-09-16 07:37:16 UTC
3555 Johnston Rd,Port Alberni,Dollarama,1-250-723-1754,BC,9:00 AM,8:00 PM,9:00 AM,8:00 PM,9:00 AM,8:00 PM,9:00 AM,9:00 PM,9:00 AM,9:00 PM,9:00 AM,7:00 PM,9:00 AM,7:00 PM,V9Y 8K2,-124.785,49.2662,,2013-09-16 07:37:16 UTC,2013-09-16 07:37:16 UTC
4730 Joyce Avenue,Powell River,Dollarama,1-604-485-5926,BC,9:00 AM,7:00 PM,9:00 AM,7:00 PM,9:00 AM,7:00 PM,9:00 AM,9:00 PM,9:00 AM,9:00 PM,9:00 AM,6:00 PM,9:00 AM,6:00 PM,V8A 3B6,-124.521,49.844,,2013-09-16 07:37:16 UTC,2013-09-16 07:37:16 UTC
777 Central St West,Prince George,Dollarama,1-250-562-3528,BC,9:00 AM,9:00 PM,9:00 AM,9:00 PM,9:00 AM,9:00 PM,9:00 AM,9:00 PM,9:00 AM,9:00 PM,9:00 AM,9:00 PM,9:00 AM,6:00 PM,V2M 3C6,-122.782,53.9192,,2013-09-16 07:37:16 UTC,2013-09-16 07:37:16 UTC
3055 Massey Drive,Prince George,Dollarama,1-250-562-6150,BC,9:30 AM,6:00 PM,9:30 AM,6:00 PM,9:30 AM,6:00 PM,9:30 AM,9:00 PM,9:30 AM,9:00 PM,9:30 AM,6:00 PM,12:00 PM,5:00 PM,V2N 2S9,-122.778,53.9004,,2013-09-16 07:37:16 UTC,2013-09-16 07:37:16 UTC
500 2nd Avenue,Prince Rupert,Dollarama,1-250-624-3454,BC,9:00 AM,9:00 PM,9:00 AM,9:00 PM,9:00 AM,9:00 PM,9:00 AM,9:00 PM,9:00 AM,9:00 PM,9:00 AM,7:00 PM,10:00 AM,5:00 PM,V8J 3T6,-130.327,54.3127,,2013-09-16 07:37:16 UTC,2013-09-16 07:37:16 UTC
2222 Maple Drive,Quesnel,Dollarama,1-250-747-3057,BC,9:00 AM,6:00 PM,9:00 AM,6:00 PM,9:00 AM,6:00 PM,9:00 AM,9:00 PM,9:00 AM,9:00 PM,9:00 AM,6:00 PM,10:00 AM,6:00 PM,V2J 5B7,-122.445,52.9646,,2013-09-16 07:37:16 UTC,2013-09-16 07:37:16 UTC
9751 Bridgeport Rd,Richmond,Dollarama,1-604-233-1045,BC,9:00 AM,9:00 PM,9:00 AM,9:00 PM,9:00 AM,9:00 PM,9:00 AM,9:00 PM,9:00 AM,9:00 PM,9:00 AM,9:00 PM,10:00 AM,7:00 PM,V6X 1S3,-123.116,49.1921,,2013-09-16 07:37:16 UTC,2013-09-16 07:37:16 UTC
10155 153rd Street,Surrey,Dollarama,1-604-580-3798,BC,9:00 AM,9:00 PM,9:00 AM,9:00 PM,9:00 AM,9:00 PM,9:00 AM,9:00 PM,9:00 AM,9:00 PM,9:00 AM,6:00 PM,10:00 AM,5:00 PM,V3R 9V8,-122.798,49.1871,,2013-09-16 07:37:16 UTC,2013-09-16 07:37:16 UTC
17780 56th Avenue,Surrey,Dollarama,1-604-574-2155,BC,9:00 AM,9:00 PM,9:00 AM,9:00 PM,9:00 AM,9:00 PM,9:00 AM,9:00 PM,9:00 AM,9:00 PM,9:00 AM,5:00 PM,10:00 AM,5:00 PM,V3S 1C7,-122.73,49.1041,,2013-09-16 07:37:16 UTC,2013-09-16 07:37:16 UTC
10232 Whalley Blvd,Surrey,Dollarama,1-604-634-1018,BC,9:00 AM,9:00 PM,9:00 AM,9:00 PM,9:00 AM,9:00 PM,9:00 AM,9:00 PM,9:00 AM,9:00 PM,9:00 AM,6:00 PM,10:00 AM,5:00 PM,V3T 4H2,-122.843,49.1879,,2013-09-16 07:37:16 UTC,2013-09-16 07:37:16 UTC
7488 King George Blvd,Surrey,Dollarama,1-604-635-0425,BC,9:00 AM,9:00 PM,9:00 AM,9:00 PM,9:00 AM,9:00 PM,9:00 AM,9:00 PM,9:00 AM,9:00 PM,9:00 AM,6:00 PM,10:00 AM,5:00 PM,V3W 0H9,-122.846,49.1388,,2013-09-16 07:37:16 UTC,2013-09-16 07:37:16 UTC
15355 24th Ave,Surrey,Dollarama,1-604-531-7957,BC,9:00 AM,9:00 PM,9:00 AM,9:00 PM,9:00 AM,9:00 PM,9:00 AM,9:00 PM,9:00 AM,9:00 PM,9:00 AM,6:00 PM,10:00 AM,5:00 PM,V4A 2H9,-122.797,49.0457,,2013-09-16 07:37:17 UTC,2013-09-16 07:37:17 UTC
4741 Lakelse Avenue,Terrace,Dollarama,1-250-635-5346,BC,10:00 AM,6:00 PM,10:00 AM,6:00 PM,10:00 AM,6:00 PM,10:00 AM,6:00 PM,10:00 AM,9:00 PM,10:00 AM,6:00 PM,12:00 PM,5:00 PM,V8G 4R9,-128.597,54.5171,,2013-09-16 07:37:17 UTC,2013-09-16 07:37:17 UTC
8100 Highway 3 B,Trail,Dollarama,1-250-368-4761,BC,9:00 AM,9:00 PM,9:00 AM,9:00 PM,9:00 AM,9:00 PM,9:00 AM,9:00 PM,9:00 AM,9:00 PM,9:00 AM,7:00 PM,10:00 AM,5:00 PM,V1R 4N7,-117.673,49.0979,,2013-09-16 07:37:17 UTC,2013-09-16 07:37:17 UTC
2201 Kingsway,Vancouver,Dollarama,1-604-430-1508,BC,9:00 AM,9:00 PM,9:00 AM,9:00 PM,9:00 AM,9:00 PM,9:00 AM,9:00 PM,9:00 AM,9:00 PM,9:00 AM,9:00 PM,10:00 AM,6:00 PM,V5N 2T6,-123.061,49.2436,,2013-09-16 07:37:17 UTC,2013-09-16 07:37:17 UTC
668 Seymour St,Vancouver,Dollarama,1-604-662-7543,BC,9:00 AM,8:00 PM,9:00 AM,8:00 PM,9:00 AM,8:00 PM,9:00 AM,8:00 PM,9:00 AM,8:00 PM,10:00 AM,6:00 PM,11:00 AM,6:00 PM,V6B 3K4,-123.117,49.2822,,2013-09-16 07:37:17 UTC,2013-09-16 07:37:17 UTC
4255 Arbutus St,Vancouver,Dollarama,1-604-629-0028,BC,9:00 AM,9:00 PM,9:00 AM,9:00 PM,9:00 AM,9:00 PM,9:00 AM,9:00 PM,9:00 AM,9:00 PM,10:00 AM,7:00 PM,10:00 AM,6:00 PM,V6J 4R1,-123.153,49.2484,,2013-09-16 07:37:17 UTC,2013-09-16 07:37:17 UTC
1450 Marine Drive SW,Vancouver,Dollarama,1-604-261-0619,BC,9:00 AM,9:00 PM,9:00 AM,9:00 PM,9:00 AM,9:00 PM,9:00 AM,9:00 PM,9:00 AM,9:00 PM,9:00 AM,9:00 PM,10:00 AM,6:00 PM,V6P 5Z9,-123.139,49.2045,,2013-09-16 07:37:17 UTC,2013-09-16 07:37:17 UTC
4400 - 32 Street,Vernon,Dollarama,1-250-260-1365,BC,9:00 AM,9:00 PM,9:00 AM,9:00 PM,9:00 AM,9:00 PM,9:00 AM,9:00 PM,9:00 AM,9:00 PM,9:00 AM,9:00 PM,10:00 AM,5:00 PM,V1T 9H2,-119.277,50.282,,2013-09-16 07:37:17 UTC,2013-09-16 07:37:17 UTC
2945 Jacklin Road,Victoria,Dollarama,1-250-474-0183,BC,9:00 AM,9:00 PM,9:00 AM,9:00 PM,9:00 AM,9:00 PM,9:00 AM,9:00 PM,9:00 AM,9:00 PM,9:00 AM,7:00 PM,9:00 AM,6:00 PM,V9B 5E3,-123.511,48.4413,,2013-09-16 07:37:17 UTC,2013-09-16 07:37:17 UTC
1185 Prosperity Way,Williams Lake,Dollarama,1-250-392-6752,BC,9:00 AM,9:00 PM,9:00 AM,9:00 PM,9:00 AM,9:00 PM,9:00 AM,9:00 PM,9:00 AM,9:00 PM,9:00 AM,9:00 PM,10:00 AM,6:00 PM,V2G 0A6,-122.126,52.1142,,2013-09-16 07:37:17 UTC,2013-09-16 07:37:17 UTC
850 Oliver St,Williams Lake,Dollarama,1-250-392-9566,BC,9:30 AM,6:00 PM,9:30 AM,6:00 PM,9:30 AM,6:00 PM,9:30 AM,6:00 PM,9:30 AM,9:00 PM,9:30 AM,6:00 PM,12:00 PM,5:00 PM,V2G 3W1,-122.137,52.1283,,2013-09-16 07:37:17 UTC,2013-09-16 07:37:17 UTC
923 18th St North,Brandon,Dollarama,1-204-728-5945,MB,9:00 AM,9:00 PM,9:00 AM,9:00 PM,9:00 AM,9:00 PM,9:00 AM,9:00 PM,9:00 AM,9:00 PM,9:00 AM,9:00 PM,12:00 PM,6:00 PM,R7A 7S1,-99.9617,49.8675,,2013-09-16 07:37:17 UTC,2013-09-16 07:37:17 UTC
2200 Saskatchewan Ave. West,Portage la Prairie,Dollarama,1-204-856-0440,MB,9:00 AM,9:00 PM,9:00 AM,9:00 PM,9:00 AM,9:00 PM,9:00 AM,9:00 PM,9:00 AM,9:00 PM,9:00 AM,9:00 PM,12:00 PM,6:00 PM,R1N 0P3,-98.318,49.9712,,2013-09-16 07:37:17 UTC,2013-09-16 07:37:17 UTC
1030 Manitoba Ave. Unit 1,Selkirk,Dollarama,1-204-785-1551,MB,8:00 AM,9:00 PM,8:00 AM,9:00 PM,8:00 AM,9:00 PM,8:00 AM,9:00 PM,8:00 AM,9:00 PM,8:00 AM,9:00 PM,9:00 AM,6:00 PM,R1A 4M2,-96.8973,50.1557,,2013-09-16 07:37:17 UTC,2013-09-16 07:37:17 UTC
178 PTH,Steinbach,Dollarama,1-204-326-1396,MB,8:00 AM,9:00 PM,8:00 AM,9:00 PM,8:00 AM,9:00 PM,8:00 AM,9:00 PM,8:00 AM,9:00 PM,8:00 AM,6:00 PM,Closed,Closed,R5G 1T7,-96.68,49.524,,2013-09-16 07:37:18 UTC,2013-09-16 07:37:18 UTC
955 Main St N,Winkler,Dollarama,1-204-331-4723,MB,9:00 AM,9:00 PM,9:00 AM,9:00 PM,9:00 AM,9:00 PM,9:00 AM,9:00 PM,9:00 AM,9:00 PM,9:00 AM,9:00 PM,Closed,Closed,R6W 4A8,-97.9391,49.1916,,2013-09-16 07:37:18 UTC,2013-09-16 07:37:18 UTC
701 Regent Avenue West,Winnipeg,Dollarama,1-204-222-3912,MB,8:00 AM,9:00 PM,8:00 AM,9:00 PM,8:00 AM,9:00 PM,8:00 AM,9:00 PM,8:00 AM,9:00 PM,8:00 AM,9:00 PM,9:00 AM,6:00 PM,R2C 1S3,-97.021,49.8952,,2013-09-16 07:37:18 UTC,2013-09-16 07:37:18 UTC
1555 Regent Ave. West,Winnipeg,Dollarama,1-204-654-9857,MB,8:00 AM,9:00 PM,8:00 AM,9:00 PM,8:00 AM,9:00 PM,8:00 AM,9:00 PM,8:00 AM,9:00 PM,9:30 AM,6:00 PM,9:00 AM,6:00 PM,R2C 4J2,-97.0614,49.8982,,2013-09-16 07:37:18 UTC,2013-09-16 07:37:18 UTC
1421 Henderson Hwy.,Winnipeg,Dollarama,1-204-339-4746,MB,8:00 AM,9:00 PM,8:00 AM,9:00 PM,8:00 AM,9:00 PM,8:00 AM,9:00 PM,8:00 AM,9:00 PM,8:00 AM,9:00 PM,9:00 AM,6:00 PM,R2G 1N3,-97.0863,49.9452,,2013-09-16 07:37:18 UTC,2013-09-16 07:37:18 UTC
259 Marion Street,Winnipeg,Dollarama,1-204-231-5038,MB,8:00 AM,9:00 PM,8:00 AM,9:00 PM,8:00 AM,9:00 PM,8:00 AM,9:00 PM,8:00 AM,9:00 PM,8:00 AM,9:00 PM,9:00 AM,6:00 PM,R2H 0T8,-97.1161,49.8817,,2013-09-16 07:37:18 UTC,2013-09-16 07:37:18 UTC
35 Lakewood Blvd.,Winnipeg,Dollarama,1-204-253-0979,MB,8:00 AM,9:00 PM,8:00 AM,9:00 PM,8:00 AM,9:00 PM,8:00 AM,9:00 PM,8:00 AM,9:00 PM,8:00 AM,9:00 PM,9:00 AM,6:00 PM,R2J 2M8,-97.0785,49.8538,,2013-09-16 07:37:18 UTC,2013-09-16 07:37:18 UTC
1100 Concordia Ave. Unit 100,Winnipeg,Dollarama,1-204-661-2915,MB,8:00 AM,9:00 PM,8:00 AM,9:00 PM,8:00 AM,9:00 PM,8:00 AM,9:00 PM,8:00 AM,9:00 PM,8:00 AM,9:00 PM,9:00 AM,6:00 PM,R2K 4B8,-97.0642,49.9121,,2013-09-16 07:37:18 UTC,2013-09-16 07:37:18 UTC
680 St. Anne's Rd,Winnipeg,Dollarama,1-204-255-5518,MB,8:00 AM,9:00 PM,8:00 AM,9:00 PM,8:00 AM,9:00 PM,8:00 AM,9:00 PM,8:00 AM,9:00 PM,8:00 AM,6:00 PM,9:00 AM,6:00 PM,R2N 3M6,-97.0851,49.8271,,2013-09-16 07:37:18 UTC,2013-09-16 07:37:18 UTC
1269 Jefferson Ave,Winnipeg,Dollarama,1-204-632-9289,MB,8:00 AM,9:00 PM,8:00 AM,9:00 PM,8:00 AM,9:00 PM,8:00 AM,9:00 PM,8:00 AM,9:00 PM,8:00 AM,9:00 PM,9:00 AM,6:00 PM,R2P 1S7,-97.1707,49.9526,,2013-09-16 07:37:18 UTC,2013-09-16 07:37:18 UTC
1399 McPhillips St (Un 1260),Winnipeg,Dollarama,1-204-334-0266,MB,8:00 AM,9:00 PM,8:00 AM,9:00 PM,8:00 AM,9:00 PM,8:00 AM,9:00 PM,8:00 AM,9:00 PM,8:00 AM,6:00 PM,10:00 AM,6:00 PM,R2V 3C4,-97.158,49.9413,,2013-09-16 07:37:18 UTC,2013-09-16 07:37:18 UTC
2305 McPhillips St,Winnipeg,Dollarama,1-204-334-7750,MB,8:00 AM,9:00 PM,8:00 AM,9:00 PM,8:00 AM,9:00 PM,8:00 AM,9:00 PM,8:00 AM,9:00 PM,8:00 AM,6:00 PM,10:00 AM,6:00 PM,R2V 3E1,-97.1481,49.9526,,2013-09-16 07:37:18 UTC,2013-09-16 07:37:18 UTC
1114 Main Street,Winnipeg,Dollarama,1-204-582-3411,MB,8:00 AM,9:00 PM,8:00 AM,9:00 PM,8:00 AM,9:00 PM,8:00 AM,9:00 PM,8:00 AM,9:00 PM,8:00 AM,9:00 PM,9:00 AM,6:00 PM,R2W 3S2,-97.1312,49.9173,,2013-09-16 07:37:19 UTC,2013-09-16 07:37:19 UTC
295 Portage Avenue,Winnipeg,Dollarama,1-204-949-1525,MB,8:00 AM,9:00 PM,8:00 AM,9:00 PM,8:00 AM,9:00 PM,8:00 AM,9:00 PM,8:00 AM,9:00 PM,8:00 AM,9:00 PM,9:00 AM,6:00 PM,R3B 2B4,-97.1431,49.8939,,2013-09-16 07:37:19 UTC,2013-09-16 07:37:19 UTC
1300 Ellice Ave (Unit 310),Winnipeg,Dollarama,1-204-774-0536,MB,8:00 AM,9:00 PM,8:00 AM,9:00 PM,8:00 AM,9:00 PM,8:00 AM,9:00 PM,8:00 AM,9:00 PM,8:00 AM,9:00 PM,9:00 AM,6:00 PM,R3G 0E9,-97.1917,49.8937,,2013-09-16 07:37:19 UTC,2013-09-16 07:37:19 UTC
2393 Ness Ave. Unit C,Winnipeg,Dollarama,1-204-888-9706,MB,8:00 AM,9:00 PM,8:00 AM,9:00 PM,8:00 AM,9:00 PM,8:00 AM,9:00 PM,8:00 AM,9:00 PM,8:00 AM,9:00 PM,12:00 PM,6:00 PM,R3J 1A5,-97.2657,49.886,,2013-09-16 07:37:19 UTC,2013-09-16 07:37:19 UTC
3421 Portage Avenue,Winnipeg,Dollarama,1-204-832-5440,MB,8:00 AM,9:00 PM,8:00 AM,9:00 PM,8:00 AM,9:00 PM,8:00 AM,9:00 PM,8:00 AM,9:00 PM,8:00 AM,9:00 PM,12:00 PM,6:00 PM,R3K 2C9,-97.3007,49.8829,,2013-09-16 07:37:19 UTC,2013-09-16 07:37:19 UTC
230 Osborne Avenue,Winnipeg,Dollarama,1-204-284-7466,MB,8:00 AM,9:00 PM,8:00 AM,9:00 PM,8:00 AM,9:00 PM,8:00 AM,9:00 PM,8:00 AM,9:00 PM,8:00 AM,9:00 PM,9:00 AM,6:00 PM,R3L 1Z5,-97.1427,49.8755,,2013-09-16 07:37:19 UTC,2013-09-16 07:37:19 UTC
1170 Taylor Avenue,Winnipeg,Dollarama,1-204-477-5681,MB,8:00 AM,9:00 PM,8:00 AM,9:00 PM,8:00 AM,9:00 PM,8:00 AM,9:00 PM,8:00 AM,9:00 PM,8:00 AM,9:00 PM,9:00 AM,6:00 PM,R3M 3Z4,-97.1636,49.8544,,2013-09-16 07:37:19 UTC,2013-09-16 07:37:19 UTC
3900 Grant Avenue,Winnipeg,Dollarama,1-204-837-8532,MB,8:00 AM,9:00 PM,8:00 AM,9:00 PM,8:00 AM,9:00 PM,8:00 AM,9:00 PM,8:00 AM,9:00 PM,8:00 AM,9:00 PM,12:00 PM,6:00 PM,R3R 3C2,-97.2643,49.859,,2013-09-16 07:37:19 UTC,2013-09-16 07:37:19 UTC
1910 Pembina Hwy. Unit 2,Winnipeg,Dollarama,1-204-275-6468,MB,8:00 AM,9:00 PM,8:00 AM,9:00 PM,8:00 AM,9:00 PM,8:00 AM,9:00 PM,8:00 AM,9:00 PM,8:00 AM,9:00 PM,9:00 AM,6:00 PM,R3T 4S5,-97.1525,49.8215,,2013-09-16 07:37:19 UTC,2013-09-16 07:37:19 UTC
312 Val d'Amour Rd.,Atholville,Dollarama,1-506-753-7349,NB,10:00 AM,10:00 PM,10:00 AM,10:00 PM,10:00 AM,10:00 PM,10:00 AM,10:00 PM,10:00 AM,10:00 PM,10:00 AM,10:00 PM,12:00 PM,5:00 PM,E3N 4E2,-66.7019,47.9935,,2013-09-16 07:37:19 UTC,2013-09-16 07:37:19 UTC
1300 St. Peter's Ave.,Bathurst,Dollarama,1-506-546-4571,NB,9:00 AM,9:00 PM,9:00 AM,9:00 PM,9:00 AM,9:00 PM,9:00 AM,9:00 PM,9:00 AM,9:00 PM,9:00 AM,9:00 PM,12:00 PM,5:00 PM,E2A 3A6,-65.6794,47.6392,,2013-09-16 07:37:19 UTC,2013-09-16 07:37:19 UTC
930 rue St. Anne,Bathurst,Dollarama,1-506-548-4011,NB,9:00 AM,9:00 PM,9:00 AM,9:00 PM,9:00 AM,9:00 PM,9:00 AM,9:00 PM,9:00 AM,9:00 PM,9:00 AM,9:00 PM,12:00 PM,5:00 PM,E2A 6X2,-65.6813,47.6269,,2013-09-16 07:37:19 UTC,2013-09-16 07:37:19 UTC
193 Irving Blvd.,Bouctouche,Dollarama,1-506-743-6727,NB,9:00 AM,7:00 PM,9:00 AM,7:00 PM,9:00 AM,9:00 PM,9:00 AM,9:00 PM,9:00 AM,9:00 PM,9:00 AM,5:00 PM,12:00 PM,5:00 PM,E4S 3K4,-64.7344,46.464,,2013-09-16 07:37:19 UTC,2013-09-16 07:37:19 UTC
157 Water St.,Campbellton,Dollarama,1-506-753-2769,NB,9:00 AM,6:00 PM,9:00 AM,6:00 PM,9:00 AM,6:00 PM,9:00 AM,9:00 PM,9:00 AM,9:00 PM,9:00 AM,6:00 PM,12:00 PM,5:00 PM,E3N 3L4,-66.6761,48.0065,,2013-09-16 07:37:19 UTC,2013-09-16 07:37:19 UTC
445 St. Pierre Blvd. W.,Caraquet,Dollarama,1-506-727-3227,NB,9:00 AM,5:30 PM,9:00 AM,5:30 PM,9:00 AM,5:30 PM,9:00 AM,9:00 PM,9:00 AM,9:00 PM,9:00 AM,5:00 PM,12:00 PM,5:00 PM,E1W 1B2,-64.9909,47.777,,2013-09-16 07:37:19 UTC,2013-09-16 07:37:19 UTC
787 Victoria Street,Edmundston,Dollarama,1-506-735-8270,NB,9:00 AM,9:00 PM,9:00 AM,9:00 PM,9:00 AM,9:00 PM,9:00 AM,9:00 PM,9:00 AM,9:00 PM,9:00 AM,9:00 PM,12:00 PM,5:00 PM,E3V 3T3,-68.344,47.3936,,2013-09-16 07:37:19 UTC,2013-09-16 07:37:19 UTC
102 Main Street,Fredericton,Dollarama,1-506-458-1890,NB,9:00 AM,9:00 PM,9:00 AM,9:00 PM,9:00 AM,9:00 PM,9:00 AM,9:00 PM,9:00 AM,9:00 PM,9:00 AM,9:00 PM,12:00 PM,5:00 PM,E3A 9N6,-66.6583,45.9806,,2013-09-16 07:37:19 UTC,2013-09-16 07:37:19 UTC
1033 Prospect Street,Fredericton,Dollarama,1-506-452-8102,NB,9:00 AM,9:00 PM,9:00 AM,9:00 PM,9:00 AM,9:00 PM,9:00 AM,9:00 PM,9:00 AM,9:00 PM,9:00 AM,9:00 PM,12:00 PM,5:00 PM,E3B 3B9,-66.6703,45.9428,,2013-09-16 07:37:19 UTC,2013-09-16 07:37:19 UTC
528 Smythe Street,Fredericton,Dollarama,1-506-450-8009,NB,9:00 AM,9:00 PM,9:00 AM,9:00 PM,9:00 AM,9:00 PM,9:00 AM,9:00 PM,9:00 AM,9:00 PM,9:00 AM,9:00 PM,12:00 PM,5:00 PM,E3B 3E6,-66.658,45.9565,,2013-09-16 07:37:20 UTC,2013-09-16 07:37:20 UTC
5 Trinity Ave,Fredericton,Dollarama,1-506-472-9742,NB,9:00 AM,9:00 PM,9:00 AM,9:00 PM,9:00 AM,9:00 PM,9:00 AM,9:00 PM,9:00 AM,9:00 PM,9:00 AM,9:00 PM,12:00 PM,5:00 PM,E3C 0B7,-66.6616,45.9313,,2013-09-16 07:37:20 UTC,2013-09-16 07:37:20 UTC
180 Madawaska Rd,Grand Falls,Dollarama,1-506-473-6031,NB,9:00 AM,6:00 PM,9:00 AM,6:00 PM,9:00 AM,9:00 PM,9:00 AM,9:00 PM,9:00 AM,9:00 PM,9:00 AM,5:00 PM,12:00 PM,5:00 PM,E3Y 1A7,-67.7448,47.0541,,2013-09-16 07:37:20 UTC,2013-09-16 07:37:20 UTC
100 Douglastown Blvd. Unit 5,Miramichi,Dollarama,1-506-778-0808,NB,9:00 AM,9:00 PM,9:00 AM,9:00 PM,9:00 AM,9:00 PM,9:00 AM,9:00 PM,9:00 AM,9:00 PM,8:00 AM,9:00 PM,12:00 PM,5:00 PM,E1V 0A3,-65.4899,47.035,,2013-09-16 07:37:20 UTC,2013-09-16 07:37:20 UTC
105 Main Street,Moncton,Dollarama,1-506-852-3620,NB,9:00 AM,9:00 PM,9:00 AM,9:00 PM,9:00 AM,9:00 PM,9:00 AM,9:00 PM,9:00 AM,9:00 PM,9:00 AM,9:00 PM,10:00 AM,5:00 PM,E1C 1B8,-64.7637,46.0929,,2013-09-16 07:37:20 UTC,2013-09-16 07:37:20 UTC
80 Mapleton Road,Moncton,Dollarama,1-506-859-9211,NB,9:00 AM,9:00 PM,9:00 AM,9:00 PM,9:00 AM,9:00 PM,9:00 AM,9:00 PM,9:00 AM,9:00 PM,9:00 AM,9:00 PM,10:00 AM,5:00 PM,E1C 7W8,-64.8228,46.1079,,2013-09-16 07:37:20 UTC,2013-09-16 07:37:20 UTC
1198 Onondaga St.,Oromocto,Dollarama,1-506-357-7767,NB,9:00 AM,9:00 PM,9:00 AM,9:00 PM,9:00 AM,9:00 PM,9:00 AM,9:00 PM,9:00 AM,9:00 PM,9:00 AM,6:00 PM,12:00 PM,5:00 PM,E2V 1B8,-66.4739,45.8528,,2013-09-16 07:37:20 UTC,2013-09-16 07:37:20 UTC
175 Hampton Road,Quispamsis,Dollarama,1-506-847-9357,NB,9:00 AM,9:00 PM,9:00 AM,9:00 PM,9:00 AM,9:00 PM,9:00 AM,9:00 PM,9:00 AM,9:00 PM,9:00 AM,9:00 PM,11:00 AM,5:00 PM,E2E 4Y7,-65.9714,45.404,,2013-09-16 07:37:20 UTC,2013-09-16 07:37:20 UTC
424 Coverdale Road,Riverview,Dollarama,1-506-860-7117,NB,9:00 AM,9:00 PM,9:00 AM,9:00 PM,9:00 AM,9:00 PM,9:00 AM,9:00 PM,9:00 AM,9:00 PM,9:00 AM,9:00 PM,10:00 AM,5:00 PM,E1B 3J9,-64.8,46.0654,,2013-09-16 07:37:20 UTC,2013-09-16 07:37:20 UTC
11 Victoria Street,Shediac,Dollarama,1-506-533-9419,NB,9:00 AM,9:00 PM,9:00 AM,9:00 PM,9:00 AM,9:00 PM,9:00 AM,9:00 PM,9:00 AM,9:00 PM,9:00 AM,6:00 PM,10:00 AM,5:00 PM,E4P 8T6,-64.5417,46.2191,,2013-09-16 07:37:20 UTC,2013-09-16 07:37:20 UTC
212 McAllister Drive,St. John,Dollarama,1-506-634-8696,NB,9:00 AM,9:00 PM,9:00 AM,9:00 PM,9:00 AM,9:00 PM,9:00 AM,9:00 PM,9:00 AM,9:00 PM,8:00 AM,9:00 PM,12:00 PM,5:00 PM,E2J 2S5,-66.0172,45.3106,,2013-09-16 07:37:20 UTC,2013-09-16 07:37:20 UTC
87 Landsdowne Avenue,St. John,Dollarama,1-506-642-8831,NB,9:00 AM,9:00 PM,9:00 AM,9:00 PM,9:00 AM,9:00 PM,9:00 AM,9:00 PM,9:00 AM,9:00 PM,8:00 AM,9:00 PM,12:00 PM,5:00 PM,E2K 3A1,-66.0771,45.2828,,2013-09-16 07:37:20 UTC,2013-09-16 07:37:20 UTC
30 Plaza Ave (Unit 4),St. John,Dollarama,1-506-674-1687,NB,9:00 AM,9:00 PM,9:00 AM,9:00 PM,9:00 AM,9:00 PM,9:00 AM,9:00 PM,9:00 AM,9:00 PM,8:00 AM,9:00 PM,12:00 PM,5:00 PM,E2M 0C3,-66.1032,45.2491,,2013-09-16 07:37:20 UTC,2013-09-16 07:37:20 UTC
210 King St,St. Stephen,Dollarama,1-506-465-8908,NB,9:00 AM,9:00 PM,9:00 AM,9:00 PM,9:00 AM,9:00 PM,9:00 AM,9:00 PM,9:00 AM,9:00 PM,9:00 AM,6:00 PM,12:00 PM,5:00 PM,E3L 2E3,-67.2728,45.2034,,2013-09-16 07:37:20 UTC,2013-09-16 07:37:20 UTC
11 boul. Centre Madawaska,St-Basile,Dollarama,1-506-735-5366,NB,9:30 AM,9:00 PM,9:30 AM,9:00 PM,9:30 AM,9:00 PM,9:30 AM,9:30 PM,9:30 AM,9:30 PM,9:00 AM,5:00 PM,12:00 PM,5:00 PM,E7C 1R7,-68.2666,47.3656,,2013-09-16 07:37:20 UTC,2013-09-16 07:37:20 UTC
286 Main St,Sussex,Dollarama,1-506-432-6905,NB,9:00 AM,9:00 PM,9:00 AM,9:00 PM,9:00 AM,9:00 PM,9:00 AM,9:00 PM,9:00 AM,9:00 PM,9:00 AM,9:00 PM,12:00 PM,5:00 PM,E4E 1R6,-65.5226,45.7242,,2013-09-16 07:37:20 UTC,2013-09-16 07:37:20 UTC
1-3409 rue Principale,Tracadie-Sheila,Dollarama,1-506-393-6486,NB,9:00 AM,9:00 PM,9:00 AM,9:00 PM,9:00 AM,9:00 PM,9:00 AM,9:00 PM,9:00 AM,9:00 PM,9:00 AM,5:00 PM,12:00 PM,5:00 PM,E1X 1C7,-64.9107,47.5215,,2013-09-16 07:37:20 UTC,2013-09-16 07:37:20 UTC
337 Connel Road,Woodstock,Dollarama,1-506-325-2511,NB,9:00 AM,9:00 PM,9:00 AM,9:00 PM,9:00 AM,9:00 PM,9:00 AM,9:00 PM,9:00 AM,9:00 PM,9:00 AM,9:00 PM,12:00 PM,5:00 PM,E7M 1L3,-67.5959,46.1661,,2013-09-16 07:37:20 UTC,2013-09-16 07:37:20 UTC
153 Conception Bay Hwy,Bay Roberts,Dollarama,1-709-786-8587,NL,9:00 AM,9:00 PM,9:00 AM,9:00 PM,9:00 AM,9:00 PM,9:00 AM,9:00 PM,9:00 AM,9:00 PM,9:00 AM,9:00 PM,10:00 AM,5:00 PM,A0A 1G0,-53.2817,47.5929,,2013-09-16 07:37:20 UTC,2013-09-16 07:37:20 UTC
99 Powell Drive,Carbonear,Dollarama,1-709-596-8625,NL,9:00 AM,9:00 PM,9:00 AM,9:00 PM,9:00 AM,9:00 PM,9:00 AM,9:00 PM,9:00 AM,9:00 PM,9:00 AM,9:00 PM,10:00 AM,6:00 PM,A1Y 1A5,-53.2376,47.726,,2013-09-16 07:37:21 UTC,2013-09-16 07:37:21 UTC
69 Manitoba Dr. Unit 127,Clarenville,Dollarama,1-709-466-0297,NL,9:30 AM,7:00 PM,9:30 AM,7:00 PM,9:30 AM,9:00 PM,9:30 AM,9:00 PM,9:30 AM,9:00 PM,9:30 AM,6:00 PM,12:00 PM,5:00 PM,A5A 1K3,-53.9797,48.1627,,2013-09-16 07:37:21 UTC,2013-09-16 07:37:21 UTC
130 Conception Bay Hwy,Conception Bay South,Dollarama,1-709-834-5177,NL,9:00 AM,9:00 PM,9:00 AM,9:00 PM,9:00 AM,9:00 PM,9:00 AM,9:00 PM,9:00 AM,9:00 PM,9:00 AM,9:00 PM,10:00 AM,5:00 PM,A1W 3A6,-52.9577,47.5181,,2013-09-16 07:37:21 UTC,2013-09-16 07:37:21 UTC
1 Mt Bernard Ave,Corner Brook,Dollarama,1-709-634-0364,NL,9:30 AM,6:00 PM,9:30 AM,6:00 PM,9:30 AM,9:00 PM,9:30 AM,9:00 PM,9:30 AM,9:00 PM,9:30 AM,6:00 PM,10:00 AM,5:00 PM,A2H 6Y5,-57.9496,48.9504,,2013-09-16 07:37:21 UTC,2013-09-16 07:37:21 UTC
132 Bennett Dr.,Gander,Dollarama,1-709-256-3501,NL,9:00 AM,9:00 PM,9:00 AM,9:00 PM,9:00 AM,9:00 PM,9:00 AM,9:00 PM,9:00 AM,9:00 PM,9:00 AM,6:00 PM,12:00 PM,5:00 PM,A1V 2H2,-54.6058,48.952,,2013-09-16 07:37:21 UTC,2013-09-16 07:37:21 UTC
2 Hardy Ave.,Grand Falls-Windsor,Dollarama,1-709-489-9030,NL,9:00 AM,9:00 PM,9:00 AM,9:00 PM,9:00 AM,9:00 PM,9:00 AM,9:00 PM,9:00 AM,9:00 PM,9:00 AM,9:00 PM,10:00 AM,5:00 PM,A2A 2P9,-55.6218,48.9536,,2013-09-16 07:37:21 UTC,2013-09-16 07:37:21 UTC
500 Vanier Ave,Labrador City,Dollarama,1-709-944-6800,NL,9:00 AM,5:30 PM,9:00 AM,5:30 PM,9:00 AM,5:30 PM,9:00 AM,9:00 PM,9:00 AM,9:00 PM,9:00 AM,5:00 PM,12:00 PM,5:00 PM,A2V 2W7,-66.9224,52.9486,,2013-09-16 07:37:21 UTC,2013-09-16 07:37:21 UTC
7 Mall St,Marystown,Dollarama,1-709-279-3400,NL,9:00 AM,9:00 PM,9:00 AM,9:00 PM,9:00 AM,9:00 PM,9:00 AM,9:00 PM,9:00 AM,9:00 PM,9:00 AM,9:00 PM,12:00 PM,6:00 PM,A0E 2M0,-55.1534,47.1627,,2013-09-16 07:37:21 UTC,2013-09-16 07:37:21 UTC
75 Kelsey Dr,St. John's,Dollarama,1-709-726-1202,NL,9:00 AM,9:00 PM,9:00 AM,9:00 PM,9:00 AM,9:00 PM,9:00 AM,9:00 PM,9:00 AM,9:00 PM,9:00 AM,9:00 PM,10:00 AM,5:00 PM,A1B 0C7,-52.7813,47.5574,,2013-09-16 07:37:21 UTC,2013-09-16 07:37:21 UTC
29 O'Leary Ave,St. John's,Dollarama,1-709-738-4564,NL,9:00 AM,9:00 PM,9:00 AM,9:00 PM,9:00 AM,9:00 PM,9:00 AM,9:00 PM,9:00 AM,9:00 PM,9:00 AM,9:00 PM,10:00 AM,5:00 PM,A1B 2C8,-52.7556,47.5625,,2013-09-16 07:37:21 UTC,2013-09-16 07:37:21 UTC
430 Topsail Rd,St. John's,Dollarama,1-709-747-4300,NL,10:00 AM,10:00 PM,10:00 AM,10:00 PM,10:00 AM,10:00 PM,10:00 AM,10:00 PM,10:00 AM,10:00 PM,10:00 AM,10:00 PM,12:00 PM,5:00 PM,A1E 4N1,-52.7491,47.5336,,2013-09-16 07:37:21 UTC,2013-09-16 07:37:21 UTC
94 Main St,Stephenville,Dollarama,1-709-643-3778,NL,9:00 AM,7:30 PM,9:00 AM,7:30 PM,9:00 AM,7:30 PM,9:00 AM,9:00 PM,9:00 AM,9:00 PM,9:00 AM,9:00 PM,10:00 AM,5:00 PM,A2N 1J3,-58.5794,48.5486,,2013-09-16 07:37:21 UTC,2013-09-16 07:37:21 UTC
147 South Albion St.,Amherst,Dollarama,1-902-667-0652,NS,9:00 AM,9:00 PM,9:00 AM,9:00 PM,9:00 AM,9:00 PM,9:00 AM,9:00 PM,9:00 AM,9:00 PM,9:00 AM,9:00 PM,10:00 AM,5:00 PM,B4H 2X2,-64.2044,45.816,,2013-09-16 07:37:21 UTC,2013-09-16 07:37:21 UTC
133 Church St.,Antigonish,Dollarama,1-902-863-5237,NS,9:00 AM,9:00 PM,9:00 AM,9:00 PM,9:00 AM,9:00 PM,9:00 AM,9:00 PM,9:00 AM,9:00 PM,9:00 AM,6:00 PM,12:00 PM,5:00 PM,B2G 2E3,-61.9859,45.6163,,2013-09-16 07:37:21 UTC,2013-09-16 07:37:21 UTC
85 Damascus Rd,Bedford,Dollarama,1-902-835-8915,NS,9:00 AM,9:00 PM,9:00 AM,9:00 PM,9:00 AM,9:00 PM,9:00 AM,9:00 PM,9:00 AM,9:00 PM,9:00 AM,9:00 PM,10:00 AM,5:00 PM,B4A 0C2,-63.6391,44.7507,,2013-09-16 07:37:21 UTC,2013-09-16 07:37:21 UTC
1658 Bedford Highway,Bedford,Dollarama,1-902-835-9675,NS,9:30 AM,9:00 PM,9:30 AM,9:00 PM,9:30 AM,9:00 PM,9:30 AM,9:00 PM,9:30 AM,9:00 PM,9:30 AM,6:00 PM,12:00 PM,5:00 PM,B4A 2X9,-63.6551,44.7357,,2013-09-16 07:37:21 UTC,2013-09-16 07:37:21 UTC
421 Lahave Street,Bridgewater,Dollarama,1-902-543-3303,NS,9:30 AM,6:00 PM,9:30 AM,9:00 PM,9:30 AM,9:00 PM,9:30 AM,9:00 PM,9:30 AM,9:00 PM,9:30 AM,6:00 PM,12:00 PM,5:00 PM,B4V 3A2,-64.5158,44.3778,,2013-09-16 07:37:21 UTC,2013-09-16 07:37:21 UTC
50 Tacoma Drive,Dartmouth,Dollarama,1-902-434-5499,NS,9:00 AM,9:00 PM,9:00 AM,9:00 PM,9:00 AM,9:00 PM,9:00 AM,9:00 PM,9:00 AM,9:00 PM,9:00 AM,9:00 PM,10:00 AM,6:00 PM,B2W 3E5,-63.538,44.6808,,2013-09-16 07:37:21 UTC,2013-09-16 07:37:21 UTC
650 Portland Street,Dartmouth,Dollarama,1-902-462-0851,NS,9:00 AM,9:00 PM,9:00 AM,9:00 PM,9:00 AM,9:00 PM,9:00 AM,9:00 PM,9:00 AM,9:00 PM,9:00 AM,9:00 PM,10:00 AM,5:00 PM,B2W 6A3,-63.5229,44.67,,2013-09-16 07:37:21 UTC,2013-09-16 07:37:21 UTC
118 Wyse Road,Dartmouth,Dollarama,1-902-463-8812,NS,9:00 AM,9:00 PM,9:00 AM,9:00 PM,9:00 AM,9:00 PM,9:00 AM,9:00 PM,9:00 AM,9:00 PM,9:00 AM,9:00 PM,10:00 AM,5:00 PM,B3A 1N7,-63.578,44.6717,,2013-09-16 07:37:21 UTC,2013-09-16 07:37:21 UTC
87 Warwick St,Digby,Dollarama,1-902-245-1936,NS,9:00 AM,9:00 PM,9:00 AM,9:00 PM,9:00 AM,9:00 PM,9:00 AM,9:00 PM,9:00 AM,9:00 PM,9:00 AM,6:00 PM,10:00 AM,5:00 PM,B0V 1A0,-65.7638,44.6164,,2013-09-16 07:37:22 UTC,2013-09-16 07:37:22 UTC
3 Sterling Road,Glace Bay,Dollarama,1-902-849-3067,NS,9:00 AM,9:00 PM,9:00 AM,9:00 PM,9:00 AM,9:00 PM,9:00 AM,9:00 PM,9:00 AM,9:00 PM,9:00 AM,5:00 PM,12:00 PM,5:00 PM,B1A 3X2,-59.9582,46.2013,,2013-09-16 07:37:22 UTC,2013-09-16 07:37:22 UTC
1065 Central Ave.,Greenwood,Dollarama,1-902-765-6036,NS,9:00 AM,9:00 PM,9:00 AM,9:00 PM,9:00 AM,9:00 PM,9:00 AM,9:00 PM,9:00 AM,9:00 PM,9:00 AM,9:00 PM,10:00 AM,5:00 PM,B0P 1N0,-64.9391,44.9686,,2013-09-16 07:37:22 UTC,2013-09-16 07:37:22 UTC
5201 Duke St,Halifax,Dollarama,1-902-442-0252,NS,8:00 AM,6:00 PM,8:00 AM,6:00 PM,8:00 AM,6:00 PM,8:00 AM,8:00 PM,8:00 AM,8:00 PM,8:00 AM,6:00 PM,12:00 PM,5:00 PM,B3J 1N9,-63.5751,44.6492,,2013-09-16 07:37:22 UTC,2013-09-16 07:37:22 UTC
6061 Young Street,Halifax,Dollarama,1-902-442-0308,NS,9:00 AM,9:00 PM,9:00 AM,9:00 PM,9:00 AM,9:00 PM,9:00 AM,9:00 PM,9:00 AM,9:00 PM,9:00 AM,9:00 PM,12:00 PM,5:00 PM,B3K 2A3,-63.603,44.6592,,2013-09-16 07:37:22 UTC,2013-09-16 07:37:22 UTC
7001 Mumford Rd.,Halifax,Dollarama,1-902-453-4739,NS,9:30 AM,9:00 PM,9:30 AM,9:00 PM,9:30 AM,9:00 PM,9:30 AM,9:00 PM,9:30 AM,9:00 PM,9:30 AM,9:00 PM,12:00 PM,5:00 PM,B3L 2H8,-63.6203,44.6482,,2013-09-16 07:37:22 UTC,2013-09-16 07:37:22 UTC
55 Peakview Way,Halifax,Dollarama,1-902-832-0612,NS,9:00 AM,6:00 PM,9:00 AM,6:00 PM,9:00 AM,6:00 PM,9:00 AM,9:00 PM,9:00 AM,9:00 PM,9:00 AM,6:00 PM,12:00 PM,9:00 PM,B3M 0G2,-63.6713,44.6795,,2013-09-16 07:37:22 UTC,2013-09-16 07:37:22 UTC
16 Dentith Rd.,Halifax,Dollarama,1-902-479-2465,NS,9:00 AM,9:00 PM,9:00 AM,9:00 PM,9:00 AM,9:00 PM,9:00 AM,9:00 PM,9:00 AM,9:00 PM,9:00 AM,9:00 PM,10:00 AM,6:00 PM,B3R 2H9,-63.6184,44.6133,,2013-09-16 07:37:22 UTC,2013-09-16 07:37:22 UTC
209 Chain Lake Drive,Halifax,Dollarama,1-902-450-0877,NS,8:00 AM,9:00 PM,8:00 AM,9:00 PM,8:00 AM,9:00 PM,8:00 AM,9:00 PM,8:00 AM,9:00 PM,8:00 AM,9:00 PM,10:00 AM,5:00 PM,B3S 1C9,-63.6764,44.652,,2013-09-16 07:37:22 UTC,2013-09-16 07:37:22 UTC
800 Sackville Drive,Lower Sackville,Dollarama,1-902-864-4396,NS,9:00 AM,9:00 PM,9:00 AM,9:00 PM,9:00 AM,9:00 PM,9:00 AM,9:00 PM,9:00 AM,9:00 PM,9:00 AM,9:00 PM,10:00 AM,5:00 PM,B4E 1R8,-63.6928,44.7736,,2013-09-16 07:37:22 UTC,2013-09-16 07:37:22 UTC
660 Westville Road,New Glasgow,Dollarama,1-902-752-0123,NS,9:00 AM,9:00 PM,9:00 AM,9:00 PM,9:00 AM,9:00 PM,9:00 AM,9:00 PM,9:00 AM,9:00 PM,9:00 AM,9:00 PM,12:00 PM,5:00 PM,B2H 5E5,-62.6655,45.5782,,2013-09-16 07:37:22 UTC,2013-09-16 07:37:22 UTC
9049 Commercial Street,New Minas,Dollarama,1-902-681-2513,NS,9:00 AM,9:00 PM,9:00 AM,9:00 PM,9:00 AM,9:00 PM,9:00 AM,9:00 PM,9:00 AM,9:00 PM,9:00 AM,9:00 PM,10:00 AM,5:00 PM,B4N 5A4,-64.4564,45.0677,,2013-09-16 07:37:22 UTC,2013-09-16 07:37:22 UTC
116 King Street,North Sydney,Dollarama,1-902-794-7959,NS,10:00 AM,9:00 PM,10:00 AM,9:00 PM,10:00 AM,9:00 PM,10:00 AM,9:00 PM,10:00 AM,9:00 PM,10:00 AM,9:00 PM,12:00 PM,5:00 PM,B2A 3R7,-60.2649,46.2154,,2013-09-16 07:37:22 UTC,2013-09-16 07:37:22 UTC
47 Paint St.,Port Hawkesbury,Dollarama,1-902-625-3486,NS,9:00 AM,6:00 PM,9:00 AM,6:00 PM,9:00 AM,6:00 PM,9:00 AM,9:00 PM,9:00 AM,9:00 PM,9:00 AM,6:00 PM,12:00 PM,5:00 PM,B9A 3J9,-61.335,45.6182,,2013-09-16 07:37:22 UTC,2013-09-16 07:37:22 UTC
421 Grand Lake Road,Sydney,Dollarama,1-902-564-6043,NS,9:00 AM,9:00 PM,9:00 AM,9:00 PM,9:00 AM,9:00 PM,9:00 AM,9:00 PM,9:00 AM,9:00 PM,9:00 AM,9:00 PM,10:00 AM,5:00 PM,B1P 5T1,-60.1601,46.1457,,2013-09-16 07:37:22 UTC,2013-09-16 07:37:22 UTC
7 Keltic Drive,Sydney,Dollarama,1-902-539-0473,NS,9:00 AM,9:00 PM,9:00 AM,9:00 PM,9:00 AM,9:00 PM,9:00 AM,9:00 PM,9:00 AM,9:00 PM,9:00 AM,9:00 PM,10:00 AM,7:00 PM,B1S 1P4,-60.2253,46.1113,,2013-09-16 07:37:23 UTC,2013-09-16 07:37:23 UTC
245 Robie Street,Truro,Dollarama,1-902-893-7789,NS,9:30 AM,9:00 PM,9:30 AM,9:00 PM,9:30 AM,9:00 PM,9:30 AM,9:00 PM,9:30 AM,9:00 PM,9:30 AM,9:00 PM,12:00 PM,5:00 PM,B2N 5N6,-63.3033,45.3694,,2013-09-16 07:37:23 UTC,2013-09-16 07:37:23 UTC
50 Empire Lane,Windsor,Dollarama,1-902-798-8184,NS,9:00 AM,9:00 PM,9:00 AM,9:00 PM,9:00 AM,9:00 PM,9:00 AM,9:00 PM,9:00 AM,9:00 PM,9:00 AM,9:00 PM,10:00 AM,5:00 PM,B0N 2T0,-64.1262,44.9927,,2013-09-16 07:37:23 UTC,2013-09-16 07:37:23 UTC
130 Starr's Road,Yarmouth,Dollarama,1-902-749-0373,NS,9:00 AM,9:00 PM,9:00 AM,9:00 PM,9:00 AM,9:00 PM,9:00 AM,9:00 PM,9:00 AM,9:00 PM,9:00 AM,6:00 PM,10:00 AM,5:00 PM,B5A 4E5,-66.097,43.8406,,2013-09-16 07:37:23 UTC,2013-09-16 07:37:23 UTC
314 Harwood Ave S.,Ajax,Dollarama,1-905-683-1515,ON,9:00 AM,9:00 PM,9:00 AM,9:00 PM,9:00 AM,9:00 PM,9:00 AM,9:00 PM,9:00 AM,9:00 PM,9:00 AM,8:00 PM,9:00 AM,7:00 PM,L1S 2J1,-79.019,43.8452,,2013-09-16 07:37:23 UTC,2013-09-16 07:37:23 UTC
280 Kingston Rd E,Ajax,Dollarama,1-289-372-3066,ON,9:00 AM,9:00 PM,9:00 AM,9:00 PM,9:00 AM,9:00 PM,9:00 AM,9:00 PM,9:00 AM,9:00 PM,9:00 AM,9:00 PM,9:00 AM,7:00 PM,L1Z 1G1,-79.0118,43.8644,,2013-09-16 07:37:23 UTC,2013-09-16 07:37:23 UTC
434 Main Street South,Alexandria,Dollarama,1-613-525-1915,ON,9:00 AM,8:00 PM,9:00 AM,8:00 PM,9:00 AM,8:00 PM,9:00 AM,9:00 PM,9:00 AM,9:00 PM,9:00 AM,5:00 PM,10:00 AM,5:00 PM,K0C 1A0,-74.6282,45.3008,,2013-09-16 07:37:23 UTC,2013-09-16 07:37:23 UTC
22 Dunham Dr,Alliston,Dollarama,1-705-435-7328,ON,8:00 AM,9:00 PM,8:00 AM,9:00 PM,8:00 AM,9:00 PM,8:00 AM,9:00 PM,8:00 AM,9:00 PM,8:00 AM,9:00 PM,8:00 AM,6:00 PM,L9R 0G1,-79.867,44.1526,,2013-09-16 07:37:23 UTC,2013-09-16 07:37:23 UTC
36 Young Street,Alliston,Dollarama,1-705-434-2049,ON,9:00 AM,9:00 PM,9:00 AM,9:00 PM,9:00 AM,9:00 PM,9:00 AM,9:00 PM,9:00 AM,9:00 PM,9:00 AM,6:00 PM,9:00 AM,6:00 PM,L9R 1P8,-79.8822,44.1484,,2013-09-16 07:37:23 UTC,2013-09-16 07:37:23 UTC
421 Sandwich St. South,Amherstburg,Dollarama,1-519-736-9599,ON,9:00 AM,9:00 PM,9:00 AM,9:00 PM,9:00 AM,9:00 PM,9:00 AM,9:00 PM,9:00 AM,9:00 PM,9:00 AM,8:00 PM,9:00 AM,6:00 PM,N9V 3K8,-83.1081,42.0973,,2013-09-16 07:37:23 UTC,2013-09-16 07:37:23 UTC
46 Wilson Street West,AnCoter,Dollarama,1-905-304-1935,ON,9:00 AM,9:00 PM,9:00 AM,9:00 PM,9:00 AM,9:00 PM,9:00 AM,9:00 PM,9:00 AM,9:00 PM,9:00 AM,6:00 PM,9:00 AM,6:00 PM,L9G 1N2,-79.9883,43.2172,,2013-09-16 07:37:23 UTC,2013-09-16 07:37:23 UTC
1015 Golf Links Road,AnCoter,Dollarama,1-905-304-6259,ON,9:30 AM,9:00 PM,9:30 AM,9:00 PM,9:30 AM,9:00 PM,9:30 AM,9:00 PM,9:30 AM,9:00 PM,9:00 AM,6:00 PM,9:00 AM,6:00 PM,L9K 1L6,-79.9414,43.2285,,2013-09-16 07:37:23 UTC,2013-09-16 07:37:23 UTC
17 King Street,Angus,Dollarama,1-705-424-3000,ON,9:00 AM,9:00 PM,9:00 AM,9:00 PM,9:00 AM,9:00 PM,9:00 AM,9:00 PM,9:00 AM,9:00 PM,9:00 AM,6:00 PM,9:00 AM,6:00 PM,L0M 1B2,-79.8855,44.3197,,2013-09-16 07:37:23 UTC,2013-09-16 07:37:23 UTC
52 First Commerce Dr. Unit 3,Aurora,Dollarama,1-905-727-7253,ON,9:00 AM,9:00 PM,9:00 AM,9:00 PM,9:00 AM,9:00 PM,9:00 AM,9:00 PM,9:00 AM,9:00 PM,9:00 AM,7:00 PM,10:00 AM,5:00 PM,L4G 0H5,-79.4179,44.0124,,2013-09-16 07:37:23 UTC,2013-09-16 07:37:23 UTC
15260 Yonge Street,Aurora,Dollarama,1-905-751-0517,ON,9:00 AM,9:00 PM,9:00 AM,9:00 PM,9:00 AM,9:00 PM,9:00 AM,9:00 PM,9:00 AM,9:00 PM,9:00 AM,7:00 PM,10:00 AM,6:00 PM,L4G 1N4,-79.4678,44.0003,,2013-09-16 07:37:23 UTC,2013-09-16 07:37:23 UTC
60 Dunlop Street East,Barrie,Dollarama,1-705-792-9097,ON,9:00 AM,6:00 PM,9:00 AM,6:00 PM,9:00 AM,6:00 PM,9:00 AM,9:00 PM,9:00 AM,9:00 PM,9:00 AM,6:00 PM,11:00 AM,5:00 PM,L4M 1A3,-79.688,44.3893,,2013-09-16 07:37:24 UTC,2013-09-16 07:37:24 UTC
320 Bayfield St.,Barrie,Dollarama,1-705-735-6071,ON,9:00 AM,9:00 PM,9:00 AM,9:00 PM,9:00 AM,9:00 PM,9:00 AM,9:00 PM,9:00 AM,9:00 PM,9:00 AM,6:00 PM,11:00 AM,5:00 PM,L4M 3C1,-79.7003,44.4011,,2013-09-16 07:37:24 UTC,2013-09-16 07:37:24 UTC
165 Wellington Street West,Barrie,Dollarama,1-705-728-5073,ON,9:00 AM,9:00 PM,9:00 AM,9:00 PM,9:00 AM,9:00 PM,9:00 AM,9:00 PM,9:00 AM,9:00 PM,9:00 AM,7:00 PM,9:00 AM,6:00 PM,L4N 1L7,-79.7053,44.3885,,2013-09-16 07:37:24 UTC,2013-09-16 07:37:24 UTC
632 Yonge St Unit C2-3-4,Barrie,Dollarama,1-705-726-6726,ON,8:00 AM,9:00 PM,8:00 AM,9:00 PM,8:00 AM,9:00 PM,8:00 AM,9:00 PM,8:00 AM,9:00 PM,9:00 AM,9:00 PM,10:00 AM,5:00 PM,L4N 4E6,-79.6463,44.3564,,2013-09-16 07:37:24 UTC,2013-09-16 07:37:24 UTC
555 Essa Road,Barrie,Dollarama,1-705-722-9238,ON,8:00 AM,9:00 PM,8:00 AM,9:00 PM,8:00 AM,9:00 PM,8:00 AM,9:00 PM,8:00 AM,9:00 PM,9:00 AM,9:00 PM,10:00 AM,5:00 PM,L4N 6A9,-79.7102,44.3367,,2013-09-16 07:37:24 UTC,2013-09-16 07:37:24 UTC
406 Bryne Drive,Barrie,Dollarama,1-705-726-3238,ON,9:00 AM,9:00 PM,9:00 AM,9:00 PM,9:00 AM,9:00 PM,9:00 AM,9:00 PM,9:00 AM,9:00 PM,9:00 AM,6:00 PM,10:00 AM,5:00 PM,L4N 9R1,-79.691,44.3373,,2013-09-16 07:37:24 UTC,2013-09-16 07:37:24 UTC
264 Millennium Parkway,Belleville,Dollarama,1-613-967-8508,ON,8:00 AM,9:00 PM,8:00 AM,9:00 PM,8:00 AM,9:00 PM,8:00 AM,9:00 PM,8:00 AM,9:00 PM,8:00 AM,6:00 PM,9:30 AM,5:00 PM,K8N 4Z5,-77.3984,44.1963,,2013-09-16 07:37:24 UTC,2013-09-16 07:37:24 UTC
161 Bridge St W,Belleville,Dollarama,1-613-962-6767,ON,9:00 AM,9:00 PM,9:00 AM,9:00 PM,9:00 AM,9:00 PM,9:00 AM,9:00 PM,9:00 AM,9:00 PM,9:00 AM,6:00 PM,10:00 AM,5:00 PM,K8P 1K2,-77.3985,44.1607,,2013-09-16 07:37:24 UTC,2013-09-16 07:37:24 UTC
211 North Front Street,Belleville,Dollarama,1-613-771-1264,ON,8:00 AM,9:00 PM,8:00 AM,9:00 PM,8:00 AM,9:00 PM,8:00 AM,9:00 PM,8:00 AM,9:00 PM,8:00 AM,8:00 PM,9:00 AM,6:00 PM,K8P 3C3,-77.3923,44.18,,2013-09-16 07:37:24 UTC,2013-09-16 07:37:24 UTC
301 Queen Street,Bolton,Dollarama,1-905-951-1891,ON,9:00 AM,9:00 PM,9:00 AM,9:00 PM,9:00 AM,9:00 PM,9:00 AM,9:00 PM,9:00 AM,9:00 PM,9:00 AM,6:30 PM,10:00 AM,6:00 PM,L7E 2B1,-79.73,43.8737,,2013-09-16 07:37:24 UTC,2013-09-16 07:37:24 UTC
1995 Green Road,Bowmanville,Dollarama,1-905-697-8366,ON,9:00 AM,9:00 PM,9:00 AM,9:00 PM,9:00 AM,9:00 PM,9:00 AM,9:00 PM,9:00 AM,9:00 PM,9:00 AM,6:00 PM,9:00 AM,6:00 PM,L1C 0K5,-78.7109,43.9065,,2013-09-16 07:37:24 UTC,2013-09-16 07:37:24 UTC
243 King Street East,Bowmanville,Dollarama,1-905-697-5818,ON,9:00 AM,9:00 PM,9:00 AM,9:00 PM,9:00 AM,9:00 PM,9:00 AM,9:00 PM,9:00 AM,9:00 PM,9:00 AM,6:00 PM,11:00 AM,5:00 PM,L1C 3X1,-78.6746,43.9116,,2013-09-16 07:37:24 UTC,2013-09-16 07:37:24 UTC
500 Highway #118 West,Bracebridge,Dollarama,1-705-645-8599,ON,9:00 AM,7:00 PM,9:00 AM,7:00 PM,9:00 AM,7:00 PM,9:00 AM,9:00 PM,9:00 AM,9:00 PM,9:00 AM,6:00 PM,10:00 AM,5:00 PM,P1L 1T3,-79.3175,45.0118,,2013-09-16 07:37:24 UTC,2013-09-16 07:37:24 UTC
537 Holland St W. Unit Q1,Bradford,Dollarama,1-905-778-0312,ON,8:00 AM,9:00 PM,8:00 AM,9:00 PM,8:00 AM,9:00 PM,8:00 AM,9:00 PM,8:00 AM,9:00 PM,8:00 AM,9:00 PM,8:00 AM,6:00 PM,L3Z 2A4,-79.6017,44.106,,2013-09-16 07:37:24 UTC,2013-09-16 07:37:24 UTC
70 Great Lakes Dr,Brampton,Dollarama,1-905-458-9190,ON,9:00 AM,9:00 PM,9:00 AM,9:00 PM,9:00 AM,9:00 PM,9:00 AM,9:00 PM,9:00 AM,9:00 PM,9:00 AM,7:00 PM,10:00 AM,6:00 PM,L6R 2K7,-79.7621,43.7316,,2013-09-16 07:37:24 UTC,2013-09-16 07:37:24 UTC
9960 Airport Road,Brampton,Dollarama,1-905-595-0712,ON,9:00 AM,9:00 PM,9:00 AM,9:00 PM,9:00 AM,9:00 PM,9:00 AM,9:00 PM,9:00 AM,9:00 PM,9:00 AM,7:00 PM,10:00 AM,6:00 PM,L6S 0C5,-79.7189,43.7606,,2013-09-16 07:37:24 UTC,2013-09-16 07:37:24 UTC
150 West Dr.,Brampton,Dollarama,1-905-457-5245,ON,9:00 AM,9:00 PM,9:00 AM,9:00 PM,9:00 AM,9:00 PM,9:00 AM,9:00 PM,9:00 AM,9:00 PM,9:00 AM,7:00 PM,10:00 AM,6:00 PM,L6T 4P9,-79.7355,43.7058,,2013-09-16 07:37:24 UTC,2013-09-16 07:37:24 UTC
547 Steeles Ave. E,Brampton,Dollarama,1-905-451-4249,ON,9:00 AM,9:00 PM,9:00 AM,9:00 PM,9:00 AM,9:00 PM,9:00 AM,9:00 PM,9:00 AM,9:00 PM,9:00 AM,6:00 PM,10:00 AM,6:00 PM,L6W 4S2,-79.72,43.6779,,2013-09-16 07:37:24 UTC,2013-09-16 07:37:24 UTC
499 Main Street South,Brampton,Dollarama,1-905-866-6948,ON,9:00 AM,9:00 PM,9:00 AM,9:00 PM,9:00 AM,9:00 PM,9:00 AM,9:00 PM,9:00 AM,9:00 PM,9:00 AM,6:00 PM,11:00 AM,5:00 PM,L6Y 1N7,-79.7351,43.6672,,2013-09-16 07:37:24 UTC,2013-09-16 07:37:24 UTC
180 Sandalwood Parkway East,Brampton,Dollarama,1-905-840-5725,ON,9:00 AM,9:00 PM,9:00 AM,9:00 PM,9:00 AM,9:00 PM,9:00 AM,9:00 PM,9:00 AM,9:00 PM,9:00 AM,7:00 PM,10:00 AM,6:00 PM,L6Z 4N2,-79.7946,43.7275,,2013-09-16 07:37:24 UTC,2013-09-16 07:37:24 UTC
410 Fairview Drive,Brantford,Dollarama,1-519-758-8826,ON,9:00 AM,9:00 PM,9:00 AM,9:00 PM,9:00 AM,9:00 PM,9:00 AM,9:00 PM,9:00 AM,9:00 PM,9:00 AM,9:00 PM,9:00 AM,6:00 PM,N3R 2X8,-80.2479,43.1724,,2013-09-16 07:37:24 UTC,2013-09-16 07:37:24 UTC
185 King George Rd,Brantford,Dollarama,1-226-250-3025,ON,9:30 AM,9:00 PM,9:30 AM,9:00 PM,9:30 AM,9:00 PM,9:30 AM,9:00 PM,9:30 AM,9:00 PM,9:00 AM,9:00 PM,10:00 AM,5:00 PM,N3R 7R9,-80.2782,43.1739,,2013-09-16 07:37:25 UTC,2013-09-16 07:37:25 UTC
50 Market St. S.,Brantford,Dollarama,1-226-250-3026,ON,9:00 AM,9:00 PM,9:00 AM,9:00 PM,9:00 AM,9:00 PM,9:00 AM,9:00 PM,9:00 AM,9:00 PM,9:00 AM,9:00 PM,9:00 AM,6:00 PM,N3S 2E3,-80.2634,43.1376,,2013-09-16 07:37:25 UTC,2013-09-16 07:37:25 UTC
3027 Parkdale Ave. West,Brockville,Dollarama,1-613-345-5774,ON,9:00 AM,9:00 PM,9:00 AM,9:00 PM,9:00 AM,9:00 PM,9:00 AM,9:00 PM,9:00 AM,9:00 PM,9:00 AM,6:00 PM,10:00 AM,5:00 PM,K6V 3G7,-75.7019,44.6031,,2013-09-16 07:37:25 UTC,2013-09-16 07:37:25 UTC
5111 New Street,Burlington,Dollarama,1-905-681-5532,ON,9:30 AM,9:00 PM,9:30 AM,9:00 PM,9:30 AM,9:00 PM,9:30 AM,9:00 PM,9:30 AM,9:00 PM,10:00 AM,6:00 PM,11:00 AM,5:00 PM,L7L 1V2,-79.7532,43.3692,,2013-09-16 07:37:25 UTC,2013-09-16 07:37:25 UTC
2201 Brant Street,Burlington,Dollarama,1-905-336-9375,ON,9:00 AM,9:00 PM,9:00 AM,9:00 PM,9:00 AM,9:00 PM,9:00 AM,9:00 PM,9:00 AM,9:00 PM,9:00 AM,6:00 PM,11:00 AM,5:00 PM,L7P 3N8,-79.843,43.3571,,2013-09-16 07:37:25 UTC,2013-09-16 07:37:25 UTC
2025 Guelph Line,Burlington,Dollarama,1-289-288-0050,ON,9:00 AM,9:00 PM,9:00 AM,9:00 PM,9:00 AM,9:00 PM,9:00 AM,9:00 PM,9:00 AM,9:00 PM,10:00 AM,6:00 PM,11:00 AM,5:00 PM,L7P 4M8,-79.8232,43.3656,,2013-09-16 07:37:25 UTC,2013-09-16 07:37:25 UTC
1200 Brant Street,Burlington,Dollarama,1-905-331-1696,ON,9:30 AM,9:00 PM,9:30 AM,9:00 PM,9:30 AM,9:00 PM,9:30 AM,9:00 PM,9:30 AM,9:00 PM,11:00 AM,5:00 PM,12:00 PM,5:00 PM,L7P 5C6,-79.8237,43.3423,,2013-09-16 07:37:25 UTC,2013-09-16 07:37:25 UTC
601 Brant St.,Burlington,Dollarama,1-905-639-1710,ON,9:30 AM,9:00 PM,9:30 AM,9:00 PM,9:30 AM,9:00 PM,9:30 AM,9:00 PM,9:30 AM,9:00 PM,9:30 AM,6:00 PM,11:00 AM,5:00 PM,L7R 2G6,-79.8029,43.3295,,2013-09-16 07:37:25 UTC,2013-09-16 07:37:25 UTC
777 Guelph Line,Burlington,Dollarama,1-905-632-2349,ON,9:30 AM,9:00 PM,9:30 AM,9:00 PM,9:30 AM,9:00 PM,9:30 AM,9:00 PM,9:30 AM,9:00 PM,9:30 AM,6:00 PM,12:00 PM,5:00 PM,L7R 3N2,-79.7948,43.3454,,2013-09-16 07:37:25 UTC,2013-09-16 07:37:25 UTC
2445 Appleby Line,Burlington,Dollarama,1-289-313-0050,ON,9:30 AM,9:00 PM,9:30 AM,9:00 PM,9:30 AM,9:00 PM,9:30 AM,9:00 PM,9:30 AM,9:00 PM,9:00 AM,6:00 PM,11:00 AM,5:00 PM,L7R 3X4,-79.8267,43.4203,,2013-09-16 07:37:25 UTC,2013-09-16 07:37:25 UTC
1235 Fairview St,Burlington,Dollarama,1-289-288-0187,ON,9:00 AM,9:00 PM,9:00 AM,9:00 PM,9:00 AM,9:00 PM,9:00 AM,9:00 PM,9:00 AM,9:00 PM,10:00 AM,6:00 PM,11:00 AM,5:00 PM,L7S 2H9,-79.8196,43.3311,,2013-09-16 07:37:25 UTC,2013-09-16 07:37:25 UTC
551 Hespeler Road,Cambridge,Dollarama,1-519-621-7443,ON,9:00 AM,9:00 PM,9:00 AM,9:00 PM,9:00 AM,9:00 PM,9:00 AM,9:00 PM,9:00 AM,9:00 PM,9:00 AM,9:00 PM,9:00 AM,6:00 PM,N1R 6J3,-80.3259,43.4018,,2013-09-16 07:37:25 UTC,2013-09-16 07:37:25 UTC
42 Pinebush Rd,Cambridge,Dollarama,1-519-629-0254,ON,8:00 AM,9:00 PM,8:00 AM,9:00 PM,8:00 AM,9:00 PM,8:00 AM,9:00 PM,8:00 AM,9:00 PM,8:00 AM,9:00 PM,8:00 AM,6:00 PM,N1R 8K5,-80.3243,43.4088,,2013-09-16 07:37:25 UTC,2013-09-16 07:37:25 UTC
1 Hespeler Road,Cambridge,Dollarama,1-519-620-8312,ON,8:00 AM,9:00 PM,8:00 AM,9:00 PM,8:00 AM,9:00 PM,8:00 AM,9:00 PM,8:00 AM,9:00 PM,8:00 AM,9:00 PM,8:00 AM,6:00 PM,N1R 8L4,-80.3186,43.3762,,2013-09-16 07:37:25 UTC,2013-09-16 07:37:25 UTC
200 Franklin Blvd,Cambridge,Dollarama,1-519-629-0243,ON,8:00 AM,9:00 PM,8:00 AM,9:00 PM,8:00 AM,9:00 PM,8:00 AM,9:00 PM,8:00 AM,9:00 PM,8:00 AM,9:00 PM,8:00 AM,6:00 PM,N1R 8N8,-80.2876,43.3563,,2013-09-16 07:37:25 UTC,2013-09-16 07:37:25 UTC
130 Cedar St,Cambridge,Dollarama,1-519-629-0141,ON,9:00 AM,9:00 PM,9:00 AM,9:00 PM,9:00 AM,9:00 PM,9:00 AM,9:00 PM,9:00 AM,9:00 PM,9:00 AM,9:00 PM,9:00 AM,6:00 PM,N1S 1W4,-80.3279,43.3518,,2013-09-16 07:37:25 UTC,2013-09-16 07:37:25 UTC
444 McNeely Ave.,Carleton Place,Dollarama,1-613-253-1667,ON,9:30 AM,7:00 PM,9:30 AM,7:00 PM,9:30 AM,7:00 PM,9:30 AM,9:00 PM,9:30 AM,9:00 PM,9:00 AM,6:00 PM,10:00 AM,5:00 PM,K7C 0A6,-76.1231,45.1351,,2013-09-16 07:37:25 UTC,2013-09-16 07:37:25 UTC
603 Grand Avenue West,Chatham,Dollarama,1-519-360-3226,ON,9:00 AM,9:00 PM,9:00 AM,9:00 PM,9:00 AM,9:00 PM,9:00 AM,9:00 PM,9:00 AM,9:00 PM,9:00 AM,6:00 PM,10:00 AM,6:00 PM,N7L 1C5,-82.2105,42.3975,,2013-09-16 07:37:25 UTC,2013-09-16 07:37:25 UTC
815 St. Clair Street,Chatham,Dollarama,1-519-358-7603,ON,9:00 AM,9:00 PM,9:00 AM,9:00 PM,9:00 AM,9:00 PM,9:00 AM,9:00 PM,9:00 AM,9:00 PM,9:00 AM,9:00 PM,10:00 AM,5:00 PM,N7M 5J7,-82.2182,42.4298,,2013-09-16 07:37:25 UTC,2013-09-16 07:37:25 UTC
100 King Street West,Chatham,Dollarama,1-519-352-4804,ON,10:00 AM,6:00 PM,10:00 AM,6:00 PM,10:00 AM,6:00 PM,10:00 AM,9:00 PM,10:00 AM,9:00 PM,10:00 AM,6:00 PM,12:00 PM,5:00 PM,N7M 6A9,-82.1824,42.405,,2013-09-16 07:37:25 UTC,2013-09-16 07:37:25 UTC
3000 Richelieu St,Clarence-Rockland,Dollarama,1-613-446-0778,ON,9:00 AM,9:00 PM,9:00 AM,9:00 PM,9:00 AM,9:00 PM,9:00 AM,9:00 PM,9:00 AM,9:00 PM,9:00 AM,8:00 PM,9:00 AM,6:00 PM,K4K 0B5,-75.3045,45.534,,2013-09-16 07:37:25 UTC,2013-09-16 07:37:25 UTC
975 Elgin Street West,Cobourg,Dollarama,1-905-372-1224,ON,8:00 AM,9:00 PM,8:00 AM,9:00 PM,8:00 AM,9:00 PM,8:00 AM,9:00 PM,8:00 AM,9:00 PM,8:00 AM,9:00 PM,9:00 AM,7:00 PM,K9A 5J4,-78.1948,43.9722,,2013-09-16 07:37:26 UTC,2013-09-16 07:37:26 UTC
55 Mountain Rd,Collingwood,Dollarama,1-705-445-5893,ON,9:00 AM,9:00 PM,9:00 AM,9:00 PM,9:00 AM,9:00 PM,9:00 AM,9:00 PM,9:00 AM,9:00 PM,9:00 AM,9:00 PM,9:00 AM,6:00 PM,L9Y 4M2,-80.2423,44.5014,,2013-09-16 07:37:26 UTC,2013-09-16 07:37:26 UTC
1380 2nd St.,Cornwall,Dollarama,1-613-932-4018,ON,9:00 AM,9:00 PM,9:00 AM,9:00 PM,9:00 AM,9:00 PM,9:00 AM,9:00 PM,9:00 AM,9:00 PM,9:00 AM,5:00 PM,11:00 AM,5:00 PM,K6H 2B6,-74.7012,45.0278,,2013-09-16 07:37:26 UTC,2013-09-16 07:37:26 UTC
1400 Vincent Massey Dr.,Cornwall,Dollarama,1-613-930-2464,ON,9:00 AM,9:00 PM,9:00 AM,9:00 PM,9:00 AM,9:00 PM,9:00 AM,9:00 PM,9:00 AM,9:00 PM,9:00 AM,9:00 PM,10:00 AM,5:00 PM,K6J 5N4,-74.7557,45.0299,,2013-09-16 07:37:26 UTC,2013-09-16 07:37:26 UTC
101 Osler Drive,Dundas,Dollarama,1-905-628-5683,ON,9:00 AM,9:00 PM,9:00 AM,9:00 PM,9:00 AM,9:00 PM,9:00 AM,9:00 PM,9:00 AM,9:00 PM,9:00 AM,6:00 PM,9:00 AM,6:00 PM,L9H 4H4,-79.9423,43.2594,,2013-09-16 07:37:26 UTC,2013-09-16 07:37:26 UTC
180 Queen Street,Dunnville,Dollarama,1-905-701-5852,ON,9:00 AM,9:00 PM,9:00 AM,9:00 PM,9:00 AM,9:00 PM,9:00 AM,9:00 PM,9:00 AM,9:00 PM,9:00 AM,6:00 PM,10:00 AM,5:00 PM,N1A 1H7,-79.6175,42.9024,,2013-09-16 07:37:26 UTC,2013-09-16 07:37:26 UTC
151 Ontario Ave.,Elliot Lake,Dollarama,1-705-461-1824,ON,9:00 AM,5:30 PM,9:00 AM,5:30 PM,9:00 AM,5:30 PM,9:00 AM,8:00 PM,9:00 AM,8:00 PM,9:00 AM,6:00 PM,11:00 AM,5:00 PM,P5A 2T2,-82.6487,46.3845,,2013-09-16 07:37:26 UTC,2013-09-16 07:37:26 UTC
767 Notre-Dame St.,Embrun,Dollarama,1-613-443-2648,ON,9:00 AM,9:00 PM,9:00 AM,9:00 PM,9:00 AM,9:00 PM,9:00 AM,9:00 PM,9:00 AM,9:00 PM,9:00 AM,6:00 PM,10:00 AM,5:00 PM,K0A 1W1,-75.3014,45.2675,,2013-09-16 07:37:26 UTC,2013-09-16 07:37:26 UTC
800 Centre Street,Espanola,Dollarama,1-705-869-1585,ON,8:00 AM,6:00 PM,8:00 AM,6:00 PM,8:00 AM,6:00 PM,8:00 AM,9:00 PM,8:00 AM,9:00 PM,9:00 AM,6:00 PM,9:00 AM,5:00 PM,P5E 1J3,-81.7569,46.2482,,2013-09-16 07:37:26 UTC,2013-09-16 07:37:26 UTC
250 The East Mall,Etobicoke,Dollarama,1-416-207-9290,ON,10:00 AM,9:00 PM,10:00 AM,9:00 PM,10:00 AM,9:00 PM,10:00 AM,9:00 PM,10:00 AM,9:00 PM,9:00 AM,8:00 PM,11:00 AM,5:00 PM,M9B 3Y8,-79.5547,43.6328,,2013-09-16 07:37:26 UTC,2013-09-16 07:37:26 UTC
1620 Albion Road,Etobicoke,Dollarama,1-416-742-7972,ON,9:00 AM,9:00 PM,9:00 AM,9:00 PM,9:00 AM,9:00 PM,9:00 AM,9:00 PM,9:00 AM,9:00 PM,9:00 AM,7:00 PM,10:00 AM,6:00 PM,M9V 4B4,-79.5908,43.7415,,2013-09-16 07:37:26 UTC,2013-09-16 07:37:26 UTC
2257 Islington,Etobicoke,Dollarama,1-416-640-1564,ON,9:00 AM,9:00 PM,9:00 AM,9:00 PM,9:00 AM,9:00 PM,9:00 AM,9:00 PM,9:00 AM,9:00 PM,9:00 AM,8:00 PM,10:00 AM,7:00 PM,M9W 3W6,-79.5552,43.7154,,2013-09-16 07:37:26 UTC,2013-09-16 07:37:26 UTC
500 Rexdale Blvd.,Etobicoke,Dollarama,1-416-798-4589,ON,9:30 AM,9:00 PM,9:30 AM,9:00 PM,9:30 AM,9:00 PM,9:30 AM,9:00 PM,9:30 AM,9:00 PM,9:00 AM,6:00 PM,11:00 AM,5:00 PM,M9W 6K5,-79.6008,43.7194,,2013-09-16 07:37:26 UTC,2013-09-16 07:37:26 UTC
333 Main St South,Exeter,Dollarama,1-519-235-4628,ON,9:00 AM,6:00 PM,9:00 AM,6:00 PM,9:00 AM,6:00 PM,9:00 AM,9:00 PM,9:00 AM,9:00 PM,9:00 AM,6:00 PM,10:00 AM,6:00 PM,N0M 1S6,-81.4807,43.3475,,2013-09-16 07:37:26 UTC,2013-09-16 07:37:26 UTC
450 Garrison Road,Fort Erie,Dollarama,1-905-994-7962,ON,9:00 AM,9:00 PM,9:00 AM,9:00 PM,9:00 AM,9:00 PM,9:00 AM,9:00 PM,9:00 AM,9:00 PM,9:00 AM,9:00 PM,9:00 AM,6:00 PM,L2A 1N2,-78.9313,42.9055,,2013-09-16 07:37:26 UTC,2013-09-16 07:37:26 UTC
235 Guelph Street,Georgetown,Dollarama,1-905-873-4719,ON,9:00 AM,9:00 PM,9:00 AM,9:00 PM,9:00 AM,9:00 PM,9:00 AM,9:00 PM,9:00 AM,9:00 PM,9:00 AM,6:00 PM,10:00 AM,5:00 PM,L7G 4A8,-79.8972,43.65,,2013-09-16 07:37:26 UTC,2013-09-16 07:37:26 UTC
2016 Ogilvie Avenue,Glouceter,Dollarama,1-613-842-0384,ON,9:00 AM,9:00 PM,9:00 AM,9:00 PM,9:00 AM,9:00 PM,9:00 AM,9:00 PM,9:00 AM,9:00 PM,9:00 AM,6:00 PM,9:00 AM,6:30 PM,K1J 7N9,-75.62,45.4309,,2013-09-16 07:37:26 UTC,2013-09-16 07:37:26 UTC
263 Huron Rd,Goderich,Dollarama,1-519-524-1888,ON,9:00 AM,9:00 PM,9:00 AM,9:00 PM,9:00 AM,9:00 PM,9:00 AM,9:00 PM,9:00 AM,9:00 PM,9:00 AM,6:00 PM,10:00 AM,6:00 PM,N7A 2Z8,-81.6984,43.7363,,2013-09-16 07:37:26 UTC,2013-09-16 07:37:26 UTC
225 Edward St. Unit D1,Gravenhurst,Dollarama,1-705-684-9765,ON,9:00 AM,7:00 PM,9:00 AM,7:00 PM,9:00 AM,7:00 PM,9:00 AM,9:00 PM,9:00 AM,9:00 PM,9:00 AM,6:00 PM,10:00 AM,5:00 PM,P1P 1K8,-79.372,44.9084,,2013-09-16 07:37:26 UTC,2013-09-16 07:37:26 UTC
89 Jim Kimmett Blvd,Greater Napanee,Dollarama,1-613-354-4904,ON,9:00 AM,9:00 PM,9:00 AM,9:00 PM,9:00 AM,9:00 PM,9:00 AM,9:00 PM,9:00 AM,9:00 PM,8:00 AM,6:00 PM,9:00 AM,5:00 PM,K7R 3L2,-76.9506,44.2484,,2013-09-16 07:37:26 UTC,2013-09-16 07:37:26 UTC
150 Main Street East,Grimsby,Dollarama,1-905-309-7069,ON,9:00 AM,9:00 PM,9:00 AM,9:00 PM,9:00 AM,9:00 PM,9:00 AM,9:00 PM,9:00 AM,9:00 PM,9:00 AM,9:00 PM,9:00 AM,6:00 PM,L3M 1P1,-79.5451,43.1883,,2013-09-16 07:37:26 UTC,2013-09-16 07:37:26 UTC
380 Eramosa Road,Guelph,Dollarama,1-226-251-3062,ON,9:00 AM,9:00 PM,9:00 AM,9:00 PM,9:00 AM,9:00 PM,9:00 AM,9:00 PM,9:00 AM,9:00 PM,9:00 AM,6:00 PM,10:00 AM,5:00 PM,N1E 6R2,-80.2487,43.5622,,2013-09-16 07:37:26 UTC,2013-09-16 07:37:26 UTC
435 Stone Road West,Guelph,Dollarama,1-519-837-3678,ON,10:00 AM,10:00 PM,10:00 AM,10:00 PM,10:00 AM,10:00 PM,10:00 AM,10:00 PM,10:00 AM,10:00 PM,10:00 AM,6:00 PM,10:00 AM,5:00 PM,N1G 2X6,-80.2386,43.5163,,2013-09-16 07:37:27 UTC,2013-09-16 07:37:27 UTC
49 Woodlawn Rd. W,Guelph,Dollarama,1-519-837-8614,ON,9:00 AM,9:00 PM,9:00 AM,9:00 PM,9:00 AM,9:00 PM,9:00 AM,9:00 PM,9:00 AM,9:00 PM,9:00 AM,6:00 PM,10:00 AM,5:00 PM,N1H 1G8,-80.2811,43.5624,,2013-09-16 07:37:27 UTC,2013-09-16 07:37:27 UTC
218-222 Silvercreek Pky N,Guelph,Dollarama,1-519-827-0795,ON,9:00 AM,9:00 PM,9:00 AM,9:00 PM,9:00 AM,9:00 PM,9:00 AM,9:00 PM,9:00 AM,9:00 PM,9:00 AM,6:00 PM,10:00 AM,5:00 PM,N1H 8E8,-80.2855,43.5436,,2013-09-16 07:37:27 UTC,2013-09-16 07:37:27 UTC
700 Queenston Rd,Hamilton,Dollarama,1-905-561-0052,ON,9:00 AM,9:00 PM,9:00 AM,9:00 PM,9:00 AM,9:00 PM,9:00 AM,9:00 PM,9:00 AM,9:00 PM,9:00 AM,9:00 PM,9:00 AM,6:00 PM,L8G 1A3,-79.7716,43.2295,,2013-09-16 07:37:27 UTC,2013-09-16 07:37:27 UTC
1267 Barton St East,Hamilton,Dollarama,1-905-667-0720,ON,9:00 AM,9:00 PM,9:00 AM,9:00 PM,9:00 AM,9:00 PM,9:00 AM,9:00 PM,9:00 AM,9:00 PM,9:00 AM,9:00 PM,9:00 AM,6:00 PM,L8H 2V4,-79.8063,43.2493,,2013-09-16 07:37:27 UTC,2013-09-16 07:37:27 UTC
2 King Street West,Hamilton,Dollarama,1-905-667-0335,ON,9:00 AM,6:00 PM,9:00 AM,6:00 PM,9:00 AM,6:00 PM,9:00 AM,9:00 PM,9:00 AM,9:00 PM,9:00 AM,6:00 PM,11:00 AM,5:00 PM,L8P 1A1,-79.8691,43.2568,,2013-09-16 07:37:27 UTC,2013-09-16 07:37:27 UTC
998 Upper Wentworth Street,Hamilton,Dollarama,1-905-388-9265,ON,9:00 AM,9:00 PM,9:00 AM,9:00 PM,9:00 AM,9:00 PM,9:00 AM,9:00 PM,9:00 AM,9:00 PM,9:00 AM,6:00 PM,9:00 AM,6:00 PM,L9A 4V8,-79.8647,43.2175,,2013-09-16 07:37:27 UTC,2013-09-16 07:37:27 UTC
1508 Upper James St.,Hamilton,Dollarama,1-905-387-7432,ON,9:30 AM,9:00 PM,9:30 AM,9:00 PM,9:30 AM,9:00 PM,9:30 AM,9:00 PM,9:30 AM,9:00 PM,9:00 AM,6:00 PM,9:00 AM,6:00 PM,L9B 1K3,-79.8913,43.2068,,2013-09-16 07:37:27 UTC,2013-09-16 07:37:27 UTC
1550 Upper James St.,Hamilton,Dollarama,1-905-387-6462,ON,9:00 AM,9:00 PM,9:00 AM,9:00 PM,9:00 AM,9:00 PM,9:00 AM,9:00 PM,9:00 AM,9:00 PM,9:00 AM,9:00 PM,9:00 AM,6:00 PM,L9B 2L6,-79.8948,43.2053,,2013-09-16 07:37:27 UTC,2013-09-16 07:37:27 UTC
640 Mohawk Rd West,Hamilton,Dollarama,1-905-575-0816,ON,9:30 AM,9:00 PM,9:30 AM,9:00 PM,9:30 AM,9:00 PM,9:30 AM,9:00 PM,9:30 AM,9:00 PM,9:00 AM,6:00 PM,11:00 AM,5:00 PM,L9C 1X6,-79.9116,43.2332,,2013-09-16 07:37:27 UTC,2013-09-16 07:37:27 UTC
224 7th Avenue,Hanover,Dollarama,1-519-364-1738,ON,9:00 AM,9:00 PM,9:00 AM,9:00 PM,9:00 AM,9:00 PM,9:00 AM,9:00 PM,9:00 AM,9:00 PM,9:00 AM,6:00 PM,10:00 AM,5:00 PM,N4N 2H1,-81.0294,44.1461,,2013-09-16 07:37:27 UTC,2013-09-16 07:37:27 UTC
279 rue Regent,Hawkesbury,Dollarama,1-613-632-0270,ON,9:00 AM,9:00 PM,9:00 AM,9:00 PM,9:00 AM,9:00 PM,9:00 AM,9:00 PM,9:00 AM,9:00 PM,8:00 AM,5:30 PM,9:00 AM,5:30 PM,K6A 1G1,-74.6084,45.6084,,2013-09-16 07:37:27 UTC,2013-09-16 07:37:27 UTC
460 County Rd. 17,Hawkesbury,Dollarama,1-613-632-6099,ON,9:00 AM,9:00 PM,9:00 AM,9:00 PM,9:00 AM,9:00 PM,9:00 AM,9:00 PM,9:00 AM,9:00 PM,9:00 AM,6:30 PM,9:00 AM,6:30 PM,K6A 2R2,-74.5889,45.5894,,2013-09-16 07:37:27 UTC,2013-09-16 07:37:27 UTC
96 Main Street East,Huntsville,Dollarama,1-705-789-3831,ON,9:00 AM,9:00 PM,9:00 AM,9:00 PM,9:00 AM,9:00 PM,9:00 AM,9:00 PM,9:00 AM,9:00 PM,9:00 AM,6:00 PM,10:00 AM,5:00 PM,P1H 1H4,-79.2143,45.3278,,2013-09-16 07:37:27 UTC,2013-09-16 07:37:27 UTC
110 Oxford Street,Ingersoll,Dollarama,1-519-425-4103,ON,9:00 AM,9:00 PM,9:00 AM,9:00 PM,9:00 AM,9:00 PM,9:00 AM,9:00 PM,9:00 AM,9:00 PM,9:00 AM,6:00 PM,10:00 AM,6:00 PM,N5C 2V5,-80.8843,43.0388,,2013-09-16 07:37:27 UTC,2013-09-16 07:37:27 UTC
1491 Innisfil Beach Rd,Innisfil,Dollarama,1-705-436-1172,ON,9:00 AM,9:00 PM,9:00 AM,9:00 PM,9:00 AM,9:00 PM,9:00 AM,9:00 PM,9:00 AM,9:00 PM,9:00 AM,6:00 PM,9:00 AM,6:00 PM,L9S 4B2,-79.5765,44.3084,,2013-09-16 07:37:27 UTC,2013-09-16 07:37:27 UTC
844 March Road,Kanata,Dollarama,1-613-287-0189,ON,9:00 AM,9:00 PM,9:00 AM,9:00 PM,9:00 AM,9:00 PM,9:00 AM,9:00 PM,9:00 AM,9:00 PM,9:00 AM,7:00 PM,10:00 AM,6:00 PM,K2K 1X7,-75.9346,45.3567,,2013-09-16 07:37:27 UTC,2013-09-16 07:37:27 UTC
484 Hazeldean Road,Kanata,Dollarama,1-613-831-4375,ON,9:00 AM,9:00 PM,9:00 AM,9:00 PM,9:00 AM,9:00 PM,9:00 AM,9:00 PM,9:00 AM,9:00 PM,9:00 AM,7:00 PM,10:00 AM,6:00 PM,K2L 1V4,-75.8894,45.2975,,2013-09-16 07:37:27 UTC,2013-09-16 07:37:27 UTC
371 Ryans Well Way Suite 100,Kemptville,Dollarama,1-613-258-3470,ON,9:00 AM,9:00 PM,9:00 AM,9:00 PM,9:00 AM,9:00 PM,9:00 AM,9:00 PM,9:00 AM,9:00 PM,9:00 AM,6:00 PM,10:00 AM,5:00 PM,K0G 1J0,-75.646,45.0164,,2013-09-16 07:37:27 UTC,2013-09-16 07:37:27 UTC
23580 Woodbine Avenue,Keswick,Dollarama,1-905-476-9627,ON,8:00 AM,9:00 PM,8:00 AM,9:00 PM,8:00 AM,9:00 PM,8:00 AM,9:00 PM,8:00 AM,9:00 PM,8:00 AM,9:00 PM,8:00 AM,6:00 PM,L4P 0E2,-79.4495,44.237,,2013-09-16 07:37:27 UTC,2013-09-16 07:37:27 UTC
443 The Queensway S,Keswick,Dollarama,1-905-989-0573,ON,9:00 AM,9:00 PM,9:00 AM,9:00 PM,9:00 AM,9:00 PM,9:00 AM,9:00 PM,9:00 AM,9:00 PM,9:00 AM,6:00 PM,9:00 AM,6:00 PM,L4P 3J4,-79.4646,44.214,,2013-09-16 07:37:27 UTC,2013-09-16 07:37:27 UTC
1201 Division St,Kingston,Dollarama,1-613-542-3046,ON,9:00 AM,9:00 PM,9:00 AM,9:00 PM,9:00 AM,9:00 PM,9:00 AM,9:00 PM,9:00 AM,9:00 PM,9:00 AM,6:00 PM,10:00 AM,5:00 PM,K7K 6X4,-76.4984,44.2654,,2013-09-16 07:37:27 UTC,2013-09-16 07:37:27 UTC
176 Princess Street,Kingston,Dollarama,1-613-549-2049,ON,9:00 AM,9:00 PM,9:00 AM,9:00 PM,9:00 AM,9:00 PM,9:00 AM,9:00 PM,9:00 AM,9:00 PM,9:00 AM,6:00 PM,10:00 AM,5:00 PM,K7L 1B1,-76.4851,44.232,,2013-09-16 07:37:28 UTC,2013-09-16 07:37:28 UTC
1011 Princess St,Kingston,Dollarama,1-613-544-7070,ON,9:00 AM,9:00 PM,9:00 AM,9:00 PM,9:00 AM,9:00 PM,9:00 AM,9:00 PM,9:00 AM,9:00 PM,9:00 AM,8:00 PM,10:00 AM,7:00 PM,K7L 1H3,-76.5171,44.2455,,2013-09-16 07:37:28 UTC,2013-09-16 07:37:28 UTC
690 Gardiners Rd. Unit 7,Kingston,Dollarama,1-613-384-5680,ON,9:00 AM,9:00 PM,9:00 AM,9:00 PM,9:00 AM,9:00 PM,9:00 AM,9:00 PM,9:00 AM,9:00 PM,9:00 AM,6:00 PM,10:00 AM,5:00 PM,K7M 3X9,-76.5679,44.2459,,2013-09-16 07:37:28 UTC,2013-09-16 07:37:28 UTC
1300 Bath Road,Kingston,Dollarama,1-613-547-0401,ON,9:30 AM,9:00 PM,9:30 AM,9:00 PM,9:30 AM,9:00 PM,9:30 AM,9:00 PM,9:30 AM,9:00 PM,9:30 AM,6:00 PM,12:00 PM,5:00 PM,K7M 4X4,-76.5473,44.2398,,2013-09-16 07:37:28 UTC,2013-09-16 07:37:28 UTC
150 Government Rd. West,Kirkland Lake,Dollarama,1-705-567-1177,ON,9:00 AM,5:30 PM,9:00 AM,5:30 PM,9:00 AM,5:30 PM,9:00 AM,9:00 PM,9:00 AM,9:00 PM,9:00 AM,5:00 PM,10:00 AM,4:00 PM,P2N 2E9,-80.0449,48.1476,,2013-09-16 07:37:28 UTC,2013-09-16 07:37:28 UTC
1375 Weber Street East,Kitchener,Dollarama,1-519-340-3019,ON,8:00 AM,9:00 PM,8:00 AM,9:00 PM,8:00 AM,9:00 PM,8:00 AM,9:00 PM,8:00 AM,9:00 PM,8:00 AM,9:00 PM,8:00 AM,6:00 PM,N2A 3Y7,-80.4403,43.4331,,2013-09-16 07:37:28 UTC,2013-09-16 07:37:28 UTC
655 Fairway Rd. South,Kitchener,Dollarama,1-519-894-9442,ON,8:00 AM,9:00 PM,8:00 AM,9:00 PM,8:00 AM,9:00 PM,8:00 AM,9:00 PM,8:00 AM,9:00 PM,8:00 AM,9:00 PM,8:00 AM,6:00 PM,N2C 1X4,-80.4519,43.4195,,2013-09-16 07:37:28 UTC,2013-09-16 07:37:28 UTC
700 Westmount Rd. East,Kitchener,Dollarama,1-519-581-1215,ON,8:00 AM,9:00 PM,8:00 AM,9:00 PM,8:00 AM,9:00 PM,8:00 AM,9:00 PM,8:00 AM,9:00 PM,8:00 AM,9:00 PM,8:00 AM,6:00 PM,N2E 2V9,-80.5017,43.4196,,2013-09-16 07:37:28 UTC,2013-09-16 07:37:28 UTC
385 Frederick Street,Kitchener,Dollarama,1-519-579-1104,ON,8:00 AM,9:00 PM,8:00 AM,9:00 PM,8:00 AM,9:00 PM,8:00 AM,9:00 PM,8:00 AM,9:00 PM,8:00 AM,9:00 PM,8:00 AM,6:00 PM,N2H 2P2,-80.4731,43.4561,,2013-09-16 07:37:28 UTC,2013-09-16 07:37:28 UTC
851 Fisher-Hallman Road,Kitchener,Dollarama,1-519-571-7409,ON,8:00 AM,9:00 PM,8:00 AM,9:00 PM,8:00 AM,9:00 PM,8:00 AM,9:00 PM,8:00 AM,9:00 PM,8:00 AM,9:00 PM,8:00 AM,6:00 PM,N2M 5N8,-80.5447,43.4441,,2013-09-16 07:37:28 UTC,2013-09-16 07:37:28 UTC
25 Amy Croft Drive,Lakeshore,Dollarama,1-519-979-0661,ON,9:00 AM,9:00 PM,9:00 AM,9:00 PM,9:00 AM,9:00 PM,9:00 AM,9:00 PM,9:00 AM,9:00 PM,9:00 AM,8:00 PM,10:00 AM,6:00 PM,N9K 1C7,-82.8512,42.3067,,2013-09-16 07:37:28 UTC,2013-09-16 07:37:28 UTC
5844 Malden Road,Lasalle,Dollarama,1-519-972-6696,ON,9:00 AM,9:00 PM,9:00 AM,9:00 PM,9:00 AM,9:00 PM,9:00 AM,9:00 PM,9:00 AM,9:00 PM,9:00 AM,7:00 PM,9:00 AM,6:00 PM,N9H 1S4,-83.0605,42.2536,,2013-09-16 07:37:29 UTC,2013-09-16 07:37:29 UTC
275 Erie Street South,Leamington,Dollarama,1-519-325-0732,ON,9:00 AM,9:00 PM,9:00 AM,9:00 PM,9:00 AM,9:00 PM,9:00 AM,9:00 PM,9:00 AM,9:00 PM,9:00 AM,9:00 PM,9:00 AM,6:00 PM,N8H 3C4,-82.6009,42.0373,,2013-09-16 07:37:29 UTC,2013-09-16 07:37:29 UTC
363 Kent Street West,Lindsay,Dollarama,1-705-328-1190,ON,9:00 AM,9:00 PM,9:00 AM,9:00 PM,9:00 AM,9:00 PM,9:00 AM,9:00 PM,9:00 AM,9:00 PM,9:00 AM,6:00 PM,10:00 AM,5:00 PM,K9V 2Z7,-78.7589,44.3503,,2013-09-16 07:37:29 UTC,2013-09-16 07:37:29 UTC
345 Wallace Ave.North,Listowel,Dollarama,1-519-291-4944,ON,9:00 AM,9:00 PM,9:00 AM,9:00 PM,9:00 AM,9:00 PM,9:00 AM,9:00 PM,9:00 AM,9:00 PM,9:00 AM,6:00 PM,10:00 AM,6:00 PM,N4W 1L2,-80.9515,43.7337,,2013-09-16 07:37:29 UTC,2013-09-16 07:37:29 UTC
1990 Dundas Street,London,Dollarama,1-519-659-5924,ON,9:00 AM,9:00 PM,9:00 AM,9:00 PM,9:00 AM,9:00 PM,9:00 AM,9:00 PM,9:00 AM,9:00 PM,9:00 AM,9:00 PM,9:00 AM,6:00 PM,N5V 3Z1,-81.1703,43.0064,,2013-09-16 07:37:29 UTC,2013-09-16 07:37:29 UTC
1251 Huron Street,London,Dollarama,1-519-457-9755,ON,9:00 AM,9:00 PM,9:00 AM,9:00 PM,9:00 AM,9:00 PM,9:00 AM,9:00 PM,9:00 AM,9:00 PM,9:00 AM,9:00 PM,9:00 AM,6:00 PM,N5Y 4V1,-81.2195,43.0186,,2013-09-16 07:37:29 UTC,2013-09-16 07:37:29 UTC
1200 Commissioners Road East,London,Dollarama,1-519-681-7587,ON,9:00 AM,9:00 PM,9:00 AM,9:00 PM,9:00 AM,9:00 PM,9:00 AM,9:00 PM,9:00 AM,9:00 PM,9:00 AM,9:00 PM,9:00 AM,6:00 PM,N5Z 4R3,-81.1945,42.9646,,2013-09-16 07:37:29 UTC,2013-09-16 07:37:29 UTC
355 Wellington St,London,Dollarama,1-519-858-9547,ON,8:00 AM,8:00 PM,8:00 AM,8:00 PM,8:00 AM,8:00 PM,8:00 AM,8:00 PM,8:00 AM,8:00 PM,9:00 AM,6:00 PM,11:00 AM,5:00 PM,N6A 3N7,-81.2448,42.9833,,2013-09-16 07:37:29 UTC,2013-09-16 07:37:29 UTC
395 Wellington Rd S.,London,Dollarama,1-519-668-7837,ON,9:00 AM,9:00 PM,9:00 AM,9:00 PM,9:00 AM,9:00 PM,9:00 AM,9:00 PM,9:00 AM,9:00 PM,9:00 AM,9:00 PM,9:00 AM,6:00 PM,N6C 5Z6,-81.2328,42.9592,,2013-09-16 07:37:29 UTC,2013-09-16 07:37:29 UTC
1105 Wellington Rd S,London,Dollarama,1-519-685-1689,ON,9:30 AM,9:00 PM,9:30 AM,9:00 PM,9:30 AM,9:00 PM,9:30 AM,9:00 PM,9:30 AM,9:00 PM,9:30 AM,9:00 PM,12:00 PM,5:00 PM,N6E 1V4,-81.2234,42.934,,2013-09-16 07:37:29 UTC,2013-09-16 07:37:29 UTC
979 Wellington Road South,London,Dollarama,1-519-691-0346,ON,9:00 AM,9:00 PM,9:00 AM,9:00 PM,9:00 AM,9:00 PM,9:00 AM,9:00 PM,9:00 AM,9:00 PM,9:00 AM,9:00 PM,9:00 AM,6:00 PM,N6E 3A9,-81.2249,42.9395,,2013-09-16 07:37:29 UTC,2013-09-16 07:37:29 UTC
1225 Wonderland Road North,London,Dollarama,1-519-474-1436,ON,9:00 AM,9:00 PM,9:00 AM,9:00 PM,9:00 AM,9:00 PM,9:00 AM,9:00 PM,9:00 AM,9:00 PM,9:00 AM,6:00 PM,10:00 AM,5:00 PM,N6G 2V9,-81.303,43.0039,,2013-09-16 07:37:29 UTC,2013-09-16 07:37:29 UTC
1965 Hyde Park Rd. Unit D-03,London,Dollarama,1-519-657-3416,ON,9:00 AM,9:00 PM,9:00 AM,9:00 PM,9:00 AM,9:00 PM,9:00 AM,9:00 PM,9:00 AM,9:00 PM,9:00 AM,9:00 PM,10:00 AM,5:00 PM,N6H 0A3,-81.3368,43.0083,,2013-09-16 07:37:29 UTC,2013-09-16 07:37:29 UTC
3075 Wonderland Rd S,London,Dollarama,1-519-668-7154,ON,9:00 AM,9:00 PM,9:00 AM,9:00 PM,9:00 AM,9:00 PM,9:00 AM,9:00 PM,9:00 AM,9:00 PM,9:00 AM,9:00 PM,9:00 AM,6:00 PM,N6L 1R4,-81.2788,42.9272,,2013-09-16 07:37:29 UTC,2013-09-16 07:37:29 UTC
5694 Highway #7,Markham,Dollarama,1-905-294-3657,ON,9:00 AM,9:00 PM,9:00 AM,9:00 PM,9:00 AM,9:00 PM,9:00 AM,9:00 PM,9:00 AM,9:00 PM,9:00 AM,9:00 PM,9:00 AM,6:00 PM,L3P 1B4,-79.2701,43.8708,,2013-09-16 07:37:29 UTC,2013-09-16 07:37:29 UTC
72 Copper Creek Dr.,Markham,Dollarama,1-905-209-7300,ON,9:00 AM,9:00 PM,9:00 AM,9:00 PM,9:00 AM,9:00 PM,9:00 AM,9:00 PM,9:00 AM,9:00 PM,9:00 AM,7:00 PM,10:00 AM,6:00 PM,L6B 0P2,-79.2289,43.8659,,2013-09-16 07:37:29 UTC,2013-09-16 07:37:29 UTC
9275 Markham Rd.,Markham,Dollarama,1-905-471-8270,ON,9:00 AM,9:00 PM,9:00 AM,9:00 PM,9:00 AM,9:00 PM,9:00 AM,9:00 PM,9:00 AM,9:00 PM,9:00 AM,6:00 PM,10:00 AM,6:00 PM,L6E 1A1,-79.2651,43.8961,,2013-09-16 07:37:29 UTC,2013-09-16 07:37:29 UTC
206497 Highway 26 East,Meaford,Dollarama,1-519-538-2970,ON,9:00 AM,9:00 PM,9:00 AM,9:00 PM,9:00 AM,9:00 PM,9:00 AM,9:00 PM,9:00 AM,9:00 PM,9:00 AM,6:00 PM,9:00 AM,5:00 PM,N4L 1W7,-80.5727,44.5915,,2013-09-16 07:37:30 UTC,2013-09-16 07:37:30 UTC
9225 County Road 93,Midland,Dollarama,1-705-527-9338,ON,9:00 AM,9:00 PM,9:00 AM,9:00 PM,9:00 AM,9:00 PM,9:00 AM,9:00 PM,9:00 AM,9:00 PM,9:00 AM,8:00 PM,11:00 AM,5:00 PM,L4R 4K4,-79.9104,44.738,,2013-09-16 07:37:30 UTC,2013-09-16 07:37:30 UTC
32-1095 Maple Ave,Milton,Dollarama,1-905-693-8988,ON,10:00 AM,9:00 PM,10:00 AM,9:00 PM,10:00 AM,9:00 PM,10:00 AM,9:00 PM,10:00 AM,9:00 PM,9:00 AM,6:00 PM,10:00 AM,6:00 PM,L9T 0A5,-79.8721,43.5371,,2013-09-16 07:37:30 UTC,2013-09-16 07:37:30 UTC
75 Nipissing Rd,Milton,Dollarama,1-905-875-9895,ON,9:00 AM,9:00 PM,9:00 AM,9:00 PM,9:00 AM,9:00 PM,9:00 AM,9:00 PM,9:00 AM,9:00 PM,9:00 AM,6:00 PM,10:00 AM,5:00 PM,L9T 1R3,-79.8731,43.5187,,2013-09-16 07:37:30 UTC,2013-09-16 07:37:30 UTC
4141 Dixie Rd,Mississauga,Dollarama,1-905-361-1011,ON,10:00 AM,9:00 PM,10:00 AM,9:00 PM,10:00 AM,9:00 PM,10:00 AM,9:00 PM,10:00 AM,9:00 PM,9:30 AM,6:00 PM,10:00 AM,5:00 PM,L4W 1V5,-79.607,43.626,,2013-09-16 07:37:30 UTC,2013-09-16 07:37:30 UTC
1475 Dundas Street East,Mississauga,Dollarama,1-905-624-0032,ON,9:30 AM,9:00 PM,9:30 AM,9:00 PM,9:30 AM,9:00 PM,9:30 AM,9:00 PM,9:30 AM,9:00 PM,9:00 AM,7:00 PM,9:00 AM,6:00 PM,L4X 1L3,-79.5816,43.6113,,2013-09-16 07:37:30 UTC,2013-09-16 07:37:30 UTC
1077 N. Service Road,Mississauga,Dollarama,1-905-273-4650,ON,9:00 AM,9:00 PM,9:00 AM,9:00 PM,9:00 AM,9:00 PM,9:00 AM,9:00 PM,9:00 AM,9:00 PM,9:00 AM,7:00 PM,10:00 AM,6:00 PM,L4Y 1A6,-79.5752,43.5913,,2013-09-16 07:37:30 UTC,2013-09-16 07:37:30 UTC
93 Dundas Street East,Mississauga,Dollarama,1-905-281-9895,ON,9:00 AM,9:00 PM,9:00 AM,9:00 PM,9:00 AM,9:00 PM,9:00 AM,9:00 PM,9:00 AM,9:00 PM,9:00 AM,7:00 PM,10:00 AM,6:00 PM,L5A 1W7,-79.6145,43.582,,2013-09-16 07:37:30 UTC,2013-09-16 07:37:30 UTC
100 City Centre Drive,Mississauga,Dollarama,1-905-279-2543,ON,9:30 AM,9:00 PM,9:00 AM,9:00 PM,9:00 AM,9:00 PM,9:00 AM,9:00 PM,9:00 AM,9:00 PM,9:00 AM,6:00 PM,10:30 AM,6:00 PM,L5B 1M7,-79.6428,43.593,,2013-09-16 07:37:30 UTC,2013-09-16 07:37:30 UTC
1151 Dundas St W,Mississauga,Dollarama,1-905-361-1337,ON,10:00 AM,9:00 PM,10:00 AM,9:00 PM,10:00 AM,9:00 PM,10:00 AM,9:00 PM,10:00 AM,9:00 PM,9:30 AM,6:00 PM,12:00 PM,5:00 PM,L5C 1C6,-79.6436,43.557,,2013-09-16 07:37:30 UTC,2013-09-16 07:37:30 UTC
1250 South Service Road,Mississauga,Dollarama,1-905-278-2121,ON,10:00 AM,9:00 PM,10:00 AM,9:00 PM,10:00 AM,9:00 PM,10:00 AM,9:00 PM,10:00 AM,9:00 PM,9:30 AM,6:00 PM,11:00 AM,6:00 PM,L5E 1V4,-79.5684,43.5934,,2013-09-16 07:37:30 UTC,2013-09-16 07:37:30 UTC
585 Lakeshore Road East,Mississauga,Dollarama,1-905-271-0689,ON,9:00 AM,9:00 PM,9:00 AM,9:00 PM,9:00 AM,9:00 PM,9:00 AM,9:00 PM,9:00 AM,9:00 PM,9:00 AM,6:00 PM,10:00 AM,5:00 PM,L5G 1H9,-79.5683,43.5679,,2013-09-16 07:37:30 UTC,2013-09-16 07:37:30 UTC
1375 Southdown Rd,Mississauga,Dollarama,1-289-373-3059,ON,9:00 AM,9:00 PM,9:00 AM,9:00 PM,9:00 AM,9:00 PM,9:00 AM,9:00 PM,9:00 AM,9:00 PM,9:00 AM,6:30 PM,10:00 AM,6:30 PM,L5J 2Z1,-79.6402,43.5187,,2013-09-16 07:37:30 UTC,2013-09-16 07:37:30 UTC
1865 Lakeshore Rd. West,Mississauga,Dollarama,1-905-855-9469,ON,9:30 AM,9:00 PM,9:30 AM,9:00 PM,9:30 AM,9:00 PM,9:30 AM,9:00 PM,9:30 AM,9:00 PM,9:30 AM,6:00 PM,11:00 AM,5:00 PM,L5J 4P1,-79.6259,43.5147,,2013-09-16 07:37:30 UTC,2013-09-16 07:37:30 UTC
2400 Dundas St. West,Mississauga,Dollarama,1-905-403-8565,ON,9:00 AM,9:00 PM,9:00 AM,9:00 PM,9:00 AM,9:00 PM,9:00 AM,9:00 PM,9:00 AM,9:00 PM,9:00 AM,6:00 PM,10:00 AM,5:00 PM,L5K 1R8,-79.6749,43.5289,,2013-09-16 07:37:30 UTC,2013-09-16 07:37:30 UTC
2150 Burnhamthorpe Rd W,Mississauga,Dollarama,1-905-412-3001,ON,9:30 AM,9:00 PM,9:30 AM,9:00 PM,9:30 AM,9:00 PM,9:30 AM,9:00 PM,9:30 AM,9:00 PM,9:30 AM,6:00 PM,12:00 PM,5:00 PM,L5L 3A2,-79.6837,43.5458,,2013-09-16 07:37:30 UTC,2013-09-16 07:37:30 UTC
2670 Erin Centre Blvd PO Box 6,Mississauga,Dollarama,1-905-607-2902,ON,9:30 AM,9:00 PM,9:30 AM,9:00 PM,9:30 AM,9:00 PM,9:30 AM,9:00 PM,9:30 AM,9:00 PM,9:00 AM,6:00 PM,10:00 AM,5:00 PM,L5M 5P5,-79.7147,43.5601,,2013-09-16 07:37:30 UTC,2013-09-16 07:37:30 UTC
6435 Erin Mills Pky,Mississauga,Dollarama,1-905-363-0367,ON,9:00 AM,9:00 PM,9:00 AM,9:00 PM,9:00 AM,9:00 PM,9:00 AM,9:00 PM,9:00 AM,9:00 PM,9:00 AM,6:00 PM,10:00 AM,5:00 PM,L5N 4H4,-79.7419,43.588,,2013-09-16 07:37:30 UTC,2013-09-16 07:37:30 UTC
6075 Mavis Rd,Mississauga,Dollarama,1-905-361-0579,ON,10:00 AM,9:00 PM,10:00 AM,9:00 PM,10:00 AM,9:00 PM,10:00 AM,9:00 PM,10:00 AM,9:00 PM,10:00 AM,6:00 PM,11:00 AM,6:00 PM,L5R 4G6,-79.698,43.614,,2013-09-16 07:37:30 UTC,2013-09-16 07:37:30 UTC
885 Plymouth Drive,Mississauga,Dollarama,1-905-363-1028,ON,9:00 AM,9:00 PM,9:00 AM,9:00 PM,9:00 AM,9:00 PM,9:00 AM,9:00 PM,9:00 AM,9:00 PM,9:00 AM,8:00 PM,9:00 AM,7:00 PM,L5V 0B5,-79.6951,43.6081,,2013-09-16 07:37:30 UTC,2013-09-16 07:37:30 UTC
7070 St Barbara,Mississauga,Dollarama,1-905-362-1261,ON,9:00 AM,9:00 PM,9:00 AM,9:00 PM,9:00 AM,9:00 PM,9:00 AM,9:00 PM,9:00 AM,9:00 PM,9:00 AM,6:00 PM,10:00 AM,5:00 PM,L5W 0E6,-79.7161,43.6413,,2013-09-16 07:37:30 UTC,2013-09-16 07:37:30 UTC
1651 Merivale Rd,Nepean,Dollarama,1-613-288-2431,ON,9:30 AM,9:00 PM,9:30 AM,9:00 PM,9:30 AM,9:00 PM,9:30 AM,9:00 PM,9:30 AM,9:00 PM,9:00 AM,7:00 PM,10:00 AM,6:00 PM,K2G 3K2,-75.733,45.3503,,2013-09-16 07:37:31 UTC,2013-09-16 07:37:31 UTC
22-2150 Robertson Rd,Nepean,Dollarama,1-613-288-2449,ON,9:00 AM,9:00 PM,9:00 AM,9:00 PM,9:00 AM,9:00 PM,9:00 AM,9:00 PM,9:00 AM,9:00 PM,9:00 AM,6:00 PM,11:00 AM,5:00 PM,K2H 9S1,-75.8278,45.3243,,2013-09-16 07:37:31 UTC,2013-09-16 07:37:31 UTC
3777 Strandherd Drive,Nepean,Dollarama,1-613-823-2519,ON,9:00 AM,9:00 PM,9:00 AM,9:00 PM,9:00 AM,9:00 PM,9:00 AM,9:00 PM,9:00 AM,9:00 PM,9:00 AM,9:00 PM,10:00 AM,6:00 PM,K2J 4B1,-75.7374,45.2745,,2013-09-16 07:37:31 UTC,2013-09-16 07:37:31 UTC
RR #2 Hwy 11B & 65 East,New Liskeard,Dollarama,1-705-647-4109,ON,9:00 AM,9:00 PM,9:00 AM,9:00 PM,9:00 AM,9:00 PM,9:00 AM,9:00 PM,9:00 AM,9:00 PM,9:00 AM,6:00 PM,11:00 AM,5:00 PM,P0J 1P0,-79.6745,47.5226,,2013-09-16 07:37:31 UTC,2013-09-16 07:37:31 UTC
130 Davis Dr. Box 73,Newmarket,Dollarama,1-905-836-7350,ON,9:00 AM,9:00 PM,9:00 AM,9:00 PM,9:00 AM,9:00 PM,9:00 AM,9:00 PM,9:00 AM,9:00 PM,9:30 AM,8:00 PM,10:00 AM,6:00 PM,L3Y 2N1,-79.4755,44.0556,,2013-09-16 07:37:31 UTC,2013-09-16 07:37:31 UTC
1111 Davis Dr.,Newmarket,Dollarama,1-905-898-0244,ON,9:30 AM,9:00 PM,9:30 AM,9:00 PM,9:30 AM,9:00 PM,9:30 AM,9:00 PM,9:30 AM,9:00 PM,9:00 AM,8:00 PM,10:00 AM,6:00 PM,L3Y 7V1,-79.4299,44.0663,,2013-09-16 07:37:31 UTC,2013-09-16 07:37:31 UTC
5175 Victoria Ave,Niagara Falls,Dollarama,1-905-353-8658,ON,9:00 AM,9:00 PM,9:00 AM,9:00 PM,9:00 AM,9:00 PM,9:00 AM,9:00 PM,9:00 AM,9:00 PM,9:00 AM,9:00 PM,9:00 AM,6:00 PM,L2E 4E4,-79.073,43.0995,,2013-09-16 07:37:31 UTC,2013-09-16 07:37:31 UTC
7841 Oakwood Drive,Niagara Falls,Dollarama,1-905-358-2740,ON,9:00 AM,9:00 PM,9:00 AM,9:00 PM,9:00 AM,9:00 PM,9:00 AM,9:00 PM,9:00 AM,9:00 PM,9:00 AM,9:00 PM,9:00 AM,6:00 PM,L2E 6S5,-79.1179,43.0724,,2013-09-16 07:37:31 UTC,2013-09-16 07:37:31 UTC
6777 Morrison Street,Niagara Falls,Dollarama,1-905-371-3207,ON,9:00 AM,9:00 PM,9:00 AM,9:00 PM,9:00 AM,9:00 PM,9:00 AM,9:00 PM,9:00 AM,9:00 PM,9:00 AM,9:00 PM,9:00 AM,6:00 PM,L2E 6Z8,-79.106,43.1043,,2013-09-16 07:37:31 UTC,2013-09-16 07:37:31 UTC
7190 Morrison St,Niagara Falls,Dollarama,1-905-358-7541,ON,9:00 AM,9:00 PM,9:00 AM,9:00 PM,9:00 AM,9:00 PM,9:00 AM,9:00 PM,9:00 AM,9:00 PM,9:00 AM,6:00 PM,9:00 AM,6:00 PM,L2E 7K5,-79.1166,43.1016,,2013-09-16 07:37:31 UTC,2013-09-16 07:37:31 UTC
6240 Lundy's Lane,Niagara Falls,Dollarama,1-905-358-8508,ON,9:00 AM,9:00 PM,9:00 AM,9:00 PM,9:00 AM,9:00 PM,9:00 AM,9:00 PM,9:00 AM,9:00 PM,9:00 AM,9:00 PM,9:00 AM,6:00 PM,L2G 1T6,-79.0982,43.0894,,2013-09-16 07:37:31 UTC,2013-09-16 07:37:31 UTC
7555 Montrose Road,Niagara Falls,Dollarama,1-905-357-1283,ON,10:00 AM,9:00 PM,10:00 AM,9:00 PM,10:00 AM,9:00 PM,10:00 AM,9:00 PM,10:00 AM,9:00 PM,9:00 AM,5:30 PM,11:00 AM,5:00 PM,L2H 2E9,-79.1231,43.0656,,2013-09-16 07:37:31 UTC,2013-09-16 07:37:31 UTC
300 Lakeshore Drive,North Bay,Dollarama,1-705-476-0000,ON,9:30 AM,9:00 PM,9:30 AM,9:00 PM,9:30 AM,9:00 PM,9:30 AM,9:00 PM,9:30 AM,9:00 PM,9:30 AM,6:00 PM,12:00 PM,5:00 PM,P1A 3V2,-79.4489,46.2825,,2013-09-16 07:37:31 UTC,2013-09-16 07:37:31 UTC
1500 Fisher Street,North Bay,Dollarama,1-705-840-1027,ON,8:30 AM,9:00 PM,8:30 AM,9:00 PM,8:30 AM,9:00 PM,8:30 AM,9:00 PM,8:30 AM,9:00 PM,9:30 AM,6:00 PM,11:00 AM,5:00 PM,P1B 2H3,-79.4419,46.3132,,2013-09-16 07:37:31 UTC,2013-09-16 07:37:31 UTC
975 McKeown Ave,North Bay,Dollarama,1-705-494-9771,ON,9:00 AM,9:00 PM,9:00 AM,9:00 PM,9:00 AM,9:00 PM,9:00 AM,9:00 PM,9:00 AM,9:00 PM,9:00 AM,7:00 PM,9:00 AM,6:00 PM,P1B 9P2,-79.4728,46.3327,,2013-09-16 07:37:31 UTC,2013-09-16 07:37:31 UTC
3465 Wyecroft Rd,Oakville,Dollarama,1-905-827-1373,ON,9:30 AM,9:00 PM,9:30 AM,9:00 PM,9:30 AM,9:00 PM,9:30 AM,9:00 PM,9:30 AM,9:00 PM,9:30 AM,6:00 PM,11:00 AM,5:00 PM,L6L 0B6,-79.7466,43.3975,,2013-09-16 07:37:31 UTC,2013-09-16 07:37:31 UTC
290 North Service Rd West,Oakville,Dollarama,1-905-337-8104,ON,9:30 AM,9:00 PM,9:30 AM,9:00 PM,9:30 AM,9:00 PM,9:30 AM,9:00 PM,9:30 AM,9:00 PM,9:00 AM,6:00 PM,11:00 AM,5:00 PM,L6M 2S2,-79.7101,43.4404,,2013-09-16 07:37:31 UTC,2013-09-16 07:37:31 UTC
50 Fourth Ave,Orangeville,Dollarama,1-519-938-8403,ON,9:00 AM,9:00 PM,9:00 AM,9:00 PM,9:00 AM,9:00 PM,9:00 AM,9:00 PM,9:00 AM,9:00 PM,9:00 AM,6:00 PM,10:00 AM,5:00 PM,L9W 4P1,-80.0944,43.9262,,2013-09-16 07:37:31 UTC,2013-09-16 07:37:31 UTC
215 Cotennial Rd,Orangeville,Dollarama,1-519-940-9595,ON,9:00 AM,9:00 PM,9:00 AM,9:00 PM,9:00 AM,9:00 PM,9:00 AM,9:00 PM,9:00 AM,9:00 PM,9:00 AM,6:00 PM,10:00 AM,5:00 PM,L9W 5K9,-80.1153,43.9048,,2013-09-16 07:37:31 UTC,2013-09-16 07:37:31 UTC
165 Murphy Rd,Orillia,Dollarama,1-705-326-3307,ON,9:00 AM,9:00 PM,9:00 AM,9:00 PM,9:00 AM,9:00 PM,9:00 AM,9:00 PM,9:00 AM,9:00 PM,9:00 AM,6:00 PM,9:00 AM,6:00 PM,L3V 0B5,-79.4495,44.6145,,2013-09-16 07:37:31 UTC,2013-09-16 07:37:31 UTC
187 Memorial Avenue,Orillia,Dollarama,1-705-327-2659,ON,9:00 AM,9:00 PM,9:00 AM,9:00 PM,9:00 AM,9:00 PM,9:00 AM,9:00 PM,9:00 AM,9:00 PM,9:00 AM,6:00 PM,12:00 PM,5:00 PM,L3V 5X7,-79.4243,44.5979,,2013-09-16 07:37:31 UTC,2013-09-16 07:37:31 UTC
425 West St N.,Orillia,Dollarama,1-705-326-4138,ON,9:00 AM,9:00 PM,9:00 AM,9:00 PM,9:00 AM,9:00 PM,9:00 AM,9:00 PM,9:00 AM,9:00 PM,9:00 AM,6:00 PM,11:00 AM,5:00 PM,L3V 7R2,-79.4343,44.6228,,2013-09-16 07:37:31 UTC,2013-09-16 07:37:31 UTC
110 Place d'Orleans Dr.,Orleans,Dollarama,1-613-824-8568,ON,9:00 AM,9:00 PM,9:00 AM,9:00 PM,9:00 AM,9:00 PM,9:00 AM,9:00 PM,9:00 AM,9:00 PM,9:00 AM,9:00 PM,10:00 AM,5:00 PM,K1C 2L9,-75.5142,45.4808,,2013-09-16 07:37:31 UTC,2013-09-16 07:37:31 UTC
2020 Mer Bleue Rd. Unit 1,Orleans,Dollarama,1-613-841-5955,ON,9:00 AM,9:00 PM,9:00 AM,9:00 PM,9:00 AM,9:00 PM,9:00 AM,9:00 PM,9:00 AM,9:00 PM,9:00 AM,9:00 PM,9:00 AM,6:30 PM,K4A 0G2,-75.5038,45.4542,,2013-09-16 07:37:31 UTC,2013-09-16 07:37:31 UTC
G3-1189 Ritson Road North,Oshawa,Dollarama,1-905-432-9094,ON,9:00 AM,9:00 PM,9:00 AM,9:00 PM,9:00 AM,9:00 PM,9:00 AM,9:00 PM,9:00 AM,9:00 PM,9:00 AM,6:00 PM,9:00 AM,6:00 PM,L1G 8B9,-78.8676,43.9317,,2013-09-16 07:37:32 UTC,2013-09-16 07:37:32 UTC
564 King Street East,Oshawa,Dollarama,1-905-725-7308,ON,8:00 AM,9:00 PM,8:00 AM,9:00 PM,8:00 AM,9:00 PM,8:00 AM,9:00 PM,8:00 AM,9:00 PM,8:00 AM,6:00 PM,9:00 AM,6:00 PM,L1H 1G5,-78.8431,43.9024,,2013-09-16 07:37:32 UTC,2013-09-16 07:37:32 UTC
1300 King St. East Unit 9,Oshawa,Dollarama,1-905-723-9487,ON,9:00 AM,9:00 PM,9:00 AM,9:00 PM,9:00 AM,9:00 PM,9:00 AM,9:00 PM,9:00 AM,9:00 PM,9:00 AM,6:00 PM,9:00 AM,6:00 PM,L1H 8J4,-78.8171,43.9064,,2013-09-16 07:37:32 UTC,2013-09-16 07:37:32 UTC
200 John Street West,Oshawa,Dollarama,1-905-443-0120,ON,9:00 AM,8:00 PM,9:00 AM,8:00 PM,9:00 AM,8:00 PM,9:00 AM,9:00 PM,9:00 AM,9:00 PM,9:00 AM,6:00 PM,11:00 AM,5:00 PM,L1J 2B4,-78.8683,43.8948,,2013-09-16 07:37:32 UTC,2013-09-16 07:37:32 UTC
419 King St. W.,Oshawa,Dollarama,1-905-723-2987,ON,9:30 AM,9:00 PM,9:30 AM,9:00 PM,9:30 AM,9:00 PM,9:30 AM,9:00 PM,9:30 AM,9:00 PM,9:00 AM,6:00 PM,11:00 AM,6:00 PM,L1J 2K5,-78.88,43.8924,,2013-09-16 07:37:32 UTC,2013-09-16 07:37:32 UTC
1383 Wilson Rd. North,Oshawa,Dollarama,1-905-443-0179,ON,9:00 AM,9:00 PM,9:00 AM,9:00 PM,9:00 AM,9:00 PM,9:00 AM,9:00 PM,9:00 AM,9:00 PM,9:00 AM,6:00 PM,9:00 AM,6:00 PM,L1K 2Z5,-78.8586,43.9387,,2013-09-16 07:37:32 UTC,2013-09-16 07:37:32 UTC
1777 Tenth Line Road,Ottawa,Dollarama,1-613-834-2584,ON,9:00 AM,9:00 PM,9:00 AM,9:00 PM,9:00 AM,9:00 PM,9:00 AM,9:00 PM,9:00 AM,9:00 PM,9:00 AM,7:00 PM,10:00 AM,6:00 PM,K1E 3X2,-75.4968,45.476,,2013-09-16 07:37:32 UTC,2013-09-16 07:37:32 UTC
500 Terminal Ave.,Ottawa,Dollarama,1-613-562-1002,ON,9:00 AM,9:00 PM,9:00 AM,9:00 PM,9:00 AM,9:00 PM,9:00 AM,9:00 PM,9:00 AM,9:00 PM,9:00 AM,9:00 PM,10:00 AM,6:00 PM,K1G 0Z3,-75.6469,45.4148,,2013-09-16 07:37:32 UTC,2013-09-16 07:37:32 UTC
1239 Donald St.,Ottawa,Dollarama,1-613-842-0712,ON,9:00 AM,9:00 PM,9:00 AM,9:00 PM,9:00 AM,9:00 PM,9:00 AM,9:00 PM,9:00 AM,9:00 PM,9:00 AM,9:00 PM,10:00 AM,6:00 PM,K1J 8W3,-75.637,45.429,,2013-09-16 07:37:32 UTC,2013-09-16 07:37:32 UTC
594 Montreal Road,Ottawa,Dollarama,1-613-288-0113,ON,9:00 AM,9:00 PM,9:00 AM,9:00 PM,9:00 AM,9:00 PM,9:00 AM,9:00 PM,9:00 AM,9:00 PM,9:00 AM,7:00 PM,10:00 AM,6:00 PM,K1K 0T9,-75.6435,45.4419,,2013-09-16 07:37:32 UTC,2013-09-16 07:37:32 UTC
1200 St Laurent Blvd,Ottawa,Dollarama,1-613-288-0172,ON,9:30 AM,9:00 PM,9:30 AM,9:00 PM,9:30 AM,9:00 PM,9:30 AM,9:00 PM,9:30 AM,9:00 PM,9:30 AM,7:00 PM,11:00 AM,5:00 PM,K1K 3B8,-75.6413,45.4205,,2013-09-16 07:37:32 UTC,2013-09-16 07:37:32 UTC
183 Rideau Street,Ottawa,Dollarama,1-613-288-1364,ON,9:00 AM,7:00 PM,9:00 AM,7:00 PM,9:00 AM,7:00 PM,9:00 AM,7:00 PM,9:00 AM,7:00 PM,9:00 AM,6:00 PM,11:00 AM,5:00 PM,K1N 5X8,-75.6891,45.4275,,2013-09-16 07:37:32 UTC,2013-09-16 07:37:32 UTC
1670 Heron Road,Ottawa,Dollarama,1-613-247-1692,ON,9:30 AM,6:00 PM,9:30 AM,6:00 PM,9:30 AM,9:00 PM,9:30 AM,9:00 PM,9:30 AM,9:00 PM,9:30 AM,6:00 PM,11:00 AM,5:00 PM,K1V 0C2,-75.6446,45.38,,2013-09-16 07:37:32 UTC,2013-09-16 07:37:32 UTC
2515 Bank Street,Ottawa,Dollarama,1-613-249-8613,ON,8:00 AM,9:00 PM,8:00 AM,9:00 PM,8:00 AM,9:00 PM,8:00 AM,9:00 PM,8:00 AM,9:00 PM,8:00 AM,9:00 PM,9:00 AM,6:00 PM,K1V 0Y4,-75.6451,45.3549,,2013-09-16 07:37:32 UTC,2013-09-16 07:37:32 UTC
1050 Somerset Street West,Ottawa,Dollarama,1-613-688-0192,ON,9:00 AM,9:00 PM,9:00 AM,9:00 PM,9:00 AM,9:00 PM,9:00 AM,9:00 PM,9:00 AM,9:00 PM,9:00 AM,6:00 PM,9:00 AM,5:00 PM,K1Y 3C5,-75.7193,45.4068,,2013-09-16 07:37:33 UTC,2013-09-16 07:37:33 UTC
2121 Carling Ave.,Ottawa,Dollarama,1-613-761-6790,ON,9:30 AM,9:00 PM,9:30 AM,9:00 PM,9:30 AM,9:00 PM,9:30 AM,9:00 PM,9:30 AM,9:00 PM,9:30 AM,9:00 PM,10:00 AM,6:00 PM,K2A 1H2,-75.7621,45.3739,,2013-09-16 07:37:33 UTC,2013-09-16 07:37:33 UTC
255 Elgin St,Ottawa,Dollarama,1-613-288-0046,ON,9:00 AM,9:00 PM,9:00 AM,9:00 PM,9:00 AM,9:00 PM,9:00 AM,9:00 PM,9:00 AM,9:00 PM,9:00 AM,6:00 PM,10:00 AM,5:00 PM,K2P 1L8,-75.6907,45.4183,,2013-09-16 07:37:33 UTC,2013-09-16 07:37:33 UTC
5375 Fernbank Rd,Ottawa,Dollarama,1-613-836-9158,ON,9:00 AM,9:00 PM,9:00 AM,9:00 PM,9:00 AM,9:00 PM,9:00 AM,9:00 PM,9:00 AM,9:00 PM,9:00 AM,7:00 PM,10:00 AM,6:00 PM,K2S 1B6,-75.9124,45.2478,,2013-09-16 07:37:33 UTC,2013-09-16 07:37:33 UTC
1979 16th Street E.,Owen Sound,Dollarama,1-519-372-1230,ON,9:00 AM,9:00 PM,9:00 AM,9:00 PM,9:00 AM,9:00 PM,9:00 AM,9:00 PM,9:00 AM,9:00 PM,9:00 AM,6:00 PM,10:00 AM,5:00 PM,N4K 5N3,-80.913,44.5752,,2013-09-16 07:37:33 UTC,2013-09-16 07:37:33 UTC
1020 Tenth St. West,Owen Sound,Dollarama,1-519-372-0912,ON,9:00 AM,9:00 PM,9:00 AM,9:00 PM,9:00 AM,9:00 PM,9:00 AM,9:00 PM,9:00 AM,9:00 PM,9:00 AM,6:00 PM,10:00 AM,5:00 PM,N4K 5S1,-80.9264,44.5697,,2013-09-16 07:37:33 UTC,2013-09-16 07:37:33 UTC
303 Grand River St.North,Paris,Dollarama,1-519-442-0251,ON,9:00 AM,9:00 PM,9:00 AM,9:00 PM,9:00 AM,9:00 PM,9:00 AM,9:00 PM,9:00 AM,9:00 PM,9:00 AM,6:00 PM,10:00 AM,6:00 PM,N3L 2N9,-80.3895,43.2122,,2013-09-16 07:37:33 UTC,2013-09-16 07:37:33 UTC
1 Pine Drive,Parry Sound,Dollarama,1-705-746-6823,ON,9:00 AM,7:00 PM,9:00 AM,7:00 PM,9:00 AM,7:00 PM,9:00 AM,9:00 PM,9:00 AM,9:00 PM,9:00 AM,6:00 PM,10:00 AM,5:00 PM,P2A 2C3,-80.011,45.3451,,2013-09-16 07:37:33 UTC,2013-09-16 07:37:33 UTC
1100 Pembroke St. East,Pembroke,Dollarama,1-613-735-7238,ON,9:30 AM,9:00 PM,9:30 AM,9:00 PM,9:30 AM,9:00 PM,9:30 AM,9:00 PM,9:30 AM,9:00 PM,9:30 AM,6:00 PM,12:00 PM,5:00 PM,K8A 6Y7,-77.1421,45.8311,,2013-09-16 07:37:33 UTC,2013-09-16 07:37:33 UTC
1200 Pembroke St.,Pembroke,Dollarama,1-613-732-1556,ON,9:30 AM,9:00 PM,9:30 AM,9:00 PM,9:30 AM,9:00 PM,9:30 AM,9:00 PM,9:30 AM,9:00 PM,9:30 AM,6:00 PM,12:00 PM,5:00 PM,K8A 7T1,-77.1454,45.832,,2013-09-16 07:37:33 UTC,2013-09-16 07:37:33 UTC
871 Chemong Road,Peterborough,Dollarama,1-705-740-9240,ON,9:00 AM,9:00 PM,9:00 AM,9:00 PM,9:00 AM,9:00 PM,9:00 AM,9:00 PM,9:00 AM,9:00 PM,9:00 AM,6:00 PM,10:00 AM,5:00 PM,K9H 5Z5,-78.3321,44.3195,,2013-09-16 07:37:33 UTC,2013-09-16 07:37:33 UTC
880 The Parkway,Peterborough,Dollarama,1-705-749-2935,ON,8:00 AM,9:00 PM,8:00 AM,9:00 PM,8:00 AM,9:00 PM,8:00 AM,9:00 PM,8:00 AM,9:00 PM,9:00 AM,6:00 PM,10:00 AM,5:00 PM,K9J 8S5,-78.3472,44.2875,,2013-09-16 07:37:33 UTC,2013-09-16 07:37:33 UTC
1355 Kingston Road,Pickering,Dollarama,1-905-420-0974,ON,9:30 AM,9:00 PM,9:30 AM,9:00 PM,9:30 AM,9:00 PM,9:30 AM,9:00 PM,9:30 AM,9:00 PM,9:30 AM,6:00 PM,11:00 AM,6:00 PM,L1V 1B8,-79.0884,43.8373,,2013-09-16 07:37:33 UTC,2013-09-16 07:37:33 UTC
1755 Pickering Parkway,Pickering,Dollarama,1-905-619-0285,ON,9:00 AM,9:00 PM,9:00 AM,9:00 PM,9:00 AM,9:00 PM,9:00 AM,9:00 PM,9:00 AM,9:00 PM,9:00 AM,7:00 PM,10:00 AM,7:00 PM,L1V 6K5,-79.0671,43.8423,,2013-09-16 07:37:33 UTC,2013-09-16 07:37:33 UTC
287 West Side Road,Port Colborne,Dollarama,1-905-834-8257,ON,9:30 AM,9:00 PM,9:30 AM,9:00 PM,9:30 AM,9:00 PM,9:30 AM,9:00 PM,9:30 AM,9:00 PM,9:00 AM,6:00 PM,10:00 AM,5:00 PM,L3K 5L2,-79.2652,42.9056,,2013-09-16 07:37:33 UTC,2013-09-16 07:37:33 UTC
45 West Side Road,Port Colborne,Dollarama,1-905-834-7922,ON,8:00 AM,9:00 PM,8:00 AM,9:00 PM,8:00 AM,9:00 PM,8:00 AM,9:00 PM,8:00 AM,9:00 PM,8:00 AM,9:00 PM,9:00 AM,6:00 PM,L3K 5Y7,-79.2664,42.8957,,2013-09-16 07:37:33 UTC,2013-09-16 07:37:33 UTC
365 - 371 Goderich St.,Port Elgin,Dollarama,1-519-832-2223,ON,9:00 AM,6:00 PM,9:00 AM,6:00 PM,9:00 AM,6:00 PM,9:00 AM,9:00 PM,9:00 AM,9:00 PM,9:00 AM,6:00 PM,10:00 AM,5:00 PM,N0H 2C1,-81.3934,44.4305,,2013-09-16 07:37:34 UTC,2013-09-16 07:37:34 UTC
1535 Highway 7A,Port Perry,Dollarama,1-905-985-0404,ON,9:00 AM,9:00 PM,9:00 AM,9:00 PM,9:00 AM,9:00 PM,9:00 AM,9:00 PM,9:00 AM,9:00 PM,9:00 AM,6:00 PM,10:00 AM,6:00 PM,L9L 1B5,-78.9859,44.0856,,2013-09-16 07:37:34 UTC,2013-09-16 07:37:34 UTC
646 O'Brien Road,Renfrew,Dollarama,1-613-433-9541,ON,9:00 AM,7:00 PM,9:00 AM,7:00 PM,9:00 AM,7:00 PM,9:00 AM,9:00 PM,9:00 AM,9:00 PM,9:00 AM,6:00 PM,10:00 AM,5:00 PM,K7V 3Z4,-76.6621,45.4735,,2013-09-16 07:37:34 UTC,2013-09-16 07:37:34 UTC
9325 Yonge St,Richmond Hill,Dollarama,1-905-883-7916,ON,9:00 AM,9:00 PM,9:00 AM,9:00 PM,9:00 AM,9:00 PM,9:00 AM,9:00 PM,9:00 AM,9:00 PM,9:00 AM,6:00 PM,10:00 AM,6:00 PM,L4C 0A8,-79.4331,43.8537,,2013-09-16 07:37:34 UTC,2013-09-16 07:37:34 UTC
606 Major Mackenzie Dr E,Richmond Hill,Dollarama,1-905-883-3859,ON,9:00 AM,9:00 PM,9:00 AM,9:00 PM,9:00 AM,9:00 PM,9:00 AM,9:00 PM,9:00 AM,9:00 PM,9:00 AM,8:00 PM,10:00 AM,6:00 PM,L4C 1J9,-79.4173,43.8756,,2013-09-16 07:37:34 UTC,2013-09-16 07:37:34 UTC
10620 Yonge Street,Richmond Hill,Dollarama,1-905-508-7168,ON,9:00 AM,9:00 PM,9:00 AM,9:00 PM,9:00 AM,9:00 PM,9:00 AM,9:00 PM,9:00 AM,9:00 PM,9:00 AM,9:00 PM,10:00 AM,6:00 PM,L4C 3C8,-79.4409,43.8864,,2013-09-16 07:37:34 UTC,2013-09-16 07:37:34 UTC
11700 Yonge Street,Richmond Hill,Dollarama,1-905-883-0034,ON,9:00 AM,9:00 PM,9:00 AM,9:00 PM,9:00 AM,9:00 PM,9:00 AM,9:00 PM,9:00 AM,9:00 PM,9:00 AM,6:00 PM,10:00 AM,5:00 PM,L4E 0K4,-79.4465,43.9106,,2013-09-16 07:37:34 UTC,2013-09-16 07:37:34 UTC
1380 London Rd.,Sarnia,Dollarama,1-519-541-9059,ON,9:30 AM,9:00 PM,9:30 AM,9:00 PM,9:30 AM,9:00 PM,9:30 AM,9:00 PM,9:30 AM,9:00 PM,9:30 AM,9:00 PM,11:00 AM,5:00 PM,N7S 1P8,-82.354,42.9802,,2013-09-16 07:37:34 UTC,2013-09-16 07:37:34 UTC
1470 Quinn Drive,Sarnia,Dollarama,1-519-541-9090,ON,9:00 AM,9:00 PM,9:00 AM,9:00 PM,9:00 AM,9:00 PM,9:00 AM,9:00 PM,9:00 AM,9:00 PM,9:00 AM,9:00 PM,9:00 AM,6:00 PM,N7S 6M8,-82.3471,42.986,,2013-09-16 07:37:34 UTC,2013-09-16 07:37:34 UTC
500 Exmouth Street,Sarnia,Dollarama,1-519-337-1539,ON,9:00 AM,9:00 PM,9:00 AM,9:00 PM,9:00 AM,9:00 PM,9:00 AM,9:00 PM,9:00 AM,9:00 PM,9:00 AM,9:00 PM,10:00 AM,6:00 PM,N7T 5P4,-82.3878,42.9853,,2013-09-16 07:37:34 UTC,2013-09-16 07:37:34 UTC
293 Bay Street,Sault Ste. Marie,Dollarama,1-705-759-0931,ON,9:30 AM,9:00 PM,9:30 AM,9:00 PM,9:30 AM,9:00 PM,9:30 AM,9:00 PM,9:30 AM,9:00 PM,9:30 AM,5:30 PM,11:00 AM,5:00 PM,P6A 1X3,-84.3361,46.512,,2013-09-16 07:37:34 UTC,2013-09-16 07:37:34 UTC
150 Churchill Blvd,Sault Ste. Marie,Dollarama,1-705-942-1545,ON,8:00 AM,9:00 PM,8:00 AM,9:00 PM,8:00 AM,9:00 PM,8:00 AM,9:00 PM,8:00 AM,9:00 PM,8:00 AM,6:00 PM,9:00 AM,6:00 PM,P6A 3Z9,-84.2986,46.5096,,2013-09-16 07:37:34 UTC,2013-09-16 07:37:34 UTC
293 Northern Ave. East,Sault Ste. Marie,Dollarama,1-705-254-1342,ON,8:00 AM,9:00 PM,8:00 AM,9:00 PM,8:00 AM,9:00 PM,8:00 AM,9:00 PM,8:00 AM,9:00 PM,8:00 AM,6:00 PM,9:00 AM,6:00 PM,P6B 4H9,-84.3216,46.5341,,2013-09-16 07:37:34 UTC,2013-09-16 07:37:34 UTC
275 Second Line West,Sault Ste. Marie,Dollarama,1-705-949-5209,ON,9:00 AM,9:00 PM,9:00 AM,9:00 PM,9:00 AM,9:00 PM,9:00 AM,9:00 PM,9:00 AM,9:00 PM,9:00 AM,6:00 PM,11:00 AM,5:00 PM,P6C 2J4,-84.3656,46.5374,,2013-09-16 07:37:34 UTC,2013-09-16 07:37:34 UTC
31 Tapscott Road,Scarborough,Dollarama,1-416-335-9097,ON,9:00 AM,9:00 PM,9:00 AM,9:00 PM,9:00 AM,9:00 PM,9:00 AM,9:00 PM,9:00 AM,9:00 PM,9:00 AM,6:00 PM,10:00 AM,5:00 PM,M1B 4Y7,-79.2359,43.811,,2013-09-16 07:37:34 UTC,2013-09-16 07:37:34 UTC
2900 Ellesmere Road,Scarborough,Dollarama,1-416-283-3091,ON,9:00 AM,9:00 PM,9:00 AM,9:00 PM,9:00 AM,9:00 PM,9:00 AM,9:00 PM,9:00 AM,9:00 PM,9:00 AM,8:00 PM,9:00 AM,7:00 PM,M1E 4B8,-79.2025,43.7832,,2013-09-16 07:37:34 UTC,2013-09-16 07:37:34 UTC
3495 Lawrence Ave. East,Scarborough,Dollarama,1-416-439-7630,ON,9:00 AM,9:00 PM,9:00 AM,9:00 PM,9:00 AM,9:00 PM,9:00 AM,9:00 PM,9:00 AM,9:00 PM,9:00 AM,6:00 PM,11:30 AM,5:00 PM,M1H 1B3,-79.2284,43.7592,,2013-09-16 07:37:34 UTC,2013-09-16 07:37:34 UTC
651 Markham Road,Scarborough,Dollarama,1-416-439-5851,ON,9:00 AM,9:00 PM,9:00 AM,9:00 PM,9:00 AM,9:00 PM,9:00 AM,9:00 PM,9:00 AM,9:00 PM,9:00 AM,7:00 PM,10:00 AM,6:00 PM,M1H 2A4,-79.2256,43.7606,,2013-09-16 07:37:34 UTC,2013-09-16 07:37:34 UTC
2480 Eglinton Avenue East,Scarborough,Dollarama,1-416-264-0759,ON,9:00 AM,9:00 PM,9:00 AM,9:00 PM,9:00 AM,9:00 PM,9:00 AM,9:00 PM,9:00 AM,9:00 PM,9:00 AM,9:00 PM,10:00 AM,7:00 PM,M1K 2R4,-79.2595,43.7343,,2013-09-16 07:37:34 UTC,2013-09-16 07:37:34 UTC
24 Lebovic Avenue,Scarborough,Dollarama,1-416-288-1984,ON,9:00 AM,9:00 PM,9:00 AM,9:00 PM,9:00 AM,9:00 PM,9:00 AM,9:00 PM,9:00 AM,9:00 PM,9:00 AM,8:00 PM,10:00 AM,6:00 PM,M1L 4V9,-79.2919,43.7249,,2013-09-16 07:37:35 UTC,2013-09-16 07:37:35 UTC
2975 Kingston Road,Scarborough,Dollarama,1-416-265-1443,ON,9:00 AM,9:00 PM,9:00 AM,9:00 PM,9:00 AM,9:00 PM,9:00 AM,9:00 PM,9:00 AM,9:00 PM,9:00 AM,7:00 PM,10:00 AM,6:00 PM,M1M 1P1,-79.2321,43.7253,,2013-09-16 07:37:35 UTC,2013-09-16 07:37:35 UTC
2300 Lawrence Ave. East,Scarborough,Dollarama,1-416-751-2919,ON,9:00 AM,9:00 PM,9:00 AM,9:00 PM,9:00 AM,9:00 PM,9:00 AM,9:00 PM,9:00 AM,9:00 PM,9:00 AM,7:00 PM,10:00 AM,6:00 PM,M1P 2R2,-79.2762,43.751,,2013-09-16 07:37:35 UTC,2013-09-16 07:37:35 UTC
300 Borough Drive,Scarborough,Dollarama,1-416-290-6274,ON,9:30 AM,9:00 PM,9:30 AM,9:00 PM,9:30 AM,9:00 PM,9:30 AM,9:00 PM,9:30 AM,9:00 PM,9:30 AM,9:00 PM,11:00 AM,7:00 PM,M1P 4P5,-79.2587,43.7774,,2013-09-16 07:37:35 UTC,2013-09-16 07:37:35 UTC
5097 Sheppard Ave E,Scarborough,Dollarama,1-416-640-0827,ON,9:00 AM,9:00 PM,9:00 AM,9:00 PM,9:00 AM,9:00 PM,9:00 AM,9:00 PM,9:00 AM,9:00 PM,9:00 AM,7:00 PM,10:00 AM,6:00 PM,M1S 4N8,-79.241,43.7934,,2013-09-16 07:37:35 UTC,2013-09-16 07:37:35 UTC
1571 Sandhurst Circle,Scarborough,Dollarama,1-416-297-8138,ON,9:00 AM,9:00 PM,9:00 AM,9:00 PM,9:00 AM,9:00 PM,9:00 AM,9:00 PM,9:00 AM,9:00 PM,9:00 AM,6:00 PM,11:00 AM,5:00 PM,M1V 1V2,-79.271,43.8091,,2013-09-16 07:37:35 UTC,2013-09-16 07:37:35 UTC
140 Queensway E,Simcoe,Dollarama,1-519-428-3999,ON,9:00 AM,9:00 PM,9:00 AM,9:00 PM,9:00 AM,9:00 PM,9:00 AM,9:00 PM,9:00 AM,9:00 PM,9:00 AM,6:00 PM,10:00 AM,6:00 PM,N3Y 4Y7,-80.2917,42.847,,2013-09-16 07:37:35 UTC,2013-09-16 07:37:35 UTC
203 Brockville Street,Smiths Falls,Dollarama,1-613-283-1208,ON,9:00 AM,6:00 PM,9:00 AM,6:00 PM,9:00 AM,6:00 PM,9:00 AM,8:00 PM,9:00 AM,8:00 PM,9:00 AM,6:00 PM,10:00 AM,5:00 PM,K7A 3Z3,-76.02,44.8886,,2013-09-16 07:37:35 UTC,2013-09-16 07:37:35 UTC
4858 Highway 101,South Porcupine,Dollarama,1-705-235-0831,ON,9:00 AM,9:00 PM,9:00 AM,9:00 PM,9:00 AM,9:00 PM,9:00 AM,9:00 PM,9:00 AM,9:00 PM,9:00 AM,6:00 PM,10:00 AM,5:00 PM,P0N 1K0,-81.1985,48.4905,,2013-09-16 07:37:35 UTC,2013-09-16 07:37:35 UTC
285 Geneva Street,St Catharines,Dollarama,1-905-935-4450,ON,9:00 AM,9:00 PM,9:00 AM,9:00 PM,9:00 AM,9:00 PM,9:00 AM,9:00 PM,9:00 AM,9:00 PM,9:00 AM,6:00 PM,9:00 AM,6:00 PM,L2N 2G1,-79.2448,43.1782,,2013-09-16 07:37:35 UTC,2013-09-16 07:37:35 UTC
360 Ontario Street,St Catharines,Dollarama,1-905-682-0826,ON,9:00 AM,9:00 PM,9:00 AM,9:00 PM,9:00 AM,9:00 PM,9:00 AM,9:00 PM,9:00 AM,9:00 PM,9:00 AM,9:00 PM,9:00 AM,6:00 PM,L2R 5L8,-79.2652,43.1721,,2013-09-16 07:37:35 UTC,2013-09-16 07:37:35 UTC
525 Welland Avenue,St. Catharines,Dollarama,1-905-682-0157,ON,9:00 AM,9:00 PM,9:00 AM,9:00 PM,9:00 AM,9:00 PM,9:00 AM,9:00 PM,9:00 AM,9:00 PM,9:00 AM,9:00 PM,9:00 AM,6:00 PM,L2M 6P3,-79.2282,43.17,,2013-09-16 07:37:35 UTC,2013-09-16 07:37:35 UTC
111 4th Avenue,St. Catharines,Dollarama,1-905-346-1153,ON,9:00 AM,9:00 PM,9:00 AM,9:00 PM,9:00 AM,9:00 PM,9:00 AM,9:00 PM,9:00 AM,9:00 PM,9:00 AM,9:00 PM,9:00 AM,6:00 PM,L2S 3P4,-79.2607,43.1567,,2013-09-16 07:37:35 UTC,2013-09-16 07:37:35 UTC
221 Glendale Ave,St. Catharines,Dollarama,1-905-346-0175,ON,9:30 AM,9:00 PM,9:30 AM,9:00 PM,9:30 AM,9:00 PM,9:30 AM,9:00 PM,9:30 AM,9:00 PM,9:00 AM,6:00 PM,11:00 AM,6:00 PM,L2T 2K9,-79.2251,43.133,,2013-09-16 07:37:35 UTC,2013-09-16 07:37:35 UTC
224 Glenridge Ave (Un 12),St. Catharines,Dollarama,1-905-688-6955,ON,9:00 AM,9:00 PM,9:00 AM,9:00 PM,9:00 AM,9:00 PM,9:00 AM,9:00 PM,9:00 AM,9:00 PM,9:00 AM,6:00 PM,10:00 AM,5:00 PM,L2T 3J9,-79.2395,43.1416,,2013-09-16 07:37:35 UTC,2013-09-16 07:37:35 UTC
1010 Talbot Street,St. Thomas,Dollarama,1-519-633-3457,ON,9:00 AM,9:00 PM,9:00 AM,9:00 PM,9:00 AM,9:00 PM,9:00 AM,9:00 PM,9:00 AM,9:00 PM,9:00 AM,9:00 PM,10:00 AM,6:00 PM,N5P 4N2,-81.1786,42.7786,,2013-09-16 07:37:36 UTC,2013-09-16 07:37:36 UTC
210 Glendale Avenue,St-Catharines,Dollarama,1-905-685-3556,ON,9:00 AM,9:00 PM,9:00 AM,9:00 PM,9:00 AM,9:00 PM,9:00 AM,9:00 PM,9:00 AM,9:00 PM,9:00 AM,6:00 PM,9:00 AM,6:00 PM,L2T 3Y6,-79.2261,43.1324,,2013-09-16 07:37:36 UTC,2013-09-16 07:37:36 UTC
1300 Stittsville Main St,Stittsville,Dollarama,1-613-836-2203,ON,9:00 AM,9:00 PM,9:00 AM,9:00 PM,9:00 AM,9:00 PM,9:00 AM,9:00 PM,9:00 AM,9:00 PM,9:00 AM,6:00 PM,10:00 AM,6:00 PM,K2S 1A3,-75.9305,45.2658,,2013-09-16 07:37:36 UTC,2013-09-16 07:37:36 UTC
1070 Hoover Park Dr,Stouffville,Dollarama,1-905-642-1135,ON,9:00 AM,9:00 PM,9:00 AM,9:00 PM,9:00 AM,9:00 PM,9:00 AM,9:00 PM,9:00 AM,9:00 PM,9:00 AM,6:00 PM,10:00 AM,6:00 PM,L4A 0K2,-79.2542,43.9626,,2013-09-16 07:37:36 UTC,2013-09-16 07:37:36 UTC
925 Ontario Street,Stratford,Dollarama,1-519-275-3064,ON,9:00 AM,9:00 PM,9:00 AM,9:00 PM,9:00 AM,9:00 PM,9:00 AM,9:00 PM,9:00 AM,9:00 PM,9:00 AM,9:00 PM,10:00 AM,6:00 PM,N5A 6W5,-80.9483,43.3707,,2013-09-16 07:37:36 UTC,2013-09-16 07:37:36 UTC
70 Carroll St East,Strathroy,Dollarama,1-519-245-7439,ON,9:00 AM,9:00 PM,9:00 AM,9:00 PM,9:00 AM,9:00 PM,9:00 AM,9:00 PM,9:00 AM,9:00 PM,9:00 AM,9:00 PM,10:00 AM,5:00 PM,N7G 4G2,-81.6106,42.9474,,2013-09-16 07:37:36 UTC,2013-09-16 07:37:36 UTC
1349 Lasalle Rd.,Sudbury,Dollarama,1-705-524-0396,ON,8:30 AM,9:00 PM,8:30 AM,9:00 PM,8:30 AM,9:00 PM,8:30 AM,9:00 PM,8:30 AM,9:00 PM,9:30 AM,6:00 PM,11:00 AM,5:00 PM,P3A 1Z2,-80.9471,46.522,,2013-09-16 07:37:36 UTC,2013-09-16 07:37:36 UTC
747 Notre Dame Ave.,Sudbury,Dollarama,1-705-524-6398,ON,8:00 AM,9:00 PM,8:00 AM,9:00 PM,8:00 AM,9:00 PM,8:00 AM,9:00 PM,8:00 AM,9:00 PM,9:00 AM,6:00 PM,10:00 AM,5:00 PM,P3A 2T2,-80.9867,46.5102,,2013-09-16 07:37:36 UTC,2013-09-16 07:37:36 UTC
1299 Marcus Drive,Sudbury,Dollarama,1-705-560-3103,ON,9:00 AM,9:00 PM,9:00 AM,9:00 PM,9:00 AM,9:00 PM,9:00 AM,9:00 PM,9:00 AM,9:00 PM,9:00 AM,9:00 PM,10:00 AM,6:00 PM,P3B 4K6,-80.9466,46.5009,,2013-09-16 07:37:36 UTC,2013-09-16 07:37:36 UTC
2412 Long Lake Road,Sudbury,Dollarama,1-705-523-5574,ON,9:00 AM,10:00 PM,9:00 AM,10:00 PM,9:00 AM,10:00 PM,9:00 AM,10:00 PM,9:00 AM,10:00 PM,9:00 AM,8:00 PM,9:00 AM,6:00 PM,P3E 0C5,-81.0055,46.4423,,2013-09-16 07:37:36 UTC,2013-09-16 07:37:36 UTC
1933 Regent St.,Sudbury,Dollarama,1-705-522-0094,ON,8:00 AM,9:00 PM,8:00 AM,9:00 PM,8:00 AM,9:00 PM,8:00 AM,9:00 PM,8:00 AM,9:00 PM,9:00 AM,6:00 PM,10:00 AM,5:00 PM,P3E 5R2,-81.0029,46.4513,,2013-09-16 07:37:36 UTC,2013-09-16 07:37:36 UTC
8190 Bayview Ave,Thornhill,Dollarama,1-905-695-1001,ON,9:00 AM,9:00 PM,9:00 AM,9:00 PM,9:00 AM,9:00 PM,9:00 AM,9:00 PM,9:00 AM,9:00 PM,9:00 AM,7:00 PM,10:00 AM,6:00 PM,L3T 2S2,-79.4044,43.8315,,2013-09-16 07:37:36 UTC,2013-09-16 07:37:36 UTC
370 Steeles Ave West,Thornhill,Dollarama,1-905-882-4931,ON,10:00 AM,9:00 PM,10:00 AM,9:00 PM,10:00 AM,9:00 PM,10:00 AM,9:00 PM,10:00 AM,9:00 PM,10:00 AM,6:00 PM,10:00 AM,6:00 PM,L4J 6X1,-79.4305,43.7958,,2013-09-16 07:37:36 UTC,2013-09-16 07:37:36 UTC
1450 Clark Ave. W.,Thornhill,Dollarama,1-905-532-0387,ON,9:00 AM,9:00 PM,9:00 AM,9:00 PM,9:00 AM,9:00 PM,9:00 AM,9:00 PM,9:00 AM,9:00 PM,9:00 AM,6:00 PM,10:00 AM,6:00 PM,L4J 7R5,-79.4668,43.799,,2013-09-16 07:37:36 UTC,2013-09-16 07:37:36 UTC
789 Memorial Avenue,Thunder Bay,Dollarama,1-807-766-0504,ON,9:00 AM,9:00 PM,9:00 AM,9:00 PM,9:00 AM,9:00 PM,9:00 AM,9:00 PM,9:00 AM,9:00 PM,9:00 AM,9:00 PM,9:00 AM,6:00 PM,P7B 3Z7,-89.244,48.4131,,2013-09-16 07:37:36 UTC,2013-09-16 07:37:36 UTC
369 Main St,Thunder Bay,Dollarama,1-807-343-0504,ON,9:00 AM,9:00 PM,9:00 AM,9:00 PM,9:00 AM,9:00 PM,9:00 AM,9:00 PM,9:00 AM,9:00 PM,9:00 AM,9:00 PM,9:00 AM,5:00 PM,P7B 5L6,-89.2399,48.4065,,2013-09-16 07:37:36 UTC,2013-09-16 07:37:36 UTC
425 Edward St N,Thunder Bay,Dollarama,1-807-475-4941,ON,9:00 AM,9:00 PM,9:00 AM,9:00 PM,9:00 AM,9:00 PM,9:00 AM,9:00 PM,9:00 AM,9:00 PM,9:00 AM,9:00 PM,9:00 AM,5:00 PM,P7C 4P7,-89.278,48.3937,,2013-09-16 07:37:36 UTC,2013-09-16 07:37:36 UTC
1101 Arthur St W,Thunder Bay,Dollarama,1-807-475-0504,ON,9:00 AM,9:00 PM,9:00 AM,9:00 PM,9:00 AM,9:00 PM,9:00 AM,9:00 PM,9:00 AM,9:00 PM,9:00 AM,6:00 PM,12:00 PM,5:00 PM,P7E 5S2,-89.306,48.3808,,2013-09-16 07:37:36 UTC,2013-09-16 07:37:36 UTC
10 Queen St South,Tilbury,Dollarama,1-519-682-2966,ON,9:00 AM,6:00 PM,9:00 AM,6:00 PM,9:00 AM,6:00 PM,9:00 AM,6:00 PM,9:00 AM,9:00 PM,9:00 AM,5:00 PM,11:00 AM,4:00 PM,N0P 2L0,-82.4322,42.2587,,2013-09-16 07:37:36 UTC,2013-09-16 07:37:36 UTC
400 Simcoe St.,Tillsonburg,Dollarama,1-519-688-6517,ON,9:00 AM,9:00 PM,9:00 AM,9:00 PM,9:00 AM,9:00 PM,9:00 AM,9:00 PM,9:00 AM,9:00 PM,9:00 AM,6:00 PM,10:00 AM,6:00 PM,N4G 4X1,-80.6916,42.8538,,2013-09-16 07:37:36 UTC,2013-09-16 07:37:36 UTC
1850 Riverside Drive,Timmins,Dollarama,1-705-264-2198,ON,8:00 AM,9:00 PM,8:00 AM,9:00 PM,8:00 AM,9:00 PM,8:00 AM,9:00 PM,8:00 AM,9:00 PM,8:00 AM,9:00 PM,10:00 AM,5:00 PM,P4R 1N7,-81.3894,48.4726,,2013-09-16 07:37:36 UTC,2013-09-16 07:37:36 UTC
4525 Kingston Road,Toronto,Dollarama,1-416-645-2041,ON,9:00 AM,9:00 PM,9:00 AM,9:00 PM,9:00 AM,9:00 PM,9:00 AM,9:00 PM,9:00 AM,9:00 PM,9:00 AM,9:00 PM,10:00 AM,7:00 PM,M1E 2P1,-79.186,43.7714,,2013-09-16 07:37:37 UTC,2013-09-16 07:37:37 UTC
680 Kennedy Road,Toronto,Dollarama,1-416-261-9685,ON,9:00 AM,9:00 PM,9:00 AM,9:00 PM,9:00 AM,9:00 PM,9:00 AM,9:00 PM,9:00 AM,9:00 PM,9:00 AM,6:00 PM,9:00 AM,6:00 PM,M1K 2B5,-79.2658,43.7271,,2013-09-16 07:37:37 UTC,2013-09-16 07:37:37 UTC
1 Eglinton Square,Toronto,Dollarama,1-416-640-0160,ON,9:00 AM,9:00 PM,9:00 AM,9:00 PM,9:00 AM,9:00 PM,9:00 AM,9:00 PM,9:00 AM,9:00 PM,9:30 AM,6:00 PM,11:00 AM,5:00 PM,M1L 2K1,-79.3014,43.7239,,2013-09-16 07:37:37 UTC,2013-09-16 07:37:37 UTC
3030 Don Mills Rd.,Toronto,Dollarama,1-416-642-5991,ON,9:00 AM,9:00 PM,9:00 AM,9:00 PM,9:00 AM,9:00 PM,9:00 AM,9:00 PM,9:00 AM,9:00 PM,9:00 AM,8:00 PM,10:00 AM,7:00 PM,M2J 3C1,-79.3511,43.7859,,2013-09-16 07:37:37 UTC,2013-09-16 07:37:37 UTC
4841 Yonge St,Toronto,Dollarama,1-416-644-0028,ON,9:00 AM,9:00 PM,9:00 AM,9:00 PM,9:00 AM,9:00 PM,9:00 AM,9:00 PM,9:00 AM,9:00 PM,9:00 AM,8:00 PM,10:00 AM,6:00 PM,M2N 5X2,-79.4109,43.762,,2013-09-16 07:37:37 UTC,2013-09-16 07:37:37 UTC
1881 Leslie St,Toronto,Dollarama,1-416-640-1408,ON,9:00 AM,9:00 PM,9:00 AM,9:00 PM,9:00 AM,9:00 PM,9:00 AM,9:00 PM,9:00 AM,9:00 PM,9:00 AM,7:00 PM,10:00 AM,6:00 PM,M3B 2M3,-79.3608,43.7565,,2013-09-16 07:37:37 UTC,2013-09-16 07:37:37 UTC
2181 Steeles Ave W,Toronto,Dollarama,1-416-645-0326,ON,9:00 AM,9:00 PM,9:00 AM,9:00 PM,9:00 AM,9:00 PM,9:00 AM,9:00 PM,9:00 AM,9:00 PM,9:00 AM,6:00 PM,10:00 AM,6:00 PM,M3J 3N2,-79.4769,43.7855,,2013-09-16 07:37:37 UTC,2013-09-16 07:37:37 UTC
1591 Wilson Ave,Toronto,Dollarama,1-416-645-0408,ON,9:00 AM,9:00 PM,9:00 AM,9:00 PM,9:00 AM,9:00 PM,9:00 AM,9:00 PM,9:00 AM,9:00 PM,9:00 AM,7:00 PM,10:00 AM,6:00 PM,M3L 1A5,-79.5099,43.7207,,2013-09-16 07:37:37 UTC,2013-09-16 07:37:37 UTC
1 Yorkgate Blvd,Toronto,Dollarama,1-416-661-8794,ON,10:00 AM,9:00 PM,10:00 AM,9:00 PM,10:00 AM,9:00 PM,10:00 AM,9:00 PM,10:00 AM,9:00 PM,9:30 AM,6:00 PM,12:00 PM,5:00 PM,M3N 3A1,-79.5201,43.7569,,2013-09-16 07:37:37 UTC,2013-09-16 07:37:37 UTC
1448 Lawrence Ave E. Un 22,Toronto,Dollarama,1-416-750-0616,ON,8:00 AM,9:00 PM,8:00 AM,9:00 PM,8:00 AM,9:00 PM,8:00 AM,9:00 PM,8:00 AM,9:00 PM,9:00 AM,8:00 PM,10:00 AM,7:00 PM,M4A 2S8,-79.3144,43.7416,,2013-09-16 07:37:37 UTC,2013-09-16 07:37:37 UTC
2064 Danforth Ave,Toronto,Dollarama,1-416-421-9112,ON,9:00 AM,9:00 PM,9:00 AM,9:00 PM,9:00 AM,9:00 PM,9:00 AM,9:00 PM,9:00 AM,9:00 PM,9:00 AM,7:00 PM,10:00 AM,6:00 PM,M4C 1J6,-79.3132,43.6856,,2013-09-16 07:37:37 UTC,2013-09-16 07:37:37 UTC
3003 Danforth Avenue,Toronto,Dollarama,1-416-691-7607,ON,9:00 AM,9:00 PM,9:00 AM,9:00 PM,9:00 AM,9:00 PM,9:00 AM,9:00 PM,9:00 AM,9:00 PM,9:00 AM,8:00 PM,10:00 AM,6:00 PM,M4C 1M9,-79.2901,43.6908,,2013-09-16 07:37:37 UTC,2013-09-16 07:37:37 UTC
1531 Bayview Ave.,Toronto,Dollarama,1-416-932-6897,ON,9:00 AM,8:00 PM,9:00 AM,8:00 PM,9:00 AM,8:00 PM,9:00 AM,8:00 PM,9:00 AM,8:00 PM,9:00 AM,7:00 PM,10:00 AM,6:00 PM,M4G 3B5,-79.3746,43.7048,,2013-09-16 07:37:37 UTC,2013-09-16 07:37:37 UTC
45 Overlea Blvd.,Toronto,Dollarama,1-416-425-2830,ON,9:00 AM,9:00 PM,9:00 AM,9:00 PM,9:00 AM,9:00 PM,9:00 AM,9:00 PM,9:00 AM,9:00 PM,9:30 AM,6:00 PM,11:00 AM,5:00 PM,M4H 1C3,-79.346,43.7053,,2013-09-16 07:37:37 UTC,2013-09-16 07:37:37 UTC
293 Coxwell Ave,Toronto,Dollarama,1-416-645-0226,ON,9:00 AM,9:00 PM,9:00 AM,9:00 PM,9:00 AM,9:00 PM,9:00 AM,9:00 PM,9:00 AM,9:00 PM,9:00 AM,8:00 PM,10:00 AM,6:00 PM,M4L 3B5,-79.3197,43.674,,2013-09-16 07:37:37 UTC,2013-09-16 07:37:37 UTC
730 Yonge Street,Toronto,Dollarama,1-416-924-1064,ON,9:00 AM,10:00 PM,9:00 AM,10:00 PM,9:00 AM,10:00 PM,9:00 AM,10:00 PM,9:00 AM,10:00 PM,9:00 AM,8:00 PM,10:00 AM,7:00 PM,M4Y 2B7,-79.3862,43.6688,,2013-09-16 07:37:37 UTC,2013-09-16 07:37:37 UTC
226 Front Street East,Toronto,Dollarama,1-416-640-0102,ON,9:00 AM,9:00 PM,9:00 AM,9:00 PM,9:00 AM,9:00 PM,9:00 AM,9:00 PM,9:00 AM,9:00 PM,9:00 AM,6:00 PM,10:00 AM,5:00 PM,M5A 1T8,-79.3646,43.6512,,2013-09-16 07:37:37 UTC,2013-09-16 07:37:37 UTC
149 Sherbourne Street,Toronto,Dollarama,1-416-363-9194,ON,9:30 AM,9:00 PM,9:30 AM,9:00 PM,9:30 AM,9:00 PM,9:30 AM,9:00 PM,9:30 AM,9:00 PM,9:00 AM,8:00 PM,10:00 AM,6:00 PM,M5A 2R5,-79.3699,43.6558,,2013-09-16 07:37:37 UTC,2013-09-16 07:37:37 UTC
777 Bay St,Toronto,Dollarama,1-416-593-9566,ON,8:00 AM,9:00 PM,8:00 AM,9:00 PM,8:00 AM,9:00 PM,8:00 AM,9:00 PM,8:00 AM,9:00 PM,9:00 AM,6:00 PM,10:00 AM,6:00 PM,M5G 2C8,-79.3845,43.6606,,2013-09-16 07:37:37 UTC,2013-09-16 07:37:37 UTC
512 Bloor St. West,Toronto,Dollarama,1-416-531-2255,ON,9:00 AM,9:00 PM,9:00 AM,9:00 PM,9:00 AM,9:00 PM,9:00 AM,9:00 PM,9:00 AM,9:00 PM,9:00 AM,9:00 PM,10:00 AM,6:30 PM,M5S 1Y3,-79.4106,43.6653,,2013-09-16 07:37:37 UTC,2013-09-16 07:37:37 UTC
96 Spadina Ave,Toronto,Dollarama,1-416-640-0540,ON,9:00 AM,9:00 PM,9:00 AM,9:00 PM,9:00 AM,9:00 PM,9:00 AM,9:00 PM,9:00 AM,9:00 PM,9:00 AM,9:00 PM,10:00 AM,6:00 PM,M5V 2J6,-79.3957,43.6464,,2013-09-16 07:37:37 UTC,2013-09-16 07:37:37 UTC
20 Orfus Road,Toronto,Dollarama,1-416-782-1273,ON,9:00 AM,9:00 PM,9:00 AM,9:00 PM,9:00 AM,9:00 PM,9:00 AM,9:00 PM,9:00 AM,9:00 PM,9:00 AM,6:00 PM,9:30 AM,6:00 PM,M6A 1L6,-79.4573,43.7202,,2013-09-16 07:37:37 UTC,2013-09-16 07:37:37 UTC
700 Lawrence Ave W.,Toronto,Dollarama,1-416-640-5722,ON,9:00 AM,9:00 PM,9:00 AM,9:00 PM,9:00 AM,9:00 PM,9:00 AM,9:00 PM,9:00 AM,9:00 PM,9:00 AM,6:00 PM,11:00 AM,5:00 PM,M6A 3B4,-79.4466,43.7157,,2013-09-16 07:37:38 UTC,2013-09-16 07:37:38 UTC
2388 Dufferin Street,Toronto,Dollarama,1-416-782-2963,ON,9:00 AM,9:00 PM,9:00 AM,9:00 PM,9:00 AM,9:00 PM,9:00 AM,9:00 PM,9:00 AM,9:00 PM,9:00 AM,7:00 PM,10:00 AM,6:00 PM,M6E 3S6,-79.4508,43.6964,,2013-09-16 07:37:38 UTC,2013-09-16 07:37:38 UTC
21 Vaughan Road,Toronto,Dollarama,1-416-653-2984,ON,9:30 AM,9:00 PM,9:30 AM,9:00 PM,9:30 AM,9:00 PM,9:30 AM,9:00 PM,9:30 AM,9:00 PM,9:00 AM,6:00 PM,11:00 AM,6:00 PM,M6G 2N2,-79.4185,43.6819,,2013-09-16 07:37:38 UTC,2013-09-16 07:37:38 UTC
1245 Dupont Street,Toronto,Dollarama,1-416-536-1477,ON,9:00 AM,9:00 PM,9:00 AM,9:00 PM,9:00 AM,9:00 PM,9:00 AM,9:00 PM,9:00 AM,9:00 PM,9:00 AM,8:00 PM,10:00 AM,7:00 PM,M6H 2A6,-79.4413,43.6683,,2013-09-16 07:37:38 UTC,2013-09-16 07:37:38 UTC
900 Dufferin St.,Toronto,Dollarama,1-416-538-2558,ON,10:00 AM,9:00 PM,10:00 AM,9:00 PM,10:00 AM,9:00 PM,10:00 AM,9:00 PM,10:00 AM,9:00 PM,10:00 AM,9:00 PM,11:00 AM,6:00 PM,M6H 4B1,-79.4355,43.6569,,2013-09-16 07:37:38 UTC,2013-09-16 07:37:38 UTC
800 Lansdowne Ave.,Toronto,Dollarama,1-416-649-0023,ON,9:30 AM,9:00 PM,9:30 AM,9:00 PM,9:30 AM,9:00 PM,9:30 AM,9:00 PM,9:30 AM,9:00 PM,9:00 AM,7:00 PM,10:00 AM,6:00 PM,M6H 4K3,-79.446,43.6652,,2013-09-16 07:37:38 UTC,2013-09-16 07:37:38 UTC
1337 Queen Street West,Toronto,Dollarama,1-416-531-4809,ON,9:30 AM,9:00 PM,9:30 AM,9:00 PM,9:30 AM,9:00 PM,9:30 AM,9:00 PM,9:30 AM,9:00 PM,9:00 AM,8:00 PM,10:00 AM,6:00 PM,M6K 1L8,-79.4341,43.6411,,2013-09-16 07:37:38 UTC,2013-09-16 07:37:38 UTC
605 Rogers Road,Toronto,Dollarama,1-416-651-6685,ON,9:30 AM,9:00 PM,9:30 AM,9:00 PM,9:30 AM,9:00 PM,9:30 AM,9:00 PM,9:30 AM,9:00 PM,9:00 AM,8:00 PM,10:00 AM,6:00 PM,M6M 1B9,-79.472,43.6821,,2013-09-16 07:37:38 UTC,2013-09-16 07:37:38 UTC
2561 St Clair Ave W,Toronto,Dollarama,1-416-645-0336,ON,9:00 AM,9:00 PM,9:00 AM,9:00 PM,9:00 AM,9:00 PM,9:00 AM,9:00 PM,9:00 AM,9:00 PM,9:00 AM,8:00 PM,10:00 AM,6:00 PM,M6N 4Z5,-79.485,43.6687,,2013-09-16 07:37:38 UTC,2013-09-16 07:37:38 UTC
2340 Dundas St West,Toronto,Dollarama,1-416-533-3359,ON,9:30 AM,9:00 PM,9:30 AM,9:00 PM,9:30 AM,9:00 PM,9:30 AM,9:00 PM,9:30 AM,9:00 PM,9:30 AM,6:00 PM,10:00 AM,5:00 PM,M6P 4A9,-79.4525,43.6565,,2013-09-16 07:37:38 UTC,2013-09-16 07:37:38 UTC
2013 Lawrence Ave West,Toronto,Dollarama,1-416-246-9839,ON,9:00 AM,9:00 PM,9:00 AM,9:00 PM,9:00 AM,9:00 PM,9:00 AM,9:00 PM,9:00 AM,9:00 PM,9:00 AM,6:00 PM,10:00 AM,6:00 PM,M9N 0A3,-79.5145,43.7005,,2013-09-16 07:37:38 UTC,2013-09-16 07:37:38 UTC
1500 Royal York Road,Toronto,Dollarama,1-416-244-1262,ON,7:00 AM,6:00 PM,10:00 AM,6:00 PM,10:00 AM,6:00 PM,10:00 AM,9:00 PM,10:00 AM,9:00 PM,9:30 AM,5:00 PM,12:00 PM,5:00 PM,M9P 3B6,-79.5311,43.6919,,2013-09-16 07:37:38 UTC,2013-09-16 07:37:38 UTC
260 Dundas St. East,Trenton,Dollarama,1-613-392-5538,ON,9:00 AM,9:00 PM,9:00 AM,9:00 PM,9:00 AM,9:00 PM,9:00 AM,9:00 PM,9:00 AM,9:00 PM,9:00 AM,6:00 PM,10:00 AM,5:00 PM,K8V 1M2,-77.5583,44.1047,,2013-09-16 07:37:38 UTC,2013-09-16 07:37:38 UTC
4 Banff Road,Uxbridge,Dollarama,1-905-862-2598,ON,9:00 AM,9:00 PM,9:00 AM,9:00 PM,9:00 AM,9:00 PM,9:00 AM,9:00 PM,9:00 AM,9:00 PM,9:00 AM,6:00 PM,9:00 AM,5:00 PM,L9P 1S9,-79.1306,44.0941,,2013-09-16 07:37:38 UTC,2013-09-16 07:37:38 UTC
3021 Highway 69 North,Val Caron,Dollarama,1-705-897-0329,ON,9:00 AM,9:00 PM,9:00 AM,9:00 PM,9:00 AM,9:00 PM,9:00 AM,9:00 PM,9:00 AM,9:00 PM,9:00 AM,6:00 PM,10:00 AM,5:00 PM,P3N 1R8,-81.0075,46.6117,,2013-09-16 07:37:38 UTC,2013-09-16 07:37:38 UTC
1054 Centre Street,Vaughan,Dollarama,1-905-695-0289,ON,9:00 AM,9:00 PM,9:00 AM,9:00 PM,9:00 AM,9:00 PM,9:00 AM,9:00 PM,9:00 AM,9:00 PM,9:00 AM,6:00 PM,10:00 AM,6:00 PM,L4J 8E5,-79.4592,43.809,,2013-09-16 07:37:38 UTC,2013-09-16 07:37:38 UTC
3255 Rutherford,Vaughan,Dollarama,1-905-738-1393,ON,9:00 AM,9:00 PM,9:00 AM,9:00 PM,9:00 AM,9:00 PM,9:00 AM,9:00 PM,9:00 AM,9:00 PM,9:00 AM,7:00 PM,10:00 AM,6:00 PM,L4K 5Y5,-79.5411,43.8287,,2013-09-16 07:37:39 UTC,2013-09-16 07:37:39 UTC
7601 Weston Rd,Vaughan,Dollarama,1-289-371-3046,ON,9:00 AM,9:00 PM,9:00 AM,9:00 PM,9:00 AM,9:00 PM,9:00 AM,9:00 PM,9:00 AM,9:00 PM,9:00 AM,7:00 PM,10:00 AM,6:00 PM,L4L 9J9,-79.5467,43.7863,,2013-09-16 07:37:39 UTC,2013-09-16 07:37:39 UTC
1400 Maj. Mackenzie Dr. #B-1,Vaughan,Dollarama,1-905-417-5514,ON,9:00 AM,9:00 PM,9:00 AM,9:00 PM,9:00 AM,9:00 PM,9:00 AM,9:00 PM,9:00 AM,9:00 PM,9:00 AM,7:00 PM,10:00 AM,6:00 PM,L6A 4H6,-79.4864,43.8615,,2013-09-16 07:37:39 UTC,2013-09-16 07:37:39 UTC
65 McNaughton Ave,Wallaceburg,Dollarama,1-519-628-5797,ON,9:00 AM,9:00 PM,9:00 AM,9:00 PM,9:00 AM,9:00 PM,9:00 AM,9:00 PM,9:00 AM,9:00 PM,9:00 AM,6:00 PM,10:00 AM,5:00 PM,N8A 1R7,-82.3827,42.5849,,2013-09-16 07:37:39 UTC,2013-09-16 07:37:39 UTC
1263 Mosley St,Wasaga Beach,Dollarama,1-705-429-4210,ON,8:00 AM,9:00 PM,8:00 AM,9:00 PM,8:00 AM,9:00 PM,8:00 AM,9:00 PM,8:00 AM,9:00 PM,8:00 AM,9:00 PM,8:00 AM,6:00 PM,L9Z 2Y7,-80.0509,44.4903,,2013-09-16 07:37:39 UTC,2013-09-16 07:37:39 UTC
50 Horseshoe Cr. RR2,Waterdown,Dollarama,1-905-690-4839,ON,9:00 AM,9:00 PM,9:00 AM,9:00 PM,9:00 AM,9:00 PM,9:00 AM,9:00 PM,9:00 AM,9:00 PM,9:00 AM,8:00 PM,9:00 AM,6:00 PM,L0R 2H2,-79.9164,43.316,,2013-09-16 07:37:39 UTC,2013-09-16 07:37:39 UTC
462-504 Albert Street,Waterloo,Dollarama,1-519-884-5324,ON,9:00 AM,9:00 PM,9:00 AM,9:00 PM,9:00 AM,9:00 PM,9:00 AM,9:00 PM,9:00 AM,9:00 PM,9:00 AM,9:00 PM,9:00 AM,6:00 PM,N2L 3V4,-80.541,43.486,,2013-09-16 07:37:39 UTC,2013-09-16 07:37:39 UTC
330 Farmer's Market Rd,Waterloo,Dollarama,1-519-746-3474,ON,8:00 AM,9:00 PM,8:00 AM,9:00 PM,8:00 AM,9:00 PM,8:00 AM,9:00 PM,8:00 AM,9:00 PM,8:00 AM,9:00 PM,8:00 AM,6:00 PM,N2V 0A5,-80.5531,43.5098,,2013-09-16 07:37:39 UTC,2013-09-16 07:37:39 UTC
390 Lincoln St. Unit M-9,Welland,Dollarama,1-905-788-2768,ON,9:00 AM,9:00 PM,9:00 AM,9:00 PM,9:00 AM,9:00 PM,9:00 AM,9:00 PM,9:00 AM,9:00 PM,9:00 AM,7:00 PM,9:00 AM,6:00 PM,L3B 4N4,-79.239,42.9841,,2013-09-16 07:37:39 UTC,2013-09-16 07:37:39 UTC
800 Niagara Street North,Welland,Dollarama,1-905-735-9768,ON,9:30 AM,9:00 PM,9:30 AM,9:00 PM,9:30 AM,9:00 PM,9:30 AM,9:00 PM,9:30 AM,9:00 PM,9:00 AM,5:30 PM,11:00 AM,5:00 PM,L3C 5Z4,-79.2475,43.0152,,2013-09-16 07:37:39 UTC,2013-09-16 07:37:39 UTC
5969 Baldwin St S.,Whitby,Dollarama,1-905-655-6848,ON,9:00 AM,9:00 PM,9:00 AM,9:00 PM,9:00 AM,9:00 PM,9:00 AM,9:00 PM,9:00 AM,9:00 PM,9:00 AM,6:00 PM,10:00 AM,6:00 PM,L1M 2J7,-78.9621,43.9524,,2013-09-16 07:37:39 UTC,2013-09-16 07:37:39 UTC
1801 Dundas St. East,Whitby,Dollarama,1-905-434-8082,ON,9:00 AM,9:00 PM,9:00 AM,9:00 PM,9:00 AM,9:00 PM,9:00 AM,9:00 PM,9:00 AM,9:00 PM,9:00 AM,8:00 PM,10:00 AM,7:00 PM,L1N 7C5,-78.9053,43.8882,,2013-09-16 07:37:39 UTC,2013-09-16 07:37:39 UTC
910 Dundas St.West,Whitby,Dollarama,1-905-668-3837,ON,9:00 AM,9:00 PM,9:00 AM,9:00 PM,9:00 AM,9:00 PM,9:00 AM,9:00 PM,9:00 AM,9:00 PM,9:00 AM,8:00 PM,10:00 AM,7:00 PM,L1P 1P7,-78.9618,43.8755,,2013-09-16 07:37:39 UTC,2013-09-16 07:37:39 UTC
3920 Brock St,Whitby,Dollarama,1-905-665-3156,ON,9:00 AM,9:00 PM,9:00 AM,9:00 PM,9:00 AM,9:00 PM,9:00 AM,9:00 PM,9:00 AM,9:00 PM,9:00 AM,9:00 PM,10:00 AM,7:00 PM,L1R 3E1,-78.9571,43.9137,,2013-09-16 07:37:39 UTC,2013-09-16 07:37:39 UTC
8460 Wyandotte St. East,Windsor,Dollarama,1-519-945-4936,ON,9:00 AM,9:00 PM,9:00 AM,9:00 PM,9:00 AM,9:00 PM,9:00 AM,9:00 PM,9:00 AM,9:00 PM,9:00 AM,8:00 PM,9:00 AM,6:00 PM,N8S 1T6,-82.9371,42.3335,,2013-09-16 07:37:39 UTC,2013-09-16 07:37:39 UTC
5415 Tecumseh Rd E,Windsor,Dollarama,1-519-974-2096,ON,9:00 AM,9:00 PM,9:00 AM,9:00 PM,9:00 AM,9:00 PM,9:00 AM,9:00 PM,9:00 AM,9:00 PM,8:00 AM,8:00 PM,9:00 AM,6:00 PM,N8T 1C5,-82.9583,42.3092,,2013-09-16 07:37:39 UTC,2013-09-16 07:37:39 UTC
7650 Tecumseh Rd E,Windsor,Dollarama,1-519-948-4877,ON,9:00 AM,9:00 PM,9:00 AM,9:00 PM,9:00 AM,9:00 PM,9:00 AM,9:00 PM,9:00 AM,9:00 PM,9:00 AM,6:00 PM,11:00 AM,5:00 PM,N8T 1E9,-82.9347,42.3138,,2013-09-16 07:37:39 UTC,2013-09-16 07:37:39 UTC
6711 Tecumseh Road East,Windsor,Dollarama,1-519-948-4495,ON,9:00 AM,9:00 PM,9:00 AM,9:00 PM,9:00 AM,9:00 PM,9:00 AM,9:00 PM,9:00 AM,9:00 PM,9:00 AM,6:00 PM,10:00 AM,5:00 PM,N8T 3K7,-82.9437,42.3119,,2013-09-16 07:37:39 UTC,2013-09-16 07:37:39 UTC
3717 Tecumseh Rd. East,Windsor,Dollarama,1-519-945-0577,ON,9:00 AM,9:00 PM,9:00 AM,9:00 PM,9:00 AM,9:00 PM,9:00 AM,9:00 PM,9:00 AM,9:00 PM,9:00 AM,6:00 PM,10:00 AM,6:00 PM,N8W 1H8,-82.9794,42.3052,,2013-09-16 07:37:39 UTC,2013-09-16 07:37:39 UTC
4115 Walker Rd Unit 20 Bldg 4,Windsor,Dollarama,1-519-972-2947,ON,9:00 AM,9:00 PM,9:00 AM,9:00 PM,9:00 AM,9:00 PM,9:00 AM,9:00 PM,9:00 AM,9:00 PM,9:00 AM,6:00 PM,10:00 AM,6:00 PM,N8W 3T6,-82.9684,42.2616,,2013-09-16 07:37:39 UTC,2013-09-16 07:37:39 UTC
3100 Howard Ave,Windsor,Dollarama,1-519-946-0129,ON,9:00 AM,9:00 PM,9:00 AM,9:00 PM,9:00 AM,9:00 PM,9:00 AM,9:00 PM,9:00 AM,9:00 PM,9:00 AM,6:00 PM,11:00 AM,5:00 PM,N8X 3Y8,-83.0045,42.2729,,2013-09-16 07:37:40 UTC,2013-09-16 07:37:40 UTC
300 Tecumseh Rd E. Unit 344,Windsor,Dollarama,1-519-973-9158,ON,9:00 AM,9:00 PM,9:00 AM,9:00 PM,9:00 AM,9:00 PM,9:00 AM,9:00 PM,9:00 AM,9:00 PM,9:00 AM,9:00 PM,10:00 AM,6:00 PM,N8X 5E8,-83.0195,42.2976,,2013-09-16 07:37:40 UTC,2013-09-16 07:37:40 UTC
1279 University Avenue West,Windsor,Dollarama,1-519-253-9489,ON,9:00 AM,9:00 PM,9:00 AM,9:00 PM,9:00 AM,9:00 PM,9:00 AM,9:00 PM,9:00 AM,9:00 PM,8:00 AM,6:00 PM,9:00 AM,6:00 PM,N9A 5T2,-83.0544,42.3132,,2013-09-16 07:37:40 UTC,2013-09-16 07:37:40 UTC
2700 Tecumseh Road West,Windsor,Dollarama,1-519-985-6780,ON,9:00 AM,9:00 PM,9:00 AM,9:00 PM,9:00 AM,9:00 PM,9:00 AM,9:00 PM,9:00 AM,9:00 PM,9:00 AM,8:00 PM,10:00 AM,6:00 PM,N9B 3P9,-83.0588,42.2905,,2013-09-16 07:37:40 UTC,2013-09-16 07:37:40 UTC
3214 Dougall Ave. Unit B,Windsor,Dollarama,1-519-972-4661,ON,9:00 AM,9:00 PM,9:00 AM,9:00 PM,9:00 AM,9:00 PM,9:00 AM,9:00 PM,9:00 AM,9:00 PM,9:00 AM,8:00 PM,10:00 AM,6:00 PM,N9E 1S6,-83.0109,42.2685,,2013-09-16 07:37:40 UTC,2013-09-16 07:37:40 UTC
1555 Talbot Rd.,Windsor,Dollarama,1-519-967-8210,ON,9:30 AM,9:00 PM,9:30 AM,9:00 PM,9:30 AM,9:00 PM,9:30 AM,9:00 PM,9:30 AM,9:00 PM,9:00 AM,6:00 PM,10:00 AM,5:00 PM,N9H 2N2,-83.0145,42.2422,,2013-09-16 07:37:40 UTC,2013-09-16 07:37:40 UTC
5731 Hwy 7,Woodbridge,Dollarama,1-905-264-0994,ON,9:00 AM,9:00 PM,9:00 AM,9:00 PM,9:00 AM,9:00 PM,9:00 AM,9:00 PM,9:00 AM,9:00 PM,9:00 AM,6:00 PM,10:00 AM,6:00 PM,L4L 4Y9,-79.6123,43.7739,,2013-09-16 07:37:40 UTC,2013-09-16 07:37:40 UTC
415 Norwich Ave,Woodstock,Dollarama,1-519-539-4545,ON,9:00 AM,9:00 PM,9:00 AM,9:00 PM,9:00 AM,9:00 PM,9:00 AM,9:00 PM,9:00 AM,9:00 PM,9:00 AM,9:00 PM,9:00 AM,6:00 PM,N4S 3W4,-80.7387,43.1184,,2013-09-16 07:37:40 UTC,2013-09-16 07:37:40 UTC
449 University Ave,Charlottetown,Dollarama,1-902-628-1142,PE,9:00 AM,9:00 PM,9:00 AM,9:00 PM,9:00 AM,9:00 PM,9:00 AM,9:00 PM,9:00 AM,9:00 PM,9:00 AM,9:00 PM,12:00 PM,5:00 PM,C1A 8K3,-63.1372,46.2496,,2013-09-16 07:37:40 UTC,2013-09-16 07:37:40 UTC
670 University Ave,Charlottetown,Dollarama,1-902-368-8446,PE,9:00 AM,9:00 PM,9:00 AM,9:00 PM,9:00 AM,9:00 PM,9:00 AM,9:00 PM,9:00 AM,9:00 PM,9:00 AM,9:00 PM,12:00 PM,5:00 PM,C1E 1H6,-63.1472,46.2648,,2013-09-16 07:37:40 UTC,2013-09-16 07:37:40 UTC
454 Granville St,Summerside,Dollarama,1-902-432-3480,PE,9:00 AM,9:00 PM,9:00 AM,9:00 PM,9:00 AM,9:00 PM,9:00 AM,9:00 PM,9:00 AM,9:00 PM,9:00 AM,9:00 PM,12:00 PM,5:00 PM,C1N 4K7,-63.7822,46.4117,,2013-09-16 07:37:40 UTC,2013-09-16 07:37:40 UTC
1530 boul. Acton,Acton Vale,Dollarama,1-450-546-4522,QC,9:00 AM,9:00 PM,9:00 AM,9:00 PM,9:00 AM,9:00 PM,9:00 AM,9:00 PM,9:00 AM,9:00 PM,9:00 AM,5:00 PM,9:00 AM,5:00 PM,J0H 1A0,-72.5751,45.6443,,2013-09-16 07:37:40 UTC,2013-09-16 07:37:40 UTC
500 ouest,Alma,Dollarama,1-418-662-4975,QC,9:30 AM,5:30 PM,9:30 AM,5:30 PM,9:30 AM,5:30 PM,9:30 AM,9:00 PM,9:30 AM,9:00 PM,9:00 AM,5:00 PM,11:00 AM,4:00 PM,G8B 1M1,-71.6487,48.5493,,2013-09-16 07:37:40 UTC,2013-09-16 07:37:40 UTC
705 Ave. du Pont nord,Alma,Dollarama,1-418-480-3149,QC,9:30 AM,5:30 PM,9:30 AM,5:30 PM,9:30 AM,9:00 PM,9:30 AM,9:00 PM,9:30 AM,9:00 PM,9:00 AM,5:00 PM,9:00 AM,5:00 PM,G8B 6T5,-71.6423,48.5619,,2013-09-16 07:37:40 UTC,2013-09-16 07:37:40 UTC
82 1e Av Est,Amos,Dollarama,1-819-727-9959,QC,9:00 AM,5:30 PM,9:00 AM,5:30 PM,9:00 AM,5:30 PM,9:00 AM,9:00 PM,9:00 AM,9:00 PM,9:00 AM,5:00 PM,10:00 AM,5:00 PM,J9T 4B2,-78.1134,48.5719,,2013-09-16 07:37:40 UTC,2013-09-16 07:37:40 UTC
114 St-Benoit Ouest,Amqui,Dollarama,1-418-629-4491,QC,9:00 AM,9:00 PM,9:00 AM,9:00 PM,9:00 AM,9:00 PM,9:00 AM,9:00 PM,9:00 AM,9:00 PM,9:00 AM,5:00 PM,9:00 AM,5:00 PM,G5J 2E7,-67.4326,48.4656,,2013-09-16 07:37:40 UTC,2013-09-16 07:37:40 UTC
6560 boul. Joseph Renaud,Anjou,Dollarama,514-352-3150,QC,9:00 AM,6:00 PM,9:00 AM,6:00 PM,9:00 AM,6:00 PM,9:00 AM,9:00 PM,9:00 AM,9:00 PM,9:00 AM,5:00 PM,10:00 AM,5:00 PM,H1K 3V4,-73.5525,45.6052,,2013-09-16 07:37:40 UTC,2013-09-16 07:37:40 UTC
7500 Les Galeries d'Anjou,Anjou,Dollarama,514-353-2823,QC,9:00 AM,6:00 PM,9:00 AM,6:00 PM,9:00 AM,6:00 PM,9:00 AM,9:00 PM,9:00 AM,9:00 PM,9:00 AM,6:00 PM,10:00 AM,6:00 PM,H1M 3M4,-73.5689,45.5991,,2013-09-16 07:37:40 UTC,2013-09-16 07:37:40 UTC
300 boul. Lasalle,Baie-Comeau,Dollarama,1-418-294-4426,QC,9:00 AM,5:30 PM,9:00 AM,5:30 PM,9:00 AM,5:30 PM,9:00 AM,9:00 PM,9:00 AM,9:00 PM,9:00 AM,5:00 PM,12:00 PM,5:00 PM,G4Z 2K2,-68.1893,49.2141,,2013-09-16 07:37:40 UTC,2013-09-16 07:37:40 UTC
2 Chemin de l'Equerre,Baie-St-Paul,Dollarama,1-418-240-3125,QC,9:00 AM,5:30 PM,9:00 AM,5:30 PM,9:00 AM,5:30 PM,9:00 AM,9:00 PM,9:00 AM,9:00 PM,9:00 AM,5:00 PM,11:00 AM,5:00 PM,G3Z 2Y5,-70.5204,47.4493,,2013-09-16 07:37:40 UTC,2013-09-16 07:37:40 UTC
749 rue Clemenceau,Beauport,Dollarama,1-418-661-6722,QC,9:00 AM,9:00 PM,9:00 AM,9:00 PM,9:00 AM,9:00 PM,9:00 AM,9:00 PM,9:00 AM,9:00 PM,9:00 AM,5:00 PM,9:00 AM,5:00 PM,G1C 7T9,-71.202,46.8707,,2013-09-16 07:37:40 UTC,2013-09-16 07:37:40 UTC
600 boul. Sir Wilfrid Laurier,Beloeil,Dollarama,450-446-4702,QC,9:00 AM,6:00 PM,9:00 AM,6:00 PM,9:00 AM,6:00 PM,9:00 AM,9:00 PM,9:00 AM,9:00 PM,9:00 AM,5:00 PM,9:00 AM,5:00 PM,J3G 4J2,-73.2071,45.562,,2013-09-16 07:37:40 UTC,2013-09-16 07:37:40 UTC
830 Ave. Gilles-Villeneuve,Berthierville,Dollarama,1-450-836-1009,QC,9:00 AM,6:00 PM,9:00 AM,6:00 PM,9:00 AM,6:00 PM,9:00 AM,9:00 PM,9:00 AM,9:00 PM,9:00 AM,5:00 PM,10:00 AM,5:00 PM,J0K 1A0,-73.1843,46.0835,,2013-09-16 07:37:41 UTC,2013-09-16 07:37:41 UTC
9 est,Blainville,Dollarama,450-437-6951,QC,9:00 AM,6:00 PM,9:00 AM,6:00 PM,9:00 AM,9:00 PM,9:00 AM,9:00 PM,9:00 AM,9:00 PM,9:00 AM,5:00 PM,10:00 AM,5:00 PM,J7C 4G6,-73.8934,45.6898,,2013-09-16 07:37:41 UTC,2013-09-16 07:37:41 UTC
377 Chemin de la Grande Cote,Boisbriand,Dollarama,450-979-2574,QC,9:00 AM,6:00 PM,9:00 AM,6:00 PM,9:00 AM,6:00 PM,9:00 AM,9:00 PM,9:00 AM,9:00 PM,9:00 AM,5:00 PM,10:00 AM,5:00 PM,J7G 1A9,-73.8341,45.6072,,2013-09-16 07:37:41 UTC,2013-09-16 07:37:41 UTC
2615 rue d'Annemasse,Boisbriand,Dollarama,450-971-4505,QC,9:00 AM,9:00 PM,9:00 AM,9:00 PM,9:00 AM,9:00 PM,9:00 AM,9:00 PM,9:00 AM,9:00 PM,9:00 AM,5:00 PM,9:00 AM,5:00 PM,J7H 0A5,-73.8497,45.6211,,2013-09-16 07:37:41 UTC,2013-09-16 07:37:41 UTC
280 Fort St-Louis,Boucherville,Dollarama,450-655-3717,QC,9:30 AM,5:30 PM,9:30 AM,5:30 PM,9:30 AM,5:30 PM,9:30 AM,8:30 PM,9:30 AM,8:30 PM,9:30 AM,5:00 PM,11:00 AM,4:30 PM,J4B 1S1,-73.4555,45.5949,,2013-09-16 07:37:41 UTC,2013-09-16 07:37:41 UTC
1001 boul de Montarville,Boucherville,Dollarama,450-449-5899,QC,9:30 AM,6:00 PM,9:30 AM,6:00 PM,9:30 AM,6:00 PM,9:30 AM,9:00 PM,9:30 AM,9:00 PM,9:00 AM,5:00 PM,11:30 AM,5:00 PM,J4B 6P5,-73.436,45.5911,,2013-09-16 07:37:41 UTC,2013-09-16 07:37:41 UTC
7250 boul. Tashereau,Brossard,Dollarama,450-672-1840,QC,9:00 AM,6:00 PM,9:00 AM,6:00 PM,9:00 AM,9:00 PM,9:00 AM,9:00 PM,9:00 AM,9:00 PM,9:00 AM,5:00 PM,9:00 AM,5:00 PM,J4W 1M9,-73.4656,45.4621,,2013-09-16 07:37:41 UTC,2013-09-16 07:37:41 UTC
9550 boul Leduc,Brossard,Dollarama,450-656-1728,QC,9:30 AM,6:00 PM,9:30 AM,6:00 PM,9:30 AM,9:00 PM,9:30 AM,9:00 PM,9:30 AM,9:00 PM,9:00 AM,5:00 PM,10:00 AM,5:00 PM,J4Y 0B3,-73.4359,45.4426,,2013-09-16 07:37:41 UTC,2013-09-16 07:37:41 UTC
237 Commerciale,Cabano,Dollarama,1-418-854-1031,QC,9:30 AM,5:30 PM,9:30 AM,5:30 PM,9:30 AM,5:30 PM,9:30 AM,9:00 PM,9:30 AM,9:00 PM,9:00 AM,5:00 PM,11:00 AM,5:00 PM,G0L 1E0,-68.8712,47.6742,,2013-09-16 07:37:41 UTC,2013-09-16 07:37:41 UTC
5 boul. Montcalm,Candiac,Dollarama,450-444-1142,QC,9:30 AM,6:00 PM,9:30 AM,6:00 PM,9:30 AM,6:00 PM,9:30 AM,9:00 PM,9:30 AM,9:00 PM,9:00 AM,5:00 PM,9:00 AM,5:00 PM,J5R 3L5,-73.5131,45.3904,,2013-09-16 07:37:41 UTC,2013-09-16 07:37:41 UTC
500 rue Daigneault,Chandler,Dollarama,1-418-689-7182,QC,9:30 AM,5:30 PM,9:30 AM,5:30 PM,9:30 AM,5:30 PM,9:30 AM,9:00 PM,9:30 AM,9:00 PM,9:00 AM,5:00 PM,11:00 AM,5:00 PM,G0C 1K0,-64.6702,48.3512,,2013-09-16 07:37:41 UTC,2013-09-16 07:37:41 UTC
697 boul. Ste-Genevieve,Chicoutimi,Dollarama,1-418-543-2965,QC,9:00 AM,9:00 PM,9:00 AM,9:00 PM,9:00 AM,9:00 PM,9:00 AM,9:00 PM,9:00 AM,9:00 PM,9:00 AM,5:00 PM,9:00 AM,5:00 PM,G7G 4Z4,-71.0805,48.4448,,2013-09-16 07:37:41 UTC,2013-09-16 07:37:41 UTC
68 est,Chicoutimi,Dollarama,1-418-543-7375,QC,9:30 AM,9:00 PM,9:30 AM,9:00 PM,9:30 AM,9:00 PM,9:30 AM,9:00 PM,9:30 AM,9:00 PM,9:30 AM,5:00 PM,11:00 AM,5:00 PM,G7H 1P6,-71.0664,48.4279,,2013-09-16 07:37:41 UTC,2013-09-16 07:37:41 UTC
1324 boul Talbot,Chicoutimi,Dollarama,1-418-549-6634,QC,8:00 AM,5:30 PM,8:00 AM,5:30 PM,8:00 AM,9:00 PM,8:00 AM,9:00 PM,8:00 AM,9:00 PM,8:00 AM,5:00 PM,8:00 AM,5:00 PM,G7H 4B8,-71.0599,48.4031,,2013-09-16 07:37:41 UTC,2013-09-16 07:37:41 UTC
392 rue des Saguen??ens,Chicoutimi,Dollarama,1-418-543-4092,QC,9:00 AM,9:00 PM,9:00 AM,9:00 PM,9:00 AM,9:00 PM,9:00 AM,9:00 PM,9:00 AM,9:00 PM,9:00 AM,5:00 PM,9:00 AM,5:00 PM,G7H 5S5,-71.0597,48.4027,,2013-09-16 07:37:41 UTC,2013-09-16 07:37:41 UTC
6900 Boul. Decarie,Cote Saint-Luc,Dollarama,514-904-0031,QC,9:00 AM,6:00 PM,9:00 AM,6:00 PM,9:00 AM,6:00 PM,9:00 AM,9:00 PM,9:00 AM,9:00 PM,9:30 AM,5:00 PM,9:30 AM,5:00 PM,H3X 2T8,-73.6486,45.4919,,2013-09-16 07:37:41 UTC,2013-09-16 07:37:41 UTC
200 boul. d'Anjou,Coteauguay,Dollarama,450-698-1867,QC,9:30 AM,6:00 PM,9:30 AM,6:00 PM,9:30 AM,6:00 PM,9:30 AM,9:00 PM,9:30 AM,9:00 PM,9:00 AM,5:00 PM,9:00 AM,5:00 PM,J6K 1C5,-73.7263,45.3597,,2013-09-16 07:37:42 UTC,2013-09-16 07:37:42 UTC
7017 Chemin Cote St-Luc,Cote-St-Luc,Dollarama,514-487-9656,QC,9:00 AM,6:00 PM,9:00 AM,6:00 PM,9:00 AM,6:00 PM,9:00 AM,9:00 PM,9:00 AM,9:00 PM,9:00 AM,5:00 PM,9:00 AM,5:00 PM,H4V 1J2,-73.6535,45.4659,,2013-09-16 07:37:42 UTC,2013-09-16 07:37:42 UTC
5800 boul. Cavendish,Cote-St-Luc,Dollarama,514-482-0350,QC,9:00 AM,6:00 PM,9:00 AM,6:00 PM,9:00 AM,6:00 PM,9:00 AM,9:00 PM,9:00 AM,9:00 PM,9:00 AM,5:00 PM,9:00 AM,5:00 PM,H4W 2T5,-73.6638,45.4769,,2013-09-16 07:37:42 UTC,2013-09-16 07:37:42 UTC
175 rue Principale,Cowansville,Dollarama,1-450-263-7310,QC,9:00 AM,5:30 PM,9:00 AM,5:30 PM,9:00 AM,5:30 PM,9:00 AM,9:00 PM,9:00 AM,9:00 PM,9:00 AM,5:00 PM,9:00 AM,5:00 PM,J2K 3L9,-72.7457,45.208,,2013-09-16 07:37:42 UTC,2013-09-16 07:37:42 UTC
70 Route 132,Delson,Dollarama,450-635-5543,QC,9:00 AM,9:00 PM,9:00 AM,9:00 PM,9:00 AM,9:00 PM,9:00 AM,9:00 PM,9:00 AM,9:00 PM,9:00 AM,5:00 PM,9:00 AM,5:00 PM,J5B 0A1,-73.5422,45.3844,,2013-09-16 07:37:42 UTC,2013-09-16 07:37:42 UTC
1271 boul Wallberg,Dolbeau-Mistassini,Dollarama,1-418-276-9400,QC,9:30 AM,5:30 PM,9:30 AM,5:30 PM,9:30 AM,5:30 PM,9:30 AM,9:00 PM,9:30 AM,9:00 PM,9:00 AM,5:00 PM,9:00 AM,5:00 PM,G8L 1H3,-72.228,48.8779,,2013-09-16 07:37:42 UTC,2013-09-16 07:37:42 UTC
3237 boul. des Sources,Dollard-des-Ormeaux,Dollarama,514-683-7711,QC,9:00 AM,6:00 PM,9:00 AM,6:00 PM,9:00 AM,6:00 PM,9:30 AM,9:00 PM,9:00 AM,9:00 PM,9:00 AM,5:00 PM,10:00 AM,5:00 PM,H9B 1Z6,-73.7958,45.4831,,2013-09-16 07:37:42 UTC,2013-09-16 07:37:42 UTC
11780 boul de Salaberry,Dollard-des-Ormeaux,Dollarama,514-684-0978,QC,9:00 AM,6:00 PM,9:00 AM,6:00 PM,9:00 AM,6:00 PM,9:00 AM,9:00 PM,9:00 AM,9:00 PM,9:00 AM,6:00 PM,9:00 AM,6:00 PM,H9B 2R8,-73.8053,45.4844,,2013-09-16 07:37:42 UTC,2013-09-16 07:37:42 UTC
325 rue de l'Eglise,Donnacona,Dollarama,1-418-285-0015,QC,9:00 AM,5:30 PM,9:00 AM,5:30 PM,9:00 AM,5:30 PM,9:00 AM,9:00 PM,9:00 AM,9:00 PM,9:00 AM,5:00 PM,10:00 AM,5:00 PM,G3M 2A2,-71.7297,46.6806,,2013-09-16 07:37:42 UTC,2013-09-16 07:37:42 UTC
352 Ave Dorval,Dorval,Dollarama,514-556-3032,QC,9:00 AM,6:00 PM,9:00 AM,6:00 PM,9:00 AM,6:00 PM,9:00 AM,9:00 PM,9:00 AM,9:00 PM,9:00 AM,5:00 PM,10:00 AM,7:00 PM,H9S 3H8,-73.741,45.4444,,2013-09-16 07:37:42 UTC,2013-09-16 07:37:42 UTC
1940 Boul. Saint-Joseph,Drummondville,Dollarama,1-819-475-1397,QC,9:00 AM,9:00 PM,9:00 AM,9:00 PM,9:00 AM,9:00 PM,9:00 AM,9:00 PM,9:00 AM,9:00 PM,9:00 AM,5:00 PM,9:00 AM,5:00 PM,J2B 1R2,-72.4868,45.8774,,2013-09-16 07:37:42 UTC,2013-09-16 07:37:42 UTC
755 boul Rene-Levesque,Drummondville,Dollarama,1-819-850-1807,QC,9:00 AM,5:30 PM,9:00 AM,5:30 PM,9:00 AM,5:30 PM,9:00 AM,9:00 PM,9:00 AM,9:00 PM,9:00 AM,5:00 PM,9:00 AM,5:00 PM,J2C 6Y7,-72.5148,45.8999,,2013-09-16 07:37:42 UTC,2013-09-16 07:37:42 UTC
440 rue Meigs,Farnham,Dollarama,1-450-293-7205,QC,9:00 AM,9:00 PM,9:00 AM,9:00 PM,9:00 AM,9:00 PM,9:00 AM,9:00 PM,9:00 AM,9:00 PM,9:00 AM,5:00 PM,9:00 AM,5:00 PM,J2N 2C8,-72.9792,45.2829,,2013-09-16 07:37:42 UTC,2013-09-16 07:37:42 UTC
167 Rue de la Reine,Gaspe,Dollarama,1-418-368-5811,QC,9:00 AM,5:30 PM,9:00 AM,5:30 PM,9:00 AM,5:30 PM,9:00 AM,9:00 PM,9:00 AM,9:00 PM,9:00 AM,5:00 PM,12:00 PM,5:00 PM,G4X 2W6,-64.4852,48.8287,,2013-09-16 07:37:42 UTC,2013-09-16 07:37:42 UTC
999 rue Dollard,Gatineau,Dollarama,1-819-281-2730,QC,9:00 AM,6:00 PM,9:00 AM,6:00 PM,9:00 AM,9:00 PM,9:00 AM,9:00 PM,9:00 AM,9:00 PM,9:00 AM,5:00 PM,10:00 AM,5:00 PM,J8L 3E6,-75.7142,45.4288,,2013-09-16 07:37:42 UTC,2013-09-16 07:37:42 UTC
1500 Boulevard Greber,Gatineau,Dollarama,1-819-243-7979,QC,9:00 AM,9:00 PM,9:00 AM,9:00 PM,9:00 AM,9:00 PM,9:00 AM,9:00 PM,9:00 AM,9:00 PM,9:00 AM,5:00 PM,10:00 AM,5:00 PM,J8R 0E1,-75.6789,45.5033,,2013-09-16 07:37:42 UTC,2013-09-16 07:37:42 UTC
41 boul De la Gappe,Gatineau,Dollarama,1-819-246-3395,QC,9:00 AM,9:00 PM,9:00 AM,9:00 PM,9:00 AM,9:00 PM,9:00 AM,9:00 PM,9:00 AM,9:00 PM,9:00 AM,5:00 PM,9:00 AM,5:00 PM,J8T 0B5,-75.719,45.4646,,2013-09-16 07:37:42 UTC,2013-09-16 07:37:42 UTC
1100 ouest,Gatineau,Dollarama,1-819-568-4123,QC,9:30 AM,5:30 PM,9:30 AM,5:30 PM,9:30 AM,9:00 PM,9:30 AM,9:00 PM,9:30 AM,9:00 PM,9:00 AM,5:00 PM,12:00 PM,5:00 PM,J8T 6G3,-75.7059,45.4665,,2013-09-16 07:37:42 UTC,2013-09-16 07:37:42 UTC
425 boul St-Joseph,Gatineau,Dollarama,1-819-595-2269,QC,9:00 AM,6:00 PM,9:00 AM,6:00 PM,9:00 AM,9:00 PM,9:00 AM,9:00 PM,9:00 AM,9:00 PM,9:00 AM,5:00 PM,10:00 AM,5:00 PM,J8Y 3Z8,-75.7327,45.4443,,2013-09-16 07:37:42 UTC,2013-09-16 07:37:42 UTC
375 Chemin d'Aylmer,Gatineau,Dollarama,1-819-682-3621,QC,9:00 AM,9:00 PM,9:00 AM,9:00 PM,9:00 AM,9:00 PM,9:00 AM,9:00 PM,9:00 AM,9:00 PM,9:00 AM,5:00 PM,10:00 AM,5:00 PM,J9H 1A5,-75.7856,45.4076,,2013-09-16 07:37:42 UTC,2013-09-16 07:37:42 UTC
360 St-Jacques,Granby,Dollarama,1-450-777-7566,QC,9:00 AM,9:00 PM,9:00 AM,9:00 PM,9:00 AM,9:00 PM,9:00 AM,9:00 PM,9:00 AM,9:00 PM,9:00 AM,5:00 PM,9:00 AM,5:00 PM,J2G 3N4,-72.735,45.3992,,2013-09-16 07:37:43 UTC,2013-09-16 07:37:43 UTC
40 rue Evangeline,Granby,Dollarama,1-450-372-9444,QC,9:00 AM,5:30 PM,9:00 AM,5:30 PM,9:00 AM,5:30 PM,9:00 AM,9:00 PM,9:00 AM,9:00 PM,9:00 AM,5:00 PM,9:00 AM,5:00 PM,J2G 8K1,-72.7488,45.4122,,2013-09-16 07:37:43 UTC,2013-09-16 07:37:43 UTC
2650 6e Ave.,Grand-Mere,Dollarama,1-819-538-7028,QC,9:00 AM,9:00 PM,9:00 AM,9:00 PM,9:00 AM,9:00 PM,9:00 AM,9:00 PM,9:00 AM,9:00 PM,9:00 AM,5:00 PM,9:00 AM,5:00 PM,G9T 2L4,-72.7101,46.6018,,2013-09-16 07:37:43 UTC,2013-09-16 07:37:43 UTC
3374 boul. Taschereau,Greenfield Park,Dollarama,450-466-3672,QC,9:00 AM,9:00 PM,9:00 AM,9:00 PM,9:00 AM,9:00 PM,9:00 AM,9:00 PM,9:00 AM,9:00 PM,9:00 AM,5:00 PM,9:00 AM,5:00 PM,J4V 2H7,-73.4792,45.4932,,2013-09-16 07:37:43 UTC,2013-09-16 07:37:43 UTC
4990 boul Taschereau,Greenfield Park,Dollarama,450-465-2199,QC,9:00 AM,6:00 PM,9:00 AM,6:00 PM,9:00 AM,9:00 PM,9:00 AM,9:00 PM,9:00 AM,9:00 PM,9:00 AM,5:00 PM,9:00 AM,5:00 PM,J4V 3M3,-73.4652,45.4799,,2013-09-16 07:37:43 UTC,2013-09-16 07:37:43 UTC
44 Place Bourget,Joliette,Dollarama,1-450-759-9588,QC,9:00 AM,9:00 PM,9:00 AM,9:00 PM,9:00 AM,9:00 PM,9:00 AM,9:00 PM,9:00 AM,9:00 PM,9:00 AM,5:00 PM,10:00 AM,5:00 PM,J6E 5E7,-73.4407,46.0252,,2013-09-16 07:37:43 UTC,2013-09-16 07:37:43 UTC
1075 boul. Firestone,Joliette,Dollarama,1-450-759-9185,QC,9:00 AM,6:00 PM,9:00 AM,6:00 PM,9:00 AM,6:00 PM,9:00 AM,9:00 PM,9:00 AM,9:00 PM,9:00 AM,5:00 PM,10:00 AM,5:00 PM,J6E 6X6,-73.4279,46.0339,,2013-09-16 07:37:43 UTC,2013-09-16 07:37:43 UTC
2655 boul du Royaume,Jonquiere,Dollarama,1-418-548-2960,QC,9:30 AM,5:30 PM,9:30 AM,5:30 PM,9:30 AM,5:30 PM,9:30 AM,9:00 PM,9:30 AM,9:00 PM,9:30 AM,5:00 PM,12:00 PM,4:00 PM,G7S 4S9,-71.1696,48.4052,,2013-09-16 07:37:43 UTC,2013-09-16 07:37:43 UTC
3460 boul St-Fran??ois,Jonquiere,Dollarama,1-418-695-6945,QC,9:30 AM,5:30 PM,9:30 AM,5:30 PM,9:30 AM,5:30 PM,9:30 AM,9:00 PM,9:30 AM,9:00 PM,9:30 AM,5:00 PM,12:00 PM,4:00 PM,G7X 8L3,-71.2279,48.4131,,2013-09-16 07:37:43 UTC,2013-09-16 07:37:43 UTC
3880 boul. Harvey est,Jonquiere,Dollarama,1-418-547-8617,QC,9:00 AM,5:30 PM,9:00 AM,5:30 PM,9:00 AM,5:30 PM,9:00 AM,9:00 PM,9:00 AM,9:00 PM,9:00 AM,5:00 PM,9:00 AM,5:00 PM,G7X 8R6,-71.2534,48.4136,,2013-09-16 07:37:43 UTC,2013-09-16 07:37:43 UTC
2989 boul. St-Charles,Kirkland,Dollarama,514-428-5895,QC,9:00 AM,9:00 PM,9:00 AM,9:00 PM,9:00 AM,9:00 PM,9:00 AM,9:00 PM,9:00 AM,9:00 PM,9:00 AM,5:00 PM,10:00 AM,5:00 PM,H9H 3B5,-73.8549,45.4488,,2013-09-16 07:37:43 UTC,2013-09-16 07:37:43 UTC
2100 rue Bagot,La Baie,Dollarama,1-418-544-8026,QC,9:00 AM,5:30 PM,9:00 AM,5:30 PM,9:00 AM,9:00 PM,9:00 AM,9:00 PM,9:00 AM,9:00 PM,9:00 AM,5:00 PM,9:00 AM,5:00 PM,G7B 3Z3,-70.8937,48.3358,,2013-09-16 07:37:43 UTC,2013-09-16 07:37:43 UTC
375 boul. de Comporte,La Malbaie,Dollarama,1-418-665-2320,QC,9:00 AM,9:00 PM,9:00 AM,9:00 PM,9:00 AM,9:00 PM,9:00 AM,9:00 PM,9:00 AM,9:00 PM,9:00 AM,5:00 PM,9:00 AM,5:00 PM,G5A 1H9,-70.1494,47.6465,,2013-09-16 07:37:43 UTC,2013-09-16 07:37:43 UTC
5333 boul. Laurier,La Plaine,Dollarama,450-477-3434,QC,9:00 AM,9:00 PM,9:00 AM,9:00 PM,9:00 AM,9:00 PM,9:00 AM,9:00 PM,9:00 AM,9:00 PM,9:00 AM,5:00 PM,9:00 AM,5:00 PM,J7M 1W1,-73.7087,45.7533,,2013-09-16 07:37:43 UTC,2013-09-16 07:37:43 UTC
161 Route 230 Ouest,La Pocatiere,Dollarama,1-418-856-2835,QC,9:30 AM,5:30 PM,9:30 AM,5:30 PM,9:30 AM,5:30 PM,9:30 AM,9:00 PM,9:30 AM,9:00 PM,9:00 AM,5:00 PM,11:00 AM,5:00 PM,G0R 1Z0,-70.0337,47.3649,,2013-09-16 07:37:43 UTC,2013-09-16 07:37:43 UTC
77 2e rue Est,La Sarre,Dollarama,1-819-333-3659,QC,9:30 AM,5:30 PM,9:30 AM,5:30 PM,9:30 AM,5:30 PM,9:30 AM,9:00 PM,9:30 AM,9:00 PM,9:00 AM,5:00 PM,10:00 AM,5:00 PM,J9Z 3G8,-79.2001,48.8144,,2013-09-16 07:37:43 UTC,2013-09-16 07:37:43 UTC
1200 boul Ducharme,La Tuque,Dollarama,1-819-676-8084,QC,9:00 AM,5:30 PM,9:00 AM,5:30 PM,9:00 AM,5:30 PM,9:00 AM,9:00 PM,9:00 AM,9:00 PM,9:00 AM,5:00 PM,9:00 AM,5:00 PM,G9X 3Z9,-72.7851,47.422,,2013-09-16 07:37:43 UTC,2013-09-16 07:37:43 UTC
2962 Ch. Remembrance,Lachine,Dollarama,514-634-5505,QC,9:00 AM,6:00 PM,9:00 AM,6:00 PM,9:00 AM,6:00 PM,9:00 AM,9:00 PM,9:00 AM,9:00 PM,9:00 AM,5:00 PM,10:00 AM,5:00 PM,H8S 1X8,-73.6904,45.4376,,2013-09-16 07:37:43 UTC,2013-09-16 07:37:43 UTC
5154 rue Frontenac,Lac-Megantic,Dollarama,1-819-583-1142,QC,9:00 AM,9:00 PM,9:00 AM,9:00 PM,9:00 AM,9:00 PM,9:00 AM,9:00 PM,9:00 AM,9:00 PM,9:00 AM,5:00 PM,9:00 AM,5:00 PM,G6B 1H3,-70.8839,45.5767,,2013-09-16 07:37:43 UTC,2013-09-16 07:37:43 UTC
505 Bethany,LaCote,Dollarama,450-562-4030,QC,9:00 AM,9:00 PM,9:00 AM,9:00 PM,9:00 AM,9:00 PM,9:00 AM,9:00 PM,9:00 AM,9:00 PM,9:00 AM,5:00 PM,10:00 AM,5:00 PM,J8H 4A6,-74.327,45.6373,,2013-09-16 07:37:43 UTC,2013-09-16 07:37:43 UTC
2101 rue Dollard,Lasalle,Dollarama,514-366-4076,QC,9:00 AM,6:00 PM,9:00 AM,6:00 PM,9:00 AM,6:00 PM,9:00 AM,9:00 PM,9:00 AM,9:00 PM,9:00 AM,5:00 PM,10:00 AM,5:00 PM,H8N 1S2,-73.6352,45.431,,2013-09-16 07:37:44 UTC,2013-09-16 07:37:44 UTC
7077 boul. Newman,LaSalle,Dollarama,514-365-2935,QC,9:00 AM,6:00 PM,9:00 AM,6:00 PM,9:00 AM,9:00 PM,9:00 AM,9:00 PM,9:00 AM,9:00 PM,9:00 AM,5:00 PM,10:00 AM,5:00 PM,H8N 1X2,-73.6128,45.4471,,2013-09-16 07:37:44 UTC,2013-09-16 07:37:44 UTC
7852 boul. Champlain,Lasalle,Dollarama,514-365-8800,QC,9:00 AM,6:00 PM,9:00 AM,6:00 PM,9:00 AM,6:00 PM,9:00 AM,9:00 PM,9:00 AM,9:00 PM,9:00 AM,5:00 PM,10:00 AM,5:00 PM,H8P 1B3,-73.6097,45.4284,,2013-09-16 07:37:44 UTC,2013-09-16 07:37:44 UTC
170 Boul.Laurier Est,Laurier Station,Dollarama,1-418-728-9036,QC,9:00 AM,5:30 PM,9:00 AM,5:30 PM,9:00 AM,5:30 PM,9:00 AM,9:00 PM,9:00 AM,9:00 PM,9:00 AM,5:00 PM,9:00 AM,5:00 PM,G0S 1N0,-71.6288,46.5426,,2013-09-16 07:37:44 UTC,2013-09-16 07:37:44 UTC
600 Mont??e du Moulin,Laval,Dollarama,450-665-1475,QC,9:00 AM,6:00 PM,9:00 AM,6:00 PM,9:00 AM,6:00 PM,9:00 AM,9:00 PM,9:00 AM,9:00 PM,9:00 AM,5:00 PM,10:00 AM,5:00 PM,H7A 1Z6,-73.5758,45.67,,2013-09-16 07:37:44 UTC,2013-09-16 07:37:44 UTC
5845 boul. Robert Bourassa,Laval,Dollarama,450-661-4038,QC,9:00 AM,9:00 PM,9:00 AM,9:00 PM,9:00 AM,9:00 PM,9:00 AM,9:00 PM,9:00 AM,9:00 PM,8:00 AM,5:00 PM,9:00 AM,5:00 PM,H7E 0A4,-73.6967,45.6131,,2013-09-16 07:37:44 UTC,2013-09-16 07:37:44 UTC
3100 boul. de la Concorde,Laval,Dollarama,450-664-0989,QC,9:00 AM,6:00 PM,9:00 AM,6:00 PM,9:00 AM,6:00 PM,9:00 AM,9:00 PM,9:30 AM,9:00 PM,9:00 AM,5:00 PM,12:00 PM,5:00 PM,H7E 2B8,-73.6664,45.5932,,2013-09-16 07:37:44 UTC,2013-09-16 07:37:44 UTC
1710 boul. des Laurentides,Laval,Dollarama,450-967-7304,QC,9:00 AM,6:00 PM,9:00 AM,6:00 PM,9:00 AM,9:00 PM,9:00 AM,9:00 PM,9:00 AM,9:00 PM,9:00 AM,5:00 PM,10:00 AM,5:00 PM,H7M 2Y4,-73.7224,45.5973,,2013-09-16 07:37:44 UTC,2013-09-16 07:37:44 UTC
2077 boul. des Laurentides,Laval,Dollarama,450-967-7929,QC,9:00 AM,6:00 PM,9:00 AM,6:00 PM,9:00 AM,9:00 PM,9:00 AM,9:00 PM,9:00 AM,9:00 PM,9:00 AM,5:00 PM,10:00 AM,5:00 PM,H7M 4M2,-73.7331,45.6074,,2013-09-16 07:37:44 UTC,2013-09-16 07:37:44 UTC
640 boul Le Corbusier,Laval,Dollarama,450-688-7990,QC,9:00 AM,6:00 PM,9:00 AM,6:00 PM,9:00 AM,6:00 PM,9:00 AM,9:00 PM,9:00 AM,9:00 PM,9:00 AM,5:00 PM,10:00 AM,5:00 PM,H7N 0A9,-73.7345,45.5669,,2013-09-16 07:37:44 UTC,2013-09-16 07:37:44 UTC
301 boul. Cartier,Laval,Dollarama,450-663-1748,QC,9:00 AM,6:00 PM,9:00 AM,6:00 PM,9:00 AM,6:00 PM,9:00 AM,9:00 PM,9:00 AM,9:00 PM,9:30 AM,5:00 PM,10:00 AM,5:00 PM,H7N 2J1,-73.6985,45.557,,2013-09-16 07:37:44 UTC,2013-09-16 07:37:44 UTC
444 boul Cure Labelle,Laval,Dollarama,450-625-6242,QC,9:00 AM,9:00 PM,9:00 AM,9:00 PM,9:00 AM,9:00 PM,9:00 AM,9:00 PM,9:00 AM,9:00 PM,9:00 AM,5:00 PM,9:00 AM,5:00 PM,H7P 4W7,-73.7881,45.5785,,2013-09-16 07:37:44 UTC,2013-09-16 07:37:44 UTC
1600 Le Corbusier,Laval,Dollarama,450-682-6565,QC,9:00 AM,6:00 PM,9:00 AM,6:00 PM,9:00 AM,9:00 PM,9:00 AM,9:00 PM,9:00 AM,9:00 PM,9:00 AM,5:00 PM,10:00 AM,5:00 PM,H7S 1Y9,-73.7308,45.5635,,2013-09-16 07:37:45 UTC,2013-09-16 07:37:45 UTC
2595 boul. Daniel-Johnson,Laval,Dollarama,450-978-5376,QC,9:00 AM,9:00 PM,9:00 AM,9:00 PM,9:00 AM,9:00 PM,9:00 AM,9:00 PM,9:00 AM,9:00 PM,9:00 AM,5:00 PM,9:00 AM,5:00 PM,H7T 1S8,-73.7585,45.5703,,2013-09-16 07:37:45 UTC,2013-09-16 07:37:45 UTC
965 boul. Cure Labelle,Laval,Dollarama,450-686-4759,QC,9:00 AM,6:00 PM,9:00 AM,6:00 PM,9:00 AM,6:00 PM,9:00 AM,9:00 PM,9:00 AM,9:00 PM,9:00 AM,5:00 PM,10:00 AM,5:00 PM,H7V 2V7,-73.7485,45.5411,,2013-09-16 07:37:45 UTC,2013-09-16 07:37:45 UTC
908 Autoroute Chomedey,Laval,Dollarama,450-689-4772,QC,9:00 AM,9:00 PM,9:00 AM,9:00 PM,9:00 AM,9:00 PM,9:00 AM,9:00 PM,9:00 AM,9:00 PM,9:00 AM,5:00 PM,9:00 AM,5:00 PM,H7X 3S9,-73.7921,45.5383,,2013-09-16 07:37:45 UTC,2013-09-16 07:37:45 UTC
89 Chemin de Lavaltrie,Lavaltrie,Dollarama,1-450-586-6890,QC,8:00 AM,9:00 PM,8:00 AM,9:00 PM,8:00 AM,9:00 PM,8:00 AM,9:00 PM,8:00 AM,9:00 PM,9:00 AM,5:00 PM,9:00 AM,5:00 PM,J5T 2H5,-73.2955,45.8934,,2013-09-16 07:37:45 UTC,2013-09-16 07:37:45 UTC
141 rue Caron,Levis,Dollarama,1-418-835-5589,QC,9:00 AM,9:00 PM,9:00 AM,9:00 PM,9:00 AM,9:00 PM,9:00 AM,9:00 PM,9:00 AM,9:00 PM,9:00 AM,5:00 PM,9:00 AM,5:00 PM,G6V 3G5,-71.1453,46.8176,,2013-09-16 07:37:45 UTC,2013-09-16 07:37:45 UTC
1200 boul. Alphonse Desjardins,Levis,Dollarama,1-418-833-5782,QC,9:30 AM,5:30 PM,9:30 AM,5:30 PM,9:30 AM,5:30 PM,9:30 AM,9:00 PM,9:30 AM,9:00 PM,9:00 AM,5:00 PM,9:00 AM,5:00 PM,G6V 6Y8,-71.171,46.7985,,2013-09-16 07:37:45 UTC,2013-09-16 07:37:45 UTC
1401 Chemin Chambly,Longueuil,Dollarama,450-646-2355,QC,9:00 AM,6:00 PM,9:00 AM,6:00 PM,9:00 AM,9:00 PM,9:00 AM,9:00 PM,9:00 AM,9:00 PM,9:00 AM,5:00 PM,10:00 AM,5:00 PM,J4J 3X6,-73.4858,45.5312,,2013-09-16 07:37:45 UTC,2013-09-16 07:37:45 UTC
825 rue St-Laurent Ouest,Longueuil,Dollarama,450-646-3775,QC,9:00 AM,6:00 PM,9:00 AM,6:00 PM,9:00 AM,9:00 PM,9:00 AM,9:00 PM,9:00 AM,9:00 PM,8:00 AM,5:00 PM,9:00 AM,5:00 PM,J4K 2V1,-73.5131,45.5289,,2013-09-16 07:37:45 UTC,2013-09-16 07:37:45 UTC
2877 Chemin Chambly,Longueuil,Dollarama,450-646-7684,QC,9:00 AM,6:00 PM,9:00 AM,6:00 PM,9:00 AM,6:00 PM,9:00 AM,9:00 PM,9:00 AM,9:00 PM,9:00 AM,5:00 PM,9:00 AM,5:00 PM,J4L 1M8,-73.4614,45.521,,2013-09-16 07:37:45 UTC,2013-09-16 07:37:45 UTC
550 boul. St-Laurent Est,Louiseville,Dollarama,1-819-228-8932,QC,9:00 AM,5:30 PM,9:00 AM,5:30 PM,9:00 AM,5:30 PM,9:00 AM,9:00 PM,9:00 AM,9:00 PM,9:00 AM,5:00 PM,9:00 AM,5:00 PM,J5V 2R5,-72.9263,46.2571,,2013-09-16 07:37:45 UTC,2013-09-16 07:37:45 UTC
1700 rue Sherbrooke,Magog,Dollarama,1-819-847-2043,QC,9:00 AM,5:30 PM,9:00 AM,5:30 PM,9:00 AM,5:30 PM,9:00 AM,9:00 PM,9:00 AM,9:00 PM,9:00 AM,5:00 PM,9:00 AM,5:00 PM,J1X 5B4,-72.1323,45.2759,,2013-09-16 07:37:45 UTC,2013-09-16 07:37:45 UTC
117 boul Desjardins,Maniwaki,Dollarama,1-819-449-6374,QC,9:00 AM,6:00 PM,9:00 AM,6:00 PM,9:00 AM,6:00 PM,9:00 AM,9:00 PM,9:00 AM,9:00 PM,9:00 AM,5:00 PM,10:00 AM,5:00 PM,J9E 2C9,-75.9833,46.3825,,2013-09-16 07:37:45 UTC,2013-09-16 07:37:45 UTC
1100 Montee Masson,Mascouche,Dollarama,450-474-5930,QC,9:00 AM,6:00 PM,9:00 AM,6:00 PM,9:00 AM,6:00 PM,9:00 AM,9:00 PM,9:00 AM,9:00 PM,9:00 AM,5:00 PM,10:00 AM,5:00 PM,J7K 2L8,-73.6071,45.7478,,2013-09-16 07:37:45 UTC,2013-09-16 07:37:45 UTC
163 Mont??e Masson,Mascouche,Dollarama,450-474-8722,QC,9:00 AM,9:00 PM,9:00 AM,9:00 PM,9:00 AM,9:00 PM,9:00 AM,9:00 PM,9:00 AM,9:00 PM,9:00 AM,5:00 PM,9:00 AM,5:00 PM,J7K 3B4,-73.6197,45.7236,,2013-09-16 07:37:45 UTC,2013-09-16 07:37:45 UTC
597 du Phare est,Matane,Dollarama,1-418-562-7026,QC,9:30 AM,5:30 PM,9:30 AM,5:30 PM,9:30 AM,5:30 PM,9:30 AM,9:00 PM,9:30 AM,9:00 PM,9:00 AM,5:00 PM,12:00 PM,5:00 PM,G4W 4L6,-67.5087,48.8523,,2013-09-16 07:37:45 UTC,2013-09-16 07:37:45 UTC
13312 Boul du Cure-Labelle,Mirabel,Dollarama,450-434-7171,QC,9:00 AM,6:00 PM,9:00 AM,6:00 PM,9:00 AM,6:00 PM,9:00 AM,9:00 PM,9:00 AM,9:00 PM,9:00 AM,5:00 PM,9:00 AM,5:00 PM,J7J 1G9,-73.9183,45.6981,,2013-09-16 07:37:45 UTC,2013-09-16 07:37:45 UTC
1760 boul. Gaboury,Mont-Joli,Dollarama,1-418-775-9571,QC,9:30 AM,5:30 PM,9:30 AM,5:30 PM,9:30 AM,5:30 PM,9:30 AM,9:00 PM,9:30 AM,9:00 PM,9:00 AM,5:00 PM,12:00 PM,5:00 PM,G5H 3J2,-68.1865,48.5808,,2013-09-16 07:37:45 UTC,2013-09-16 07:37:45 UTC
939 boul Albiny-Paquette,Mont-Laurier,Dollarama,1-819-623-7001,QC,9:00 AM,5:30 PM,9:00 AM,5:30 PM,9:00 AM,5:30 PM,9:00 AM,9:00 PM,9:00 AM,9:00 PM,9:00 AM,5:00 PM,10:00 AM,5:00 PM,J9L 3J1,-75.4869,46.5511,,2013-09-16 07:37:45 UTC,2013-09-16 07:37:45 UTC
101 ouest,Montmagny,Dollarama,1-418-248-2902,QC,9:30 AM,5:30 PM,9:30 AM,5:30 PM,9:30 AM,5:30 PM,9:30 AM,9:00 PM,9:30 AM,9:00 PM,9:00 AM,5:00 PM,11:00 AM,5:00 PM,G5V 3T8,-70.5698,46.9795,,2013-09-16 07:37:45 UTC,2013-09-16 07:37:45 UTC
12675 rue Sherbrooke est,Montreal,Dollarama,514-498-4776,QC,9:00 AM,6:00 PM,9:00 AM,6:00 PM,9:00 AM,6:00 PM,9:00 AM,9:00 PM,9:00 AM,9:00 PM,9:00 AM,5:00 PM,10:00 AM,5:00 PM,H1A 3W7,-73.5125,45.6548,,2013-09-16 07:37:45 UTC,2013-09-16 07:37:45 UTC
7747 Maurice-Duplessis,Montreal,Dollarama,514-643-4980,QC,9:00 AM,6:00 PM,9:00 AM,6:00 PM,9:00 AM,6:00 PM,9:00 AM,9:00 PM,9:00 AM,9:00 PM,9:00 AM,5:00 PM,9:00 AM,5:00 PM,H1E 1M5,-73.5934,45.6286,,2013-09-16 07:37:45 UTC,2013-09-16 07:37:45 UTC
9077 boul. Maurice-Duplessis,Montreal,Dollarama,514-494-0847,QC,9:00 AM,6:00 PM,9:00 AM,6:00 PM,9:00 AM,9:00 PM,9:00 AM,9:00 PM,9:00 AM,9:00 PM,9:00 AM,5:00 PM,9:00 AM,5:00 PM,H1E 6M3,-73.5712,45.6455,,2013-09-16 07:37:45 UTC,2013-09-16 07:37:45 UTC
7275 rue Sherbrooke Est,Montreal,Dollarama,514-354-4370,QC,9:00 AM,9:00 PM,9:00 AM,9:00 PM,9:00 AM,9:00 PM,9:00 AM,9:00 PM,9:00 AM,9:00 PM,9:00 AM,5:00 PM,10:00 AM,5:00 PM,H1N 1E9,-73.5394,45.5906,,2013-09-16 07:37:45 UTC,2013-09-16 07:37:45 UTC
3235 Ave de Granby,Montreal,Dollarama,514-257-9657,QC,9:00 AM,6:00 PM,9:00 AM,6:00 PM,9:00 AM,6:00 PM,9:00 AM,9:00 PM,9:00 AM,9:00 PM,9:00 AM,5:00 PM,10:00 AM,5:00 PM,H1N 2Z7,-73.5429,45.5809,,2013-09-16 07:37:46 UTC,2013-09-16 07:37:46 UTC
4254-A est,Montreal,Dollarama,514-728-0869,QC,9:00 AM,6:00 PM,9:00 AM,6:00 PM,9:00 AM,6:00 PM,9:00 AM,9:00 PM,9:00 AM,9:00 PM,9:00 AM,5:00 PM,10:00 AM,5:00 PM,H1S 1J7,-73.5791,45.5866,,2013-09-16 07:37:46 UTC,2013-09-16 07:37:46 UTC
7373 boul Langelier,Montreal,Dollarama,514-255-1988,QC,9:00 AM,6:00 PM,9:00 AM,6:00 PM,9:00 AM,6:00 PM,9:00 AM,9:00 PM,9:00 AM,9:00 PM,9:00 AM,5:00 PM,10:00 AM,5:00 PM,H1S 1V7,-73.5716,45.5914,,2013-09-16 07:37:46 UTC,2013-09-16 07:37:46 UTC
3510 est,Montreal,Dollarama,514-529-8933,QC,9:00 AM,6:00 PM,9:00 AM,6:00 PM,9:00 AM,9:00 PM,9:00 AM,9:00 PM,9:00 AM,9:00 PM,9:00 AM,5:00 PM,10:00 AM,5:00 PM,H1W 1R2,-73.5391,45.5424,,2013-09-16 07:37:46 UTC,2013-09-16 07:37:46 UTC
3912 rue Ontario Est,Montreal,Dollarama,514-527-2075,QC,9:00 AM,6:00 PM,9:00 AM,6:00 PM,9:00 AM,9:00 PM,9:00 AM,9:00 PM,9:00 AM,9:00 PM,9:00 AM,5:00 PM,10:00 AM,5:00 PM,H1W 1S6,-73.5434,45.5488,,2013-09-16 07:37:46 UTC,2013-09-16 07:37:46 UTC
2635 rue Bolanger,Montreal,Dollarama,514-727-9700,QC,9:00 AM,6:00 PM,9:00 AM,6:00 PM,9:00 AM,9:00 PM,9:00 AM,9:00 PM,9:00 AM,9:00 PM,9:00 AM,5:00 PM,10:00 AM,5:00 PM,H1Y 1A5,-73.5969,45.554,,2013-09-16 07:37:46 UTC,2013-09-16 07:37:46 UTC
2650 boul Rosemont,Montreal,Dollarama,514-664-5852,QC,9:00 AM,6:00 PM,9:00 AM,6:00 PM,9:00 AM,6:00 PM,9:00 AM,9:00 PM,9:00 AM,9:00 PM,9:00 AM,5:00 PM,11:00 AM,5:00 PM,H1Y 1L2,-73.5845,45.5486,,2013-09-16 07:37:46 UTC,2013-09-16 07:37:46 UTC
2836 rue Masson,Montreal,Dollarama,514-524-4232,QC,9:00 AM,6:00 PM,9:00 AM,6:00 PM,9:00 AM,6:00 PM,9:00 AM,9:00 PM,9:00 AM,9:00 PM,9:00 AM,5:00 PM,10:00 AM,5:00 PM,H1Y 1W7,-73.5753,45.5475,,2013-09-16 07:37:46 UTC,2013-09-16 07:37:46 UTC
8962 Boul. Saint- Michel,Montreal,Dollarama,514-387-7141,QC,9:00 AM,7:00 PM,9:00 AM,7:00 PM,9:00 AM,7:00 PM,9:00 AM,9:00 PM,9:00 AM,9:00 PM,9:00 AM,7:00 PM,10:00 AM,5:00 PM,H1Z 3G4,-73.6262,45.571,,2013-09-16 07:37:46 UTC,2013-09-16 07:37:46 UTC
1780 Rue Fleury est,Montreal,Dollarama,514-904-0411,QC,9:00 AM,6:00 PM,9:00 AM,6:00 PM,9:00 AM,6:00 PM,9:00 AM,9:00 PM,9:00 AM,9:00 PM,9:00 AM,5:00 PM,9:00 AM,5:00 PM,H2C 1T4,-73.6536,45.5674,,2013-09-16 07:37:46 UTC,2013-09-16 07:37:46 UTC
1665 Ave. Mont-Royal,Montreal,Dollarama,514-598-7519,QC,9:00 AM,9:00 PM,9:00 AM,9:00 PM,9:00 AM,9:00 PM,9:00 AM,9:00 PM,9:00 AM,9:00 PM,9:00 AM,5:00 PM,10:00 AM,5:00 PM,H2J 1Z6,-73.575,45.5325,,2013-09-16 07:37:46 UTC,2013-09-16 07:37:46 UTC
911 rue Ste-Catherine Est,Montreal,Dollarama,514-849-2786,QC,9:00 AM,9:00 PM,9:00 AM,9:00 PM,9:00 AM,9:00 PM,9:00 AM,9:00 PM,9:00 AM,9:00 PM,9:00 AM,8:00 PM,10:00 AM,8:00 PM,H2L 2E5,-73.558,45.5167,,2013-09-16 07:37:46 UTC,2013-09-16 07:37:46 UTC
8114 rue St-Denis,Montreal,Dollarama,514-383-0241,QC,9:00 AM,9:00 PM,9:00 AM,9:00 PM,9:00 AM,9:00 PM,9:00 AM,9:00 PM,9:00 AM,9:00 PM,9:00 AM,5:00 PM,9:00 AM,5:00 PM,H2P 2G6,-73.6294,45.5427,,2013-09-16 07:37:46 UTC,2013-09-16 07:37:46 UTC
7017 Rue Saint-Hubert,Montreal,Dollarama,514-277-0343,QC,9:00 AM,9:00 PM,9:00 AM,9:00 PM,9:00 AM,9:00 PM,9:00 AM,9:00 PM,9:00 AM,9:00 PM,9:00 AM,5:00 PM,9:00 AM,5:00 PM,H2S 2N1,-73.6111,45.5397,,2013-09-16 07:37:46 UTC,2013-09-16 07:37:46 UTC
5642 Ave. du Parc,Montreal,Dollarama,514-273-8054,QC,9:00 AM,6:00 PM,9:00 AM,6:00 PM,9:00 AM,6:00 PM,9:30 AM,9:00 PM,9:00 AM,9:00 PM,9:30 AM,5:00 PM,10:00 AM,5:00 PM,H2V 4H1,-73.6039,45.5228,,2013-09-16 07:37:46 UTC,2013-09-16 07:37:46 UTC
3817 boul. St-Laurent,Montreal,Dollarama,514-845-4159,QC,9:00 AM,6:00 PM,9:00 AM,6:00 PM,9:00 AM,6:00 PM,9:30 AM,9:00 PM,9:00 AM,9:00 PM,9:30 AM,5:00 PM,10:00 AM,5:00 PM,H2W 1X9,-73.5762,45.5155,,2013-09-16 07:37:46 UTC,2013-09-16 07:37:46 UTC
3575 Ave. du Parc,Montreal,Dollarama,514-843-6265,QC,9:00 AM,6:00 PM,9:00 AM,6:00 PM,9:00 AM,6:00 PM,9:30 AM,9:00 PM,9:00 AM,9:00 PM,9:00 AM,5:00 PM,10:00 AM,5:00 PM,H2X 3P9,-73.5751,45.5103,,2013-09-16 07:37:46 UTC,2013-09-16 07:37:46 UTC
1500 McGill College,Montreal,Dollarama,514-287-7490,QC,9:00 AM,6:00 PM,9:00 AM,6:00 PM,9:00 AM,9:00 PM,9:00 AM,9:00 PM,9:00 AM,9:00 PM,10:00 AM,6:00 PM,10:00 AM,5:00 PM,H3A 3J5,-73.5715,45.5017,,2013-09-16 07:37:46 UTC,2013-09-16 07:37:46 UTC
625 Ste-Catherine O,Montreal,Dollarama,514-906-0445,QC,9:00 AM,6:00 PM,9:00 AM,6:00 PM,9:00 AM,6:00 PM,9:00 AM,9:00 PM,9:00 AM,9:00 PM,9:00 AM,5:00 PM,10:00 AM,5:00 PM,H3B 1B7,-73.5695,45.5038,,2013-09-16 07:37:46 UTC,2013-09-16 07:37:46 UTC
1616 Ste-Catherine O,Montreal,Dollarama,514-904-2814,QC,9:00 AM,7:00 PM,9:00 AM,7:00 PM,9:00 AM,9:00 PM,9:00 AM,9:00 PM,9:00 AM,9:00 PM,9:00 AM,6:00 PM,10:00 AM,7:00 PM,H3H 1L7,-73.5789,45.4942,,2013-09-16 07:37:46 UTC,2013-09-16 07:37:46 UTC
1934 ouest Ste-Catherine,Montreal,Dollarama,514-935-2646,QC,9:00 AM,7:00 PM,9:00 AM,7:00 PM,9:00 AM,9:00 PM,9:00 AM,9:00 PM,9:00 AM,9:00 PM,9:00 AM,6:00 PM,10:00 AM,7:00 PM,H3H 1M4,-73.5809,45.4924,,2013-09-16 07:37:47 UTC,2013-09-16 07:37:47 UTC
2798 de Salaberry,Montreal,Dollarama,514-331-4372,QC,9:00 AM,6:00 PM,9:00 AM,6:00 PM,9:00 AM,9:00 PM,9:00 AM,9:00 PM,9:00 AM,9:00 PM,9:00 AM,5:00 PM,9:00 AM,5:00 PM,H3M 1L3,-73.7014,45.5365,,2013-09-16 07:37:47 UTC,2013-09-16 07:37:47 UTC
2715 Ave. Van Horne,Montreal,Dollarama,514-733-1022,QC,9:00 AM,6:00 PM,9:00 AM,6:00 PM,9:00 AM,9:00 PM,9:00 AM,9:00 PM,9:00 AM,9:00 PM,9:00 AM,5:00 PM,9:00 AM,5:00 PM,H3S 1P6,-73.625,45.5085,,2013-09-16 07:37:47 UTC,2013-09-16 07:37:47 UTC
5858 Ch. de la Cote-des-Neiges,Montreal,Dollarama,514-904-0721,QC,9:00 AM,5:00 PM,9:00 AM,5:00 PM,9:00 AM,9:00 PM,9:00 AM,9:00 PM,9:00 AM,9:00 PM,9:00 AM,5:00 PM,9:00 AM,5:00 PM,H3S 1Z1,-73.63,45.4999,,2013-09-16 07:37:47 UTC,2013-09-16 07:37:47 UTC
6700 rue Cote des Neiges,Montreal,Dollarama,514-344-0991,QC,9:00 AM,9:00 PM,9:00 AM,9:00 PM,9:00 AM,9:00 PM,9:00 AM,9:00 PM,9:00 AM,9:00 PM,9:00 AM,5:00 PM,9:00 AM,5:00 PM,H3S 2B2,-73.6371,45.503,,2013-09-16 07:37:47 UTC,2013-09-16 07:37:47 UTC
1500 Ave Atwater,Montreal,Dollarama,514-906-0761,QC,9:00 AM,9:00 PM,9:00 AM,9:00 PM,9:00 AM,9:00 PM,9:00 AM,9:00 PM,9:00 AM,9:00 PM,9:00 AM,5:00 PM,9:00 AM,5:00 PM,H3Z 1X5,-73.585,45.4892,,2013-09-16 07:37:47 UTC,2013-09-16 07:37:47 UTC
5716-34 rue Sherbrooke O,Montreal,Dollarama,514-904-1447,QC,9:00 AM,6:00 PM,9:00 AM,6:00 PM,9:00 AM,9:00 PM,9:00 AM,9:00 PM,9:00 AM,9:00 PM,9:00 AM,5:00 PM,10:00 AM,5:00 PM,H4A 1W8,-73.6157,45.4704,,2013-09-16 07:37:47 UTC,2013-09-16 07:37:47 UTC
3795 Notre-Dame Ouest,Montreal,Dollarama,514-932-2512,QC,9:00 AM,6:00 PM,9:00 AM,6:00 PM,9:00 AM,6:00 PM,9:00 AM,9:00 PM,9:00 AM,9:00 PM,9:00 AM,5:00 PM,10:00 AM,5:00 PM,H4C 1P8,-73.5829,45.4787,,2013-09-16 07:37:47 UTC,2013-09-16 07:37:47 UTC
1035 rue du Marche Central,Montreal,Dollarama,514-387-3910,QC,9:00 AM,9:00 PM,9:00 AM,9:00 PM,9:00 AM,9:00 PM,9:00 AM,9:00 PM,9:00 AM,9:00 PM,9:00 AM,5:00 PM,9:00 AM,5:00 PM,H4N 1J8,-73.6556,45.5342,,2013-09-16 07:37:47 UTC,2013-09-16 07:37:47 UTC
6495 Somerled Ave,Montreal,Dollarama,514-487-6145,QC,9:00 AM,6:00 PM,9:00 AM,6:00 PM,9:00 AM,6:00 PM,9:00 AM,9:00 PM,9:00 AM,9:00 PM,9:00 AM,5:00 PM,9:00 AM,5:00 PM,H4V 1S6,-73.6382,45.4679,,2013-09-16 07:37:47 UTC,2013-09-16 07:37:47 UTC
Niveau Place,Montreal,Dollarama,514-289-8593,QC,9:00 AM,6:00 PM,9:00 AM,6:00 PM,9:00 AM,6:00 PM,9:00 AM,9:00 PM,9:00 AM,9:00 PM,9:00 AM,5:00 PM,10:00 AM,5:00 PM,H5B 1B8,-73.5662,45.5009,,2013-09-16 07:37:48 UTC,2013-09-16 07:37:48 UTC
5610 boul. Henri-Bourassa est,Montreal-Nord,Dollarama,514-323-7511,QC,9:00 AM,9:00 PM,9:00 AM,9:00 PM,9:00 AM,9:00 PM,9:00 AM,9:00 PM,9:00 AM,9:00 PM,9:00 AM,5:00 PM,9:00 AM,5:00 PM,H1G 2T2,-73.6213,45.6062,,2013-09-16 07:37:48 UTC,2013-09-16 07:37:48 UTC
6134 boul. Henri-Bourassa est,Montreal-Nord,Dollarama,514-322-4468,QC,9:00 AM,9:00 PM,9:00 AM,9:00 PM,9:00 AM,9:00 PM,9:00 AM,9:00 PM,9:00 AM,9:00 PM,9:00 AM,5:00 PM,9:00 AM,5:00 PM,H1G 5X3,-73.616,45.608,,2013-09-16 07:37:48 UTC,2013-09-16 07:37:48 UTC
6425 boul. Leger,Montreal-Nord,Dollarama,514-322-0528,QC,9:00 AM,6:00 PM,9:00 AM,6:00 PM,9:00 AM,6:00 PM,9:00 AM,9:00 PM,9:00 AM,9:00 PM,9:00 AM,5:00 PM,9:00 AM,5:00 PM,H1G 6G7,-73.6226,45.6231,,2013-09-16 07:37:48 UTC,2013-09-16 07:37:48 UTC
10539 boul Pie IX,Montreal-Nord,Dollarama,514-904-1443,QC,9:00 AM,6:00 PM,9:00 AM,6:00 PM,9:00 AM,6:00 PM,9:00 AM,9:00 PM,9:00 AM,9:00 PM,9:00 AM,5:00 PM,9:00 AM,5:00 PM,H1H 4A3,-73.6329,45.5884,,2013-09-16 07:37:48 UTC,2013-09-16 07:37:48 UTC
955 rue de St-Jovite,Mont-Tremblant,Dollarama,1-819-425-2431,QC,9:00 AM,6:00 PM,9:00 AM,6:00 PM,9:00 AM,6:00 PM,9:00 AM,9:00 PM,9:00 AM,9:00 PM,9:00 AM,5:00 PM,10:00 AM,5:00 PM,J8E 3J8,-74.5947,46.1185,,2013-09-16 07:37:48 UTC,2013-09-16 07:37:48 UTC
4605 Boulevard de l'Auvergne,NeufCotel,Dollarama,1-418-843-8300,QC,9:00 AM,9:00 PM,9:00 AM,9:00 PM,9:00 AM,9:00 PM,9:00 AM,9:00 PM,9:00 AM,9:00 PM,9:00 AM,5:00 PM,9:00 AM,5:00 PM,G2C 1H7,-71.3565,46.8248,,2013-09-16 07:37:48 UTC,2013-09-16 07:37:48 UTC
122 boul. Perron Ouest,New Richmond,Dollarama,1-418-392-6410,QC,9:30 AM,5:30 PM,9:30 AM,5:30 PM,9:30 AM,5:30 PM,9:30 AM,9:00 PM,9:30 AM,9:00 PM,9:00 AM,5:00 PM,12:00 PM,5:00 PM,G0C 2B0,-65.858,48.1613,,2013-09-16 07:37:48 UTC,2013-09-16 07:37:48 UTC
113A Gerard D. Levesque Ouest,Paspebiac,Dollarama,1-418-752-3151,QC,9:00 AM,9:00 PM,9:00 AM,9:00 PM,9:00 AM,9:00 PM,9:00 AM,9:00 PM,9:00 AM,9:00 PM,9:00 AM,5:00 PM,9:00 AM,5:00 PM,G0C 2K0,-65.2774,48.0236,,2013-09-16 07:37:48 UTC,2013-09-16 07:37:48 UTC
11829 boul de Pierrefonds,Pierrefonds,Dollarama,514-683-1772,QC,9:00 AM,9:00 PM,9:00 AM,9:00 PM,9:00 AM,9:00 PM,9:00 AM,9:00 PM,9:00 AM,9:00 PM,9:00 AM,5:00 PM,10:00 AM,5:00 PM,H9A 1A1,-73.8228,45.5055,,2013-09-16 07:37:48 UTC,2013-09-16 07:37:48 UTC
4870 boul St-Charles,Pierrefonds,Dollarama,514-620-4054,QC,9:00 AM,6:00 PM,9:00 AM,6:00 PM,9:00 AM,9:00 PM,9:00 AM,9:00 PM,9:00 AM,9:00 PM,9:00 AM,5:00 PM,10:00 AM,5:00 PM,H9H 3E2,-73.8737,45.4661,,2013-09-16 07:37:48 UTC,2013-09-16 07:37:48 UTC
14840 boul Pierrefonds,Pierrefonds,Dollarama,514-696-3484,QC,9:00 AM,9:00 PM,9:00 AM,9:00 PM,9:00 AM,9:00 PM,9:00 AM,9:00 PM,9:00 AM,9:00 PM,9:00 AM,5:00 PM,9:00 AM,5:00 PM,H9H 4Y6,-73.8597,45.4839,,2013-09-16 07:37:48 UTC,2013-09-16 07:37:48 UTC
101 boul. Cardinal-Leger,Pincourt,Dollarama,514-453-6607,QC,9:30 AM,6:00 PM,9:30 AM,6:00 PM,9:30 AM,6:00 PM,9:30 AM,9:00 PM,9:30 AM,9:00 PM,9:00 AM,5:00 PM,9:00 AM,5:00 PM,J7V 3Y3,-73.9952,45.3845,,2013-09-16 07:37:48 UTC,2013-09-16 07:37:48 UTC
1803 St. Calixte,Plessisville,Dollarama,1-819-362-6496,QC,9:00 AM,9:00 PM,9:00 AM,9:00 PM,9:00 AM,9:00 PM,9:00 AM,9:00 PM,9:00 AM,9:00 PM,9:00 AM,5:00 PM,9:00 AM,5:00 PM,G6L 1R4,-71.7707,46.22,,2013-09-16 07:37:48 UTC,2013-09-16 07:37:48 UTC
187-B boul Hymus,Pointe-Claire,Dollarama,514-459-0167,QC,9:00 AM,6:00 PM,9:00 AM,6:00 PM,9:00 AM,9:00 PM,9:00 AM,9:00 PM,9:00 AM,9:00 PM,9:00 AM,5:00 PM,9:00 AM,5:00 PM,H9R 1E9,-73.8179,45.4612,,2013-09-16 07:37:48 UTC,2013-09-16 07:37:48 UTC
8 boul. des Iles,Port-Cartier,Dollarama,1-418-766-8461,QC,9:30 AM,5:30 PM,9:30 AM,5:30 PM,9:30 AM,5:30 PM,9:30 AM,9:00 PM,9:30 AM,9:00 PM,9:00 AM,5:00 PM,12:00 PM,5:00 PM,G5B 2J4,-66.8779,50.021,,2013-09-16 07:37:48 UTC,2013-09-16 07:37:48 UTC
3333 rue du Carrefour,Quebec,Dollarama,1-418-667-8690,QC,9:00 AM,5:30 PM,9:00 AM,5:30 PM,9:00 AM,9:00 PM,9:00 AM,9:00 PM,9:00 AM,9:00 PM,9:00 AM,5:00 PM,10:00 AM,5:00 PM,G1C 5R9,-71.2151,46.8602,,2013-09-16 07:37:48 UTC,2013-09-16 07:37:48 UTC
8500 Henri-Bourassa,Quebec,Dollarama,1-418-622-5925,QC,9:30 AM,5:30 PM,9:30 AM,5:30 PM,9:30 AM,5:30 PM,9:30 AM,9:00 PM,9:30 AM,9:00 PM,9:00 AM,5:00 PM,10:00 AM,5:00 PM,G1G 5X1,-71.2703,46.8652,,2013-09-16 07:37:48 UTC,2013-09-16 07:37:48 UTC
4250 1e Ave.,Quebec,Dollarama,1-418-628-9052,QC,9:00 AM,5:30 PM,9:00 AM,5:30 PM,9:00 AM,9:00 PM,9:00 AM,9:00 PM,9:00 AM,9:00 PM,9:00 AM,5:00 PM,10:00 AM,5:00 PM,G1H 2S5,-71.248,46.844,,2013-09-16 07:37:48 UTC,2013-09-16 07:37:48 UTC
2485 boul St-Anne,Quebec,Dollarama,1-418-666-4348,QC,9:00 AM,5:00 PM,9:00 AM,5:00 PM,9:00 AM,9:00 PM,9:00 AM,9:00 PM,9:00 AM,9:00 PM,9:00 AM,5:00 PM,10:00 AM,5:00 PM,G1J 1Y4,-71.2158,46.8437,,2013-09-16 07:37:48 UTC,2013-09-16 07:37:48 UTC
550 boul Wilfrid-Hamel,Quebec,Dollarama,1-418-529-9600,QC,9:30 AM,5:30 PM,9:30 AM,5:30 PM,9:30 AM,5:30 PM,9:30 AM,9:00 PM,9:30 AM,9:00 PM,9:00 AM,5:00 PM,9:00 AM,5:00 PM,G1M 2S6,-71.2488,46.8203,,2013-09-16 07:37:48 UTC,2013-09-16 07:37:48 UTC
245 rue Soumande,Quebec,Dollarama,1-418-263-0170,QC,8:00 AM,9:00 PM,8:00 AM,9:00 PM,8:00 AM,9:00 PM,8:00 AM,9:00 PM,8:00 AM,9:00 PM,8:00 AM,5:00 PM,8:00 AM,5:00 PM,G1M 3H6,-71.2541,46.8203,,2013-09-16 07:37:48 UTC,2013-09-16 07:37:48 UTC
1275 Boul. Charest Ouest,Quebec,Dollarama,1-418-266-2166,QC,9:00 AM,9:00 PM,9:00 AM,9:00 PM,9:00 AM,9:00 PM,9:00 AM,9:00 PM,9:00 AM,9:00 PM,9:00 AM,5:00 PM,9:00 AM,5:00 PM,G1N 2C9,-71.2562,46.7993,,2013-09-16 07:37:48 UTC,2013-09-16 07:37:48 UTC
5150 boul. l'Ormi??re,Quebec,Dollarama,1-418-872-0351,QC,9:30 AM,5:30 PM,9:30 AM,5:30 PM,9:30 AM,5:30 PM,9:30 AM,9:00 PM,9:30 AM,9:00 PM,9:00 AM,6:00 PM,9:00 AM,5:00 PM,G1P 4B2,-71.3316,46.8187,,2013-09-16 07:37:49 UTC,2013-09-16 07:37:49 UTC
2700 boul. Laurier,Quebec,Dollarama,1-418-659-5976,QC,8:00 AM,5:30 PM,8:00 AM,5:30 PM,8:00 AM,9:00 PM,8:00 AM,9:00 PM,8:00 AM,9:00 PM,8:00 AM,5:00 PM,8:00 AM,5:00 PM,G1V 2L8,-71.2838,46.7697,,2013-09-16 07:37:49 UTC,2013-09-16 07:37:49 UTC
999 Ave. de Bourgogne,Quebec,Dollarama,1-418-263-0155,QC,9:00 AM,5:30 PM,9:00 AM,5:30 PM,9:00 AM,5:30 PM,9:00 AM,9:00 PM,9:00 AM,9:00 PM,9:00 AM,5:00 PM,10:00 AM,5:00 PM,G1W 4S6,-71.3115,46.7652,,2013-09-16 07:37:49 UTC,2013-09-16 07:37:49 UTC
2222 boul. Bastien,Quebec,Dollarama,1-418-843-9522,QC,9:00 AM,9:00 PM,9:00 AM,9:00 PM,9:00 AM,9:00 PM,9:00 AM,9:00 PM,9:00 AM,9:00 PM,9:00 AM,5:00 PM,9:00 AM,5:00 PM,G2B 1B6,-71.3372,46.8584,,2013-09-16 07:37:49 UTC,2013-09-16 07:37:49 UTC
9550 boul. L'Ormiere,Quebec,Dollarama,1-418-845-2966,QC,9:30 AM,5:30 PM,9:30 AM,5:30 PM,9:30 AM,5:30 PM,9:30 AM,9:00 PM,9:30 AM,9:00 PM,9:00 AM,5:00 PM,12:00 PM,5:00 PM,G2B 3Z6,-71.3603,46.8392,,2013-09-16 07:37:49 UTC,2013-09-16 07:37:49 UTC
1270 boul Duplessis,Quebec,Dollarama,1-418-263-1116,QC,9:00 AM,9:00 PM,9:00 AM,9:00 PM,9:00 AM,9:00 PM,9:00 AM,9:00 PM,9:00 AM,9:00 PM,9:00 AM,5:00 PM,9:00 AM,5:00 PM,G2G 2B5,-71.3534,46.7863,,2013-09-16 07:37:49 UTC,2013-09-16 07:37:49 UTC
5401 boul des Galeries,Quebec,Dollarama,1-418-628-5579,QC,9:00 AM,5:30 PM,9:00 AM,5:30 PM,9:00 AM,5:30 PM,9:00 AM,9:00 PM,9:00 AM,9:00 PM,9:00 AM,5:00 PM,9:00 AM,5:00 PM,G2K 1N4,-71.2987,46.8311,,2013-09-16 07:37:49 UTC,2013-09-16 07:37:49 UTC
3593 rue Queen,Rawdon,Dollarama,450-834-3862,QC,9:00 AM,6:00 PM,9:00 AM,6:00 PM,9:00 AM,6:00 PM,9:00 AM,9:00 PM,9:00 AM,9:00 PM,9:00 AM,5:00 PM,9:00 AM,5:00 PM,J0K 1S0,-73.7055,46.0413,,2013-09-16 07:37:49 UTC,2013-09-16 07:37:49 UTC
1124 boul Iberville,Repentigny,Dollarama,450-657-4793,QC,9:00 AM,6:00 PM,9:00 AM,6:00 PM,9:00 AM,9:00 PM,9:00 AM,9:00 PM,9:00 AM,9:00 PM,9:00 AM,5:00 PM,10:00 AM,5:00 PM,J5Y 3M6,-73.4179,45.7776,,2013-09-16 07:37:49 UTC,2013-09-16 07:37:49 UTC
100 boul. Brien,Repentigny,Dollarama,450-581-0067,QC,9:00 AM,6:00 PM,9:00 AM,6:00 PM,9:00 AM,9:00 PM,9:00 AM,9:00 PM,9:00 AM,9:00 PM,9:00 AM,5:00 PM,10:00 AM,5:00 PM,J6A 5N4,-73.455,45.7445,,2013-09-16 07:37:49 UTC,2013-09-16 07:37:49 UTC
458 Ch. de la Grande-Ligne,Rigaud,Dollarama,450-451-1249,QC,9:00 AM,9:00 PM,9:00 AM,9:00 PM,9:00 AM,9:00 PM,9:00 AM,9:00 PM,9:00 AM,9:00 PM,9:00 AM,5:00 PM,9:00 AM,5:00 PM,J0P 1P0,-74.2766,45.48,,2013-09-16 07:37:49 UTC,2013-09-16 07:37:49 UTC
396 boul. Jessop,Rimouski,Dollarama,1-418-721-6440,QC,8:00 AM,9:00 PM,8:00 AM,9:00 PM,8:00 AM,9:00 PM,8:00 AM,9:00 PM,8:00 AM,9:00 PM,8:00 AM,5:00 PM,8:00 AM,5:00 PM,G5L 1N1,-68.5165,48.4657,,2013-09-16 07:37:49 UTC,2013-09-16 07:37:49 UTC
419 boul. Jessop,Rimouski,Dollarama,1-418-721-2324,QC,9:30 AM,5:30 PM,9:30 AM,5:30 PM,9:30 AM,5:30 PM,9:30 AM,9:00 PM,9:30 AM,9:00 PM,9:00 AM,5:00 PM,12:00 PM,5:00 PM,G5L 7Y5,-68.5157,48.468,,2013-09-16 07:37:49 UTC,2013-09-16 07:37:49 UTC
383 Montee Ind et Commerciale,Rimouski,Dollarama,1-418-724-4194,QC,8:00 AM,9:00 PM,8:00 AM,9:00 PM,8:00 AM,9:00 PM,8:00 AM,9:00 PM,8:00 AM,9:00 PM,8:00 AM,5:00 PM,8:00 AM,5:00 PM,G5M 1Y1,-68.4907,48.4485,,2013-09-16 07:37:49 UTC,2013-09-16 07:37:49 UTC
298 boul. Theriault,Riviere-du-Loup,Dollarama,1-418-868-0207,QC,9:30 AM,5:30 PM,9:30 AM,5:30 PM,9:30 AM,9:00 PM,9:30 AM,9:00 PM,9:30 AM,9:00 PM,9:00 AM,5:00 PM,12:00 PM,5:00 PM,G5R 4C2,-69.5483,47.8242,,2013-09-16 07:37:50 UTC,2013-09-16 07:37:50 UTC
1221 boulevard MarCote,Roberval,Dollarama,1-418-275-7793,QC,9:30 AM,5:30 PM,9:30 AM,5:30 PM,9:30 AM,5:30 PM,9:30 AM,9:00 PM,9:30 AM,9:00 PM,9:00 AM,5:00 PM,10:00 AM,4:00 PM,G8H 3B8,-72.2339,48.5244,,2013-09-16 07:37:50 UTC,2013-09-16 07:37:50 UTC
201 Boul Cur??Labelle,Rosemere,Dollarama,450-433-9283,QC,9:00 AM,6:00 PM,9:00 AM,6:00 PM,9:00 AM,6:00 PM,9:00 AM,9:00 PM,9:00 AM,9:00 PM,9:00 AM,5:00 PM,10:00 AM,5:00 PM,J7A 2H3,-73.8086,45.6279,,2013-09-16 07:37:50 UTC,2013-09-16 07:37:50 UTC
4 15e rue,Rouyn-Noranda,Dollarama,1-819-762-6473,QC,9:30 AM,5:30 PM,9:30 AM,5:30 PM,9:30 AM,9:00 PM,9:30 AM,9:00 PM,9:30 AM,9:00 PM,9:00 AM,5:00 PM,10:00 AM,5:00 PM,J9X 2J8,-79.0323,48.2413,,2013-09-16 07:37:50 UTC,2013-09-16 07:37:50 UTC
3200 Boul.Laframboise,Saint-Hyacinthe,Dollarama,450-773-8273,QC,9:30 AM,6:00 PM,9:30 AM,6:00 PM,9:30 AM,6:00 PM,9:30 AM,9:00 PM,9:30 AM,9:00 PM,9:00 AM,5:00 PM,10:00 AM,5:00 PM,J2S 4Z5,-72.9677,45.6369,,2013-09-16 07:37:50 UTC,2013-09-16 07:37:50 UTC
600 Route 116,Saint-Nicolas,Dollarama,1-418-831-5346,QC,9:00 AM,9:00 PM,9:00 AM,9:00 PM,9:00 AM,9:00 PM,9:00 AM,9:00 PM,9:00 AM,9:00 PM,9:00 AM,5:00 PM,9:00 AM,5:00 PM,G7A 4X8,-71.2915,46.7124,,2013-09-16 07:37:50 UTC,2013-09-16 07:37:50 UTC
76 Rue Dufferin,Salaberry-de -Valleyfield,Dollarama,450-377-3036,QC,9:00 AM,9:00 PM,9:00 AM,9:00 PM,9:00 AM,9:00 PM,9:00 AM,9:00 PM,9:00 AM,9:00 PM,9:00 AM,5:00 PM,9:00 AM,5:00 PM,J6S 1Y2,-74.1287,45.2627,,2013-09-16 07:37:50 UTC,2013-09-16 07:37:50 UTC
2116 boul Monseigneur-Langlois,Salaberry-de-Valleyfield,Dollarama,1-450-377-8824,QC,9:00 AM,9:00 PM,9:00 AM,9:00 PM,9:00 AM,9:00 PM,9:00 AM,9:00 PM,9:00 AM,9:00 PM,9:00 AM,5:00 PM,9:00 AM,5:00 PM,J6S 5R1,-74.1176,45.2718,,2013-09-16 07:37:50 UTC,2013-09-16 07:37:50 UTC
1005 boul. Laure,Sept-Iles,Dollarama,1-418-968-3767,QC,9:00 AM,5:30 PM,9:00 AM,5:30 PM,9:00 AM,5:30 PM,9:00 AM,9:00 PM,9:00 AM,9:00 PM,9:00 AM,5:00 PM,9:00 AM,5:00 PM,G4R 4S6,-66.3918,50.2285,,2013-09-16 07:37:50 UTC,2013-09-16 07:37:50 UTC
1532 41e rue,Shawinigan,Dollarama,1-819-539-1076,QC,9:00 AM,9:00 PM,9:00 AM,9:00 PM,9:00 AM,9:00 PM,9:00 AM,9:00 PM,9:00 AM,9:00 PM,9:00 AM,5:00 PM,9:00 AM,5:00 PM,G9N 7Y9,-72.7339,46.5663,,2013-09-16 07:37:50 UTC,2013-09-16 07:37:50 UTC
2675 5 Avenue,Shawinigan-sud,Dollarama,1-819-536-5575,QC,9:00 AM,9:00 PM,9:00 AM,9:00 PM,9:00 AM,9:00 PM,9:00 AM,9:00 PM,9:00 AM,9:00 PM,9:00 AM,5:00 PM,9:00 AM,5:00 PM,G9P 1P8,-72.754,46.5247,,2013-09-16 07:37:50 UTC,2013-09-16 07:37:50 UTC
930 13th Ave. N,Sherbrooke,Dollarama,1-819-346-4392,QC,9:00 AM,5:30 PM,9:00 AM,5:30 PM,9:00 AM,5:30 PM,9:00 AM,9:00 PM,9:00 AM,9:00 PM,9:00 AM,5:00 PM,12:00 PM,5:00 PM,J1E 3J7,-71.8722,45.4224,,2013-09-16 07:37:50 UTC,2013-09-16 07:37:50 UTC
500 Belvedere sud,Sherbrooke,Dollarama,1-819-566-8030,QC,9:00 AM,9:00 PM,9:00 AM,9:00 PM,9:00 AM,9:00 PM,9:00 AM,9:00 PM,9:00 AM,9:00 PM,9:00 AM,5:00 PM,9:00 AM,5:00 PM,J1H 4B5,-71.8961,45.396,,2013-09-16 07:37:50 UTC,2013-09-16 07:37:50 UTC
3050 boul Portland,Sherbrooke,Dollarama,1-819-346-9450,QC,9:00 AM,5:30 PM,9:00 AM,5:30 PM,9:00 AM,5:30 PM,9:00 AM,9:00 PM,9:00 AM,9:00 PM,9:00 AM,5:00 PM,9:00 AM,5:00 PM,J1L 1K1,-71.953,45.4032,,2013-09-16 07:37:50 UTC,2013-09-16 07:37:50 UTC
4640 boul. Bourque,Sherbrooke,Dollarama,1-819-820-9624,QC,9:00 AM,9:00 PM,9:00 AM,9:00 PM,9:00 AM,9:00 PM,9:00 AM,9:00 PM,9:00 AM,9:00 PM,9:00 AM,5:00 PM,9:00 AM,5:00 PM,J1N 2A8,-71.9817,45.3752,,2013-09-16 07:37:50 UTC,2013-09-16 07:37:50 UTC
250 boul. Fiset,Sorel-Tracy,Dollarama,1-450-730-0849,QC,9:00 AM,9:00 PM,9:00 AM,9:00 PM,9:00 AM,9:00 PM,9:00 AM,9:00 PM,9:00 AM,9:00 PM,9:00 AM,5:00 PM,9:00 AM,5:00 PM,J3P 3P7,-73.0991,46.0399,,2013-09-16 07:37:50 UTC,2013-09-16 07:37:50 UTC
450 boul Poliquin,Sorel-Tracy,Dollarama,1-450-743-4012,QC,9:30 AM,5:30 PM,9:30 AM,5:30 PM,9:30 AM,5:30 PM,9:30 AM,9:00 PM,9:00 AM,9:00 PM,9:30 AM,5:00 PM,10:00 AM,5:00 PM,J3P 7R5,-73.0844,46.0406,,2013-09-16 07:37:50 UTC,2013-09-16 07:37:50 UTC
278 Route 138,St-Augustin-de-Desmaures,Dollarama,1-418-870-1624,QC,9:30 AM,5:30 PM,9:30 AM,5:30 PM,9:30 AM,5:30 PM,9:30 AM,9:00 PM,9:30 AM,9:00 PM,9:30 AM,5:00 PM,9:30 AM,5:00 PM,G3A 2C5,-71.4547,46.7446,,2013-09-16 07:37:50 UTC,2013-09-16 07:37:50 UTC
191 Sir Wilfred Laurier,St-Basile-le-Grand,Dollarama,450-441-2033,QC,9:30 AM,6:00 PM,9:30 AM,6:00 PM,9:30 AM,6:00 PM,9:30 AM,9:00 PM,9:30 AM,9:00 PM,9:00 AM,5:00 PM,9:00 AM,5:00 PM,J3N 1R1,-73.2904,45.5285,,2013-09-16 07:37:50 UTC,2013-09-16 07:37:50 UTC
1211 boul. St-Bruno,St-Bruno-de-Montarville,Dollarama,450-441-0239,QC,9:00 AM,9:00 PM,9:00 AM,9:00 PM,9:00 AM,9:00 PM,9:00 AM,9:00 PM,9:00 AM,9:00 PM,9:00 AM,5:00 PM,9:00 AM,5:00 PM,J3V 6P4,-73.3832,45.5043,,2013-09-16 07:37:50 UTC,2013-09-16 07:37:50 UTC
510 Voie de Desserte,St-Constant,Dollarama,450-633-0297,QC,9:30 AM,9:00 PM,9:30 AM,9:00 PM,9:30 AM,9:00 PM,9:30 AM,9:00 PM,9:30 AM,9:00 PM,8:00 AM,5:00 PM,9:00 AM,5:00 PM,J5A 2S6,-73.5876,45.3902,,2013-09-16 07:37:50 UTC,2013-09-16 07:37:50 UTC
555 boul de Ste-Adele,Ste-Adele,Dollarama,1-450-229-5837,QC,9:00 AM,6:00 PM,9:00 AM,6:00 PM,9:00 AM,6:00 PM,9:00 AM,9:00 PM,9:00 AM,9:00 PM,9:00 AM,5:00 PM,9:00 AM,5:00 PM,J8B 1A7,-74.1263,45.9473,,2013-09-16 07:37:51 UTC,2013-09-16 07:37:51 UTC
40 boul. Morin,Ste-Agathe-des-Monts,Dollarama,1-819-326-7625,QC,9:00 AM,6:00 PM,9:00 AM,6:00 PM,9:00 AM,8:00 PM,9:00 AM,9:00 PM,9:00 AM,9:00 PM,9:00 AM,5:00 PM,9:00 AM,5:00 PM,J8C 2V6,-74.2789,46.0464,,2013-09-16 07:37:51 UTC,2013-09-16 07:37:51 UTC
10516 boul Ste-Anne,Ste-Anne-de-Beaupre,Dollarama,1-418-827-5130,QC,9:30 AM,5:30 PM,9:30 AM,5:30 PM,9:30 AM,5:30 PM,9:30 AM,9:00 PM,9:30 AM,9:00 PM,9:00 AM,5:00 PM,10:00 AM,5:00 PM,G0A 3C0,-70.9143,47.0284,,2013-09-16 07:37:51 UTC,2013-09-16 07:37:51 UTC
20 Blvd Ste-Anne Ouest,Ste-Anne-des-Monts,Dollarama,1-418-763-7354,QC,9:30 AM,5:30 PM,9:30 AM,5:30 PM,9:30 AM,5:30 PM,9:30 AM,9:00 PM,9:30 AM,9:00 PM,9:30 AM,5:00 PM,12:00 PM,5:00 PM,G4V 1P6,-66.4871,49.1256,,2013-09-16 07:37:51 UTC,2013-09-16 07:37:51 UTC
168 boul. Ste-Anne,Ste-Anne-des-Plaines,Dollarama,450-838-6551,QC,9:00 AM,6:00 PM,9:00 AM,6:00 PM,9:00 AM,6:00 PM,9:00 AM,9:00 PM,9:00 AM,9:00 PM,9:00 AM,5:00 PM,11:00 AM,5:00 PM,J0N 1H0,-73.8136,45.7609,,2013-09-16 07:37:51 UTC,2013-09-16 07:37:51 UTC
1999 rue Nobel,Ste-Julie,Dollarama,450-922-9571,QC,9:00 AM,6:00 PM,9:00 AM,6:00 PM,9:00 AM,6:00 PM,9:00 AM,9:00 PM,9:00 AM,9:00 PM,9:00 AM,5:00 PM,9:00 AM,5:00 PM,J3E 1Z7,-73.3267,45.5781,,2013-09-16 07:37:51 UTC,2013-09-16 07:37:51 UTC
1116 boul Vachon Nord,Ste-Marie,Dollarama,1-418-387-8121,QC,9:00 AM,5:30 PM,9:00 AM,5:30 PM,9:00 AM,5:30 PM,9:00 AM,9:00 PM,9:00 AM,9:00 PM,9:00 AM,5:00 PM,11:00 AM,5:00 PM,G6E 1N7,-71.0361,46.4547,,2013-09-16 07:37:51 UTC,2013-09-16 07:37:51 UTC
2801-A boul. des Promenades,Ste-Marthe-sur-le-Lac,Dollarama,450-623-4992,QC,9:00 AM,6:00 PM,9:00 AM,6:00 PM,9:00 AM,6:00 PM,9:00 AM,9:00 PM,9:00 AM,9:00 PM,9:00 AM,5:00 PM,10:00 AM,5:00 PM,J0N 1P0,-73.9227,45.5404,,2013-09-16 07:37:51 UTC,2013-09-16 07:37:51 UTC
367 Arthur-Sauv??,St-Eustache,Dollarama,450-491-1226,QC,9:00 AM,6:00 PM,9:00 AM,6:00 PM,9:00 AM,6:00 PM,9:30 AM,9:00 PM,9:00 AM,9:00 PM,9:00 AM,5:00 PM,10:00 AM,5:00 PM,J7P 2B1,-73.9027,45.5625,,2013-09-16 07:37:51 UTC,2013-09-16 07:37:51 UTC
136 25e Avenue,St-Eustache,Dollarama,450-623-4338,QC,9:00 AM,6:00 PM,9:00 AM,6:00 PM,9:00 AM,6:00 PM,9:00 AM,9:00 PM,9:00 AM,9:00 PM,9:00 AM,5:00 PM,10:00 AM,5:00 PM,J7P 2V2,-73.8702,45.5707,,2013-09-16 07:37:51 UTC,2013-09-16 07:37:51 UTC
1200 boul. St-Felicien,St-Felicien,Dollarama,1-418-679-5553,QC,9:30 AM,5:30 PM,9:30 AM,5:30 PM,9:30 AM,5:30 PM,9:30 AM,9:00 PM,9:30 AM,9:00 PM,9:30 AM,5:00 PM,9:00 AM,5:00 PM,G8K 2N6,-72.4681,48.6499,,2013-09-16 07:37:51 UTC,2013-09-16 07:37:51 UTC
8585 boul. Lacroix,St-Georges,Dollarama,1-418-227-1068,QC,9:30 AM,5:30 PM,9:30 AM,5:30 PM,9:30 AM,5:30 PM,9:30 AM,9:00 PM,9:30 AM,9:00 PM,9:00 AM,5:00 PM,9:00 AM,5:00 PM,G5Y 5L6,-70.6988,46.1318,,2013-09-16 07:37:51 UTC,2013-09-16 07:37:51 UTC
11400 1e Av.,St-Georges,Dollarama,1-418-227-2855,QC,9:00 AM,5:30 PM,9:00 AM,5:30 PM,9:00 AM,9:00 PM,9:00 AM,9:00 PM,9:00 AM,9:00 PM,9:00 AM,5:00 PM,9:00 AM,5:00 PM,G5Y 5S4,-70.6515,46.0984,,2013-09-16 07:37:51 UTC,2013-09-16 07:37:51 UTC
5924 boul Cousineau,St-Hubert,Dollarama,450-443-7307,QC,9:00 AM,9:00 PM,9:00 AM,9:00 PM,9:00 AM,9:00 PM,9:00 AM,9:00 PM,9:00 AM,9:00 PM,9:00 AM,5:00 PM,9:00 AM,5:00 PM,J3Y 7R9,-73.4104,45.4959,,2013-09-16 07:37:51 UTC,2013-09-16 07:37:51 UTC
2225 boul. Casavant,St-Hyacinthe,Dollarama,1-450-261-9159,QC,9:00 AM,9:00 PM,9:00 AM,9:00 PM,9:00 AM,9:00 PM,9:00 AM,9:00 PM,9:00 AM,9:00 PM,9:00 AM,5:00 PM,9:00 AM,5:00 PM,J2S 7E5,-72.9672,45.6343,,2013-09-16 07:37:51 UTC,2013-09-16 07:37:51 UTC
1000 boul. du Seminaire Nord,St-Jean-sur-Richelieu,Dollarama,450-349-5591,QC,9:00 AM,9:00 PM,9:00 AM,9:00 PM,9:00 AM,9:00 PM,9:00 AM,9:00 PM,9:00 AM,9:00 PM,8:00 AM,5:00 PM,9:00 AM,5:00 PM,J3A 1E5,-73.2682,45.3365,,2013-09-16 07:37:51 UTC,2013-09-16 07:37:51 UTC
600 rue Pierre-Caisse,St-Jean-sur-Richelieu,Dollarama,450-349-7898,QC,9:00 AM,6:00 PM,9:00 AM,6:00 PM,9:00 AM,9:00 PM,9:00 AM,9:00 PM,9:00 AM,9:00 PM,9:00 AM,5:00 PM,9:00 AM,5:00 PM,J3A 1M1,-73.2807,45.3299,,2013-09-16 07:37:51 UTC,2013-09-16 07:37:51 UTC
174 boul Saint-Joseph,St-Jean-sur-Richelieu,Dollarama,450-359-9258,QC,9:00 AM,7:00 PM,9:00 AM,7:00 PM,9:00 AM,7:00 PM,9:00 AM,9:00 PM,9:00 AM,9:00 PM,9:00 AM,5:00 PM,10:00 AM,5:00 PM,J3B 1W7,-73.2605,45.3144,,2013-09-16 07:37:51 UTC,2013-09-16 07:37:51 UTC
1950 rue Labelle,St-Jerome,Dollarama,1-450-432-5624,QC,9:00 AM,6:00 PM,9:00 AM,6:00 PM,9:00 AM,9:00 PM,9:00 AM,9:00 PM,9:00 AM,9:00 PM,9:00 AM,5:00 PM,10:00 AM,5:00 PM,J7Y 1S1,-74.0088,45.7941,,2013-09-16 07:37:51 UTC,2013-09-16 07:37:51 UTC
900 boul. Grignon,St-Jerome,Dollarama,1-450-438-1294,QC,9:00 AM,6:00 PM,9:00 AM,6:00 PM,9:00 AM,9:00 PM,9:00 AM,9:00 PM,9:00 AM,9:00 PM,9:00 AM,5:00 PM,10:00 AM,5:00 PM,J7Y 3S1,-74.0155,45.7948,,2013-09-16 07:37:51 UTC,2013-09-16 07:37:51 UTC
1042 boul du Grand-Heron,St-Jerome,Dollarama,1-450-431-4005,QC,9:00 AM,9:00 PM,9:00 AM,9:00 PM,9:00 AM,9:00 PM,9:00 AM,9:00 PM,9:00 AM,9:00 PM,8:00 AM,5:00 PM,9:00 AM,5:00 PM,J7Y 5K8,-74.0205,45.7568,,2013-09-16 07:37:51 UTC,2013-09-16 07:37:51 UTC
2065 boul Marcel-Laurin,St-Laurent,Dollarama,514-332-7400,QC,9:00 AM,9:00 PM,9:00 AM,9:00 PM,9:00 AM,9:00 PM,9:00 AM,9:00 PM,9:00 AM,9:00 PM,9:00 AM,5:00 PM,9:00 AM,5:00 PM,H4R 1K4,-73.7011,45.5183,,2013-09-16 07:37:52 UTC,2013-09-16 07:37:52 UTC
3131 Cote Vertu,St-Laurent,Dollarama,514-333-0264,QC,9:00 AM,6:00 PM,9:00 AM,6:00 PM,9:00 AM,9:00 PM,9:00 AM,9:00 PM,9:00 AM,9:00 PM,9:00 AM,5:00 PM,9:00 AM,5:00 PM,H4R 1Y8,-73.7046,45.497,,2013-09-16 07:37:52 UTC,2013-09-16 07:37:52 UTC
333 Cote Joyeuse,St-Raymond,Dollarama,1-418-337-2485,QC,9:30 AM,5:30 PM,9:30 AM,5:30 PM,9:30 AM,5:30 PM,9:30 AM,9:00 PM,9:30 AM,9:00 PM,9:00 AM,5:00 PM,10:00 AM,5:00 PM,G3L 4A8,-71.8323,46.8828,,2013-09-16 07:37:52 UTC,2013-09-16 07:37:52 UTC
940 Chemin du Sault,St-Romuald,Dollarama,1-418-839-8609,QC,8:00 AM,9:00 PM,8:00 AM,9:00 PM,8:00 AM,9:00 PM,8:00 AM,9:00 PM,8:00 AM,9:00 PM,8:00 AM,5:00 PM,8:00 AM,5:00 PM,G6W 5M6,-71.2703,46.7319,,2013-09-16 07:37:52 UTC,2013-09-16 07:37:52 UTC
262 Mont??e des Pionniers,Terrebonne,Dollarama,450-581-4746,QC,9:00 AM,6:00 PM,9:00 AM,6:00 PM,9:00 AM,9:00 PM,9:00 AM,9:00 PM,9:00 AM,9:00 PM,9:00 AM,5:00 PM,9:00 AM,5:00 PM,J6V 1S6,-73.5111,45.7111,,2013-09-16 07:37:52 UTC,2013-09-16 07:37:52 UTC
1350 boul. Moody,Terrebonne,Dollarama,450-492-1374,QC,9:00 AM,9:00 PM,9:00 AM,9:00 PM,9:00 AM,9:00 PM,9:00 AM,9:00 PM,9:00 AM,9:00 PM,9:00 AM,5:00 PM,9:00 AM,5:00 PM,J6W 3K9,-73.6495,45.7043,,2013-09-16 07:37:52 UTC,2013-09-16 07:37:52 UTC
2232 Chemin Gascon,Terrebonne,Dollarama,450-961-3489,QC,9:00 AM,6:00 PM,9:00 AM,6:00 PM,9:00 AM,9:00 PM,9:00 AM,9:00 PM,9:00 AM,9:00 PM,9:00 AM,5:00 PM,9:00 AM,5:00 PM,J6X 3A1,-73.664,45.7231,,2013-09-16 07:37:52 UTC,2013-09-16 07:37:52 UTC
1133 Rang Saint-Francois,Terrebonne,Dollarama,1-450-435-0512,QC,9:00 AM,9:00 PM,9:00 AM,9:00 PM,9:00 AM,9:00 PM,9:00 AM,9:00 PM,9:00 AM,9:00 PM,9:00 AM,5:00 PM,9:00 AM,5:00 PM,J6Y 0C7,-73.782,45.6895,,2013-09-16 07:37:52 UTC,2013-09-16 07:37:52 UTC
224 boul Frontenac Ouest,Thetford Mines,Dollarama,1-418-335-9107,QC,9:00 AM,9:00 PM,9:00 AM,9:00 PM,9:00 AM,9:00 PM,9:00 AM,9:00 PM,9:00 AM,9:00 PM,9:00 AM,5:00 PM,9:00 AM,5:00 PM,G6G 6N7,-71.3167,46.101,,2013-09-16 07:37:52 UTC,2013-09-16 07:37:52 UTC
266 Victoria Street,Thurso,Dollarama,1-819-985-1811,QC,9:00 AM,5:30 PM,9:00 AM,5:30 PM,9:00 AM,5:30 PM,9:00 AM,9:00 PM,9:00 AM,9:00 PM,9:00 AM,5:00 PM,11:00 AM,5:00 PM,J0X 3B0,-75.2392,45.5975,,2013-09-16 07:37:52 UTC,2013-09-16 07:37:52 UTC
634 rue Richard,Trois-Pistoles,Dollarama,1-888-924-5559,QC,9:30 AM,5:30 PM,9:30 AM,5:30 PM,9:30 AM,5:30 PM,9:30 AM,9:00 PM,9:30 AM,9:00 PM,9:00 AM,5:00 PM,12:00 PM,5:00 PM,G0L 4K0,-69.1643,48.1218,,2013-09-16 07:37:52 UTC,2013-09-16 07:37:52 UTC
300 rue Barkoff,Trois-Rivieres,Dollarama,1-819-379-6972,QC,9:00 AM,5:30 PM,9:00 AM,5:30 PM,9:00 AM,5:30 PM,9:00 AM,9:00 PM,9:00 AM,9:00 PM,9:00 AM,5:00 PM,9:00 AM,5:00 PM,G8T 2A3,-72.5584,46.3704,,2013-09-16 07:37:52 UTC,2013-09-16 07:37:52 UTC
165 boul. Ste-Madeleine,Trois-Rivieres,Dollarama,1-819-374-2623,QC,9:00 AM,9:00 PM,9:00 AM,9:00 PM,9:00 AM,9:00 PM,9:00 AM,9:00 PM,9:00 AM,9:00 PM,9:00 AM,5:00 PM,9:00 AM,5:00 PM,G8T 3L7,-72.51,46.3656,,2013-09-16 07:37:52 UTC,2013-09-16 07:37:52 UTC
697 Boul. Thibeau,Trois-Rivieres,Dollarama,1-819-840-1962,QC,9:00 AM,9:00 PM,9:00 AM,9:00 PM,9:00 AM,9:00 PM,9:00 AM,9:00 PM,9:00 AM,9:00 PM,9:00 AM,5:00 PM,9:00 AM,5:00 PM,G8T 7A2,-72.5478,46.384,,2013-09-16 07:37:52 UTC,2013-09-16 07:37:52 UTC
4375 boul des Forges,Trois-Rivieres,Dollarama,1-819-693-7177,QC,9:00 AM,5:30 PM,9:00 AM,5:30 PM,9:00 AM,5:30 PM,9:00 AM,9:00 PM,9:00 AM,9:00 PM,9:00 AM,5:00 PM,9:00 AM,5:00 PM,G8Y 5N9,-72.588,46.3578,,2013-09-16 07:37:52 UTC,2013-09-16 07:37:52 UTC
6045 boul Jean XXIII,Trois-Rivieres,Dollarama,1-819-376-0991,QC,9:00 AM,9:00 PM,9:00 AM,9:00 PM,9:00 AM,9:00 PM,9:00 AM,9:00 PM,9:00 AM,9:00 PM,9:00 AM,5:00 PM,9:00 AM,5:00 PM,G8Z 4N8,-72.5951,46.3304,,2013-09-16 07:37:52 UTC,2013-09-16 07:37:52 UTC
610 boul du St-Maurice,Trois-Rivieres,Dollarama,1-819-697-3575,QC,9:00 AM,9:00 PM,9:00 AM,9:00 PM,9:00 AM,9:00 PM,9:00 AM,9:00 PM,9:00 AM,9:00 PM,9:00 AM,5:00 PM,9:00 AM,5:00 PM,G9A 3P6,-72.5444,46.3532,,2013-09-16 07:37:52 UTC,2013-09-16 07:37:52 UTC
4445 boul. Gene-H.-Kruger,Trois-Rivieres,Dollarama,1-819-840-8754,QC,9:00 AM,9:00 PM,9:00 AM,9:00 PM,9:00 AM,9:00 PM,9:00 AM,9:00 PM,9:00 AM,9:00 PM,9:00 AM,5:00 PM,9:00 AM,5:00 PM,G9A 4N3,-72.5641,46.3246,,2013-09-16 07:37:52 UTC,2013-09-16 07:37:52 UTC
1147 boul Pie-XI N,Val-B??lair,Dollarama,1-418-840-1428,QC,9:00 AM,9:00 PM,9:00 AM,9:00 PM,9:00 AM,9:00 PM,9:00 AM,9:00 PM,9:00 AM,9:00 PM,9:00 AM,5:00 PM,9:00 AM,5:00 PM,G3K 2P8,-71.421,46.8572,,2013-09-16 07:37:52 UTC,2013-09-16 07:37:52 UTC
1500 Chemin Sullivan,Val-d'Or,Dollarama,1-819-825-0864,QC,9:30 AM,5:30 PM,9:30 AM,5:30 PM,9:30 AM,5:30 PM,9:30 AM,9:00 PM,9:30 AM,9:00 PM,9:00 AM,5:00 PM,10:00 AM,5:00 PM,J9P 1M1,-77.8037,48.1054,,2013-09-16 07:37:52 UTC,2013-09-16 07:37:52 UTC
1801 3e Ave.,Val-d'Or,Dollarama,1-819-825-2720,QC,9:30 AM,5:30 PM,9:30 AM,5:30 PM,9:30 AM,5:30 PM,9:30 AM,9:00 PM,9:30 AM,9:00 PM,9:00 AM,5:00 PM,12:00 PM,5:00 PM,J9P 5K1,-77.8256,48.0976,,2013-09-16 07:37:52 UTC,2013-09-16 07:37:52 UTC
2020 boul. R??n??-Gaultier,Varennes,Dollarama,450-652-6529,QC,9:30 AM,6:00 PM,9:30 AM,6:00 PM,9:30 AM,6:00 PM,9:30 AM,9:00 PM,9:30 AM,9:00 PM,9:00 AM,5:00 PM,11:00 AM,5:00 PM,J3X 1N9,-73.4353,45.6787,,2013-09-16 07:37:53 UTC,2013-09-16 07:37:53 UTC
393 boul. Harwood,Vaudreuil-Dorion,Dollarama,450-455-7827,QC,9:30 AM,6:00 PM,9:30 AM,6:00 PM,9:30 AM,6:00 PM,9:30 AM,9:00 PM,9:30 AM,9:00 PM,9:00 AM,5:00 PM,9:00 AM,5:00 PM,J7V 7W1,-74.0209,45.3787,,2013-09-16 07:37:53 UTC,2013-09-16 07:37:53 UTC
51 boul Cite des Jeunes,Vaudreuil-Dorion,Dollarama,450-510-9682,QC,9:00 AM,9:00 PM,9:00 AM,9:00 PM,9:00 AM,9:00 PM,9:00 AM,9:00 PM,9:00 AM,9:00 PM,9:00 AM,5:00 PM,9:00 AM,5:00 PM,J7V 8C1,-74.0229,45.4151,,2013-09-16 07:37:53 UTC,2013-09-16 07:37:53 UTC
4041 rue Wellington,Verdun,Dollarama,514-762-5459,QC,9:00 AM,9:00 PM,9:00 AM,9:00 PM,9:00 AM,9:00 PM,9:00 AM,9:00 PM,9:00 AM,9:00 PM,9:00 AM,5:00 PM,9:00 AM,5:00 PM,H4G 1V6,-73.5671,45.4633,,2013-09-16 07:37:53 UTC,2013-09-16 07:37:53 UTC
445 boul Jutras est,Victoriaville,Dollarama,1-819-758-5601,QC,9:00 AM,9:00 PM,9:00 AM,9:00 PM,9:00 AM,9:00 PM,9:00 AM,9:00 PM,9:00 AM,9:00 PM,9:00 AM,5:00 PM,9:00 AM,5:00 PM,G6P 7H4,-71.9433,46.057,,2013-09-16 07:37:53 UTC,2013-09-16 07:37:53 UTC
1111 boul. Jutras est,Victoriaville,Dollarama,1-819-357-5172,QC,9:00 AM,5:30 PM,9:00 AM,5:30 PM,9:00 AM,5:30 PM,9:00 AM,9:00 PM,9:00 AM,9:00 PM,9:00 AM,5:00 PM,9:00 AM,5:00 PM,G6S 1C1,-71.9204,46.0586,,2013-09-16 07:37:53 UTC,2013-09-16 07:37:53 UTC
5303 rue Foster,Waterloo,Dollarama,1-450-539-2055,QC,9:00 AM,9:00 PM,9:00 AM,9:00 PM,9:00 AM,9:00 PM,9:00 AM,9:00 PM,9:00 AM,9:00 PM,9:00 AM,5:00 PM,9:00 AM,5:00 PM,J0E 2N0,-72.5172,45.3463,,2013-09-16 07:37:53 UTC,2013-09-16 07:37:53 UTC
400 King Street,Estevan,Dollarama,1-306-634-2505,SK,9:00 AM,6:00 PM,9:00 AM,6:00 PM,9:00 AM,9:00 PM,9:00 AM,9:00 PM,9:00 AM,9:00 PM,9:00 AM,6:00 PM,9:00 AM,6:00 PM,S4A 2B4,-102.978,49.1468,,2013-09-16 07:37:53 UTC,2013-09-16 07:37:53 UTC
1235 Main Street North,Moose Jaw,Dollarama,1-306-693-1714,SK,9:30 AM,6:00 PM,9:30 AM,6:00 PM,9:30 AM,9:00 PM,9:30 AM,9:00 PM,9:30 AM,9:00 PM,9:30 AM,6:00 PM,12:00 PM,5:00 PM,S6H 6M4,-105.534,50.4107,,2013-09-16 07:37:53 UTC,2013-09-16 07:37:53 UTC
11428 Railway Ave,North Battleford,Dollarama,1-306-445-5944,SK,9:00 AM,6:00 PM,9:00 AM,6:00 PM,9:00 AM,6:00 PM,9:00 AM,9:00 PM,9:00 AM,6:00 PM,8:00 AM,6:00 PM,11:00 AM,6:00 PM,S9A 3P7,-108.273,52.7579,,2013-09-16 07:37:53 UTC,2013-09-16 07:37:53 UTC
801 15th Street,Prince Albert,Dollarama,1-306-763-5520,SK,9:00 AM,9:00 PM,9:00 AM,9:00 PM,9:00 AM,9:00 PM,9:00 AM,9:00 PM,9:00 AM,9:00 PM,9:00 AM,9:00 PM,9:00 AM,6:00 PM,S6V 0C7,-105.775,53.1993,,2013-09-16 07:37:53 UTC,2013-09-16 07:37:53 UTC
1403 Central Ave.,Prince Albert,Dollarama,1-306-922-1031,SK,9:00 AM,6:00 PM,9:00 AM,6:00 PM,9:00 AM,6:00 PM,9:00 AM,9:00 PM,9:00 AM,6:00 PM,9:00 AM,6:00 PM,12:00 PM,5:00 PM,S6V 7J4,-105.754,53.1996,,2013-09-16 07:37:53 UTC,2013-09-16 07:37:53 UTC
2327 Victoria Ave. East,Regina,Dollarama,1-306-546-2725,SK,8:00 AM,9:00 PM,8:00 AM,9:00 PM,8:00 AM,9:00 PM,8:00 AM,9:00 PM,8:00 AM,9:00 PM,8:00 AM,9:00 PM,8:00 AM,9:00 PM,S4N 1K5,-104.54,50.4472,,2013-09-16 07:37:53 UTC,2013-09-16 07:37:53 UTC
2102 11th Avenue,Regina,Dollarama,1-306-522-9982,SK,7:00 AM,6:00 PM,7:00 AM,6:00 PM,7:00 AM,9:00 PM,7:00 AM,9:00 PM,7:00 AM,9:00 PM,8:00 AM,6:00 PM,11:00 AM,5:00 PM,S4P 3Y6,-104.611,50.4504,,2013-09-16 07:37:53 UTC,2013-09-16 07:37:53 UTC
489 Albert St N,Regina,Dollarama,1-306-525-0454,SK,9:30 AM,6:00 PM,9:30 AM,6:00 PM,9:30 AM,9:00 PM,9:30 AM,9:00 PM,9:30 AM,9:00 PM,9:30 AM,6:00 PM,12:00 PM,5:00 PM,S4R 3C3,-104.618,50.4832,,2013-09-16 07:37:53 UTC,2013-09-16 07:37:53 UTC
3765 Sherwood Drive,Regina,Dollarama,1-306-546-2492,SK,8:00 AM,9:00 PM,8:00 AM,9:00 PM,8:00 AM,9:00 PM,8:00 AM,9:00 PM,8:00 AM,9:00 PM,8:00 AM,9:00 PM,8:00 AM,9:00 PM,S4R 4A8,-104.635,50.4755,,2013-09-16 07:37:53 UTC,2013-09-16 07:37:53 UTC
348 McCarthy Blvd. North,Regina,Dollarama,1-306-924-1932,SK,8:00 AM,9:00 PM,8:00 AM,9:00 PM,8:00 AM,9:00 PM,8:00 AM,9:00 PM,8:00 AM,9:00 PM,8:00 AM,9:00 PM,8:00 AM,9:00 PM,S4R 7M2,-104.664,50.4823,,2013-09-16 07:37:53 UTC,2013-09-16 07:37:53 UTC
4602 Albert Street,Regina,Dollarama,1-306-586-8929,SK,8:00 AM,9:00 PM,8:00 AM,9:00 PM,8:00 AM,9:00 PM,8:00 AM,9:00 PM,8:00 AM,9:00 PM,8:00 AM,9:00 PM,8:00 AM,9:00 PM,S4S 6B4,-104.619,50.4058,,2013-09-16 07:37:53 UTC,2013-09-16 07:37:53 UTC
4105 Rochdale Blvd,Regina,Dollarama,1-306-522-2091,SK,8:00 AM,9:00 PM,8:00 AM,9:00 PM,8:00 AM,9:00 PM,8:00 AM,9:00 PM,8:00 AM,9:00 PM,8:00 AM,9:00 PM,8:00 AM,9:00 PM,S4X 4P7,-104.639,50.4966,,2013-09-16 07:37:54 UTC,2013-09-16 07:37:54 UTC
3510 8th St East,Saskatoon,Dollarama,1-306-374-0064,SK,9:00 AM,9:00 PM,9:00 AM,9:00 PM,9:00 AM,9:00 PM,9:00 AM,9:00 PM,9:00 AM,9:00 PM,9:00 AM,9:00 PM,11:00 AM,6:00 PM,S7H 0W6,-106.594,52.1146,,2013-09-16 07:37:54 UTC,2013-09-16 07:37:54 UTC
810 Circle Drive E. #106-C,Saskatoon,Dollarama,1-306-651-1280,SK,9:00 AM,9:00 PM,9:00 AM,9:00 PM,9:00 AM,9:00 PM,9:00 AM,9:00 PM,9:00 AM,9:00 PM,9:00 AM,9:00 PM,10:00 AM,6:00 PM,S7K 3T8,-106.652,52.1581,,2013-09-16 07:37:54 UTC,2013-09-16 07:37:54 UTC
513 Nelson Road,Saskatoon,Dollarama,1-306-651-1265,SK,9:00 AM,9:00 PM,9:00 AM,9:00 PM,9:00 AM,9:00 PM,9:00 AM,9:00 PM,9:00 AM,9:00 PM,9:00 AM,8:00 PM,10:00 AM,6:00 PM,S7S 1P4,-106.566,52.1501,,2013-09-16 07:37:54 UTC,2013-09-16 07:37:54 UTC
3011 Clarence Ave S,Saskatoon,Dollarama,1-306-382-2936,SK,9:00 AM,9:00 PM,9:00 AM,9:00 PM,9:00 AM,9:00 PM,9:00 AM,9:00 PM,9:00 AM,9:00 PM,9:00 AM,9:00 PM,10:00 AM,6:00 PM,S7T 0B4,-106.647,52.1011,,2013-09-16 07:37:54 UTC,2013-09-16 07:37:54 UTC
1150 Central Ave N,Swift Current,Dollarama,1-306-773-6906,SK,9:00 AM,9:00 PM,9:00 AM,9:00 PM,9:00 AM,9:00 PM,9:00 AM,9:00 PM,9:00 AM,9:00 PM,9:00 AM,9:00 PM,9:00 AM,6:00 PM,S9H 4C8,-107.795,50.3025,,2013-09-16 07:37:54 UTC,2013-09-16 07:37:54 UTC
127 1st Street,Weyburn,Dollarama,1-306-842-1314,SK,9:00 AM,9:00 PM,9:00 AM,9:00 PM,9:00 AM,9:00 PM,9:00 AM,9:00 PM,9:00 AM,9:00 PM,9:00 AM,6:00 PM,10:00 AM,5:00 PM,S4H 0T3,-103.856,49.6628,,2013-09-16 07:37:54 UTC,2013-09-16 07:37:54 UTC