address,city,company_name,phone,state,zip_code,mon_from,mon_to,tue_from,tue_to,wed_from,wed_to,thu_from,thu_to,fri_from,fri_to,sat_from,sat_to,sun_from,sun_to,longitude,latitude,created_at,updated_at
1450 Main St,Dauphin,Safeway,(204) 638-4745,MB,R7N 1M8,8:00am,9:00pm,8:00am,9:00pm,8:00am,9:00pm,8:00am,10:00pm,8:00am,10:00pm,8:00am,9:00pm,9:00am,6:00pm,-100.063,51.137,2013-09-23 05:13:59 UTC,2013-09-23 05:13:59 UTC
505 Main St,Airdrie,Safeway,(403) 948-4838,AB,T0M 0B0,8:00am,11:00pm,8:00am,11:00pm,8:00am,11:00pm,8:00am,11:00pm,8:00am,11:00pm,8:00am,11:00pm,8:00am,11:00pm,-114.013,51.2954,2013-09-23 05:16:23 UTC,2013-09-23 05:16:23 UTC
318 Marten St,Banff,Safeway,(403) 762-5378,AB,T0L 0C0,8:00am,11:00pm,8:00am,11:00pm,8:00am,11:00pm,8:00am,11:00pm,8:00am,11:00pm,8:00am,11:00pm,8:00am,11:00pm,-115.572,51.1795,2013-09-23 05:16:23 UTC,2013-09-23 05:16:23 UTC
550 Cassils Rd W,Brooks,Safeway,(403) 362-6851,AB,T1R 0V9,8:00am,11:00pm,8:00am,11:00pm,8:00am,11:00pm,8:00am,11:00pm,8:00am,11:00pm,8:00am,11:00pm,8:00am,11:00pm,-111.902,50.5721,2013-09-23 05:16:23 UTC,2013-09-23 05:16:23 UTC
3550  32 Ave Ne,Calgary,Safeway,(403) 291-2035,AB,T1Y 6J2,8:00am,11:00pm,8:00am,11:00pm,8:00am,11:00pm,8:00am,11:00pm,8:00am,11:00pm,8:00am,11:00pm,8:00am,11:00pm,-113.989,51.0841,2013-09-23 05:16:23 UTC,2013-09-23 05:16:23 UTC
300-1440 52 St Ne,Calgary,Safeway,(403) 235-1437,AB,T2A 4T8,8:00am,11:00pm,8:00am,11:00pm,8:00am,11:00pm,8:00am,11:00pm,8:00am,11:00pm,8:00am,11:00pm,8:00am,11:00pm,-113.956,51.055,2013-09-23 05:16:23 UTC,2013-09-23 05:16:23 UTC
399 36 St Ne,Calgary,Safeway,(403) 248-0848,AB,T2A 7R4,8:00am,11:00pm,8:00am,11:00pm,8:00am,11:00pm,8:00am,11:00pm,8:00am,11:00pm,8:00am,11:00pm,8:00am,11:00pm,-113.982,51.0549,2013-09-23 05:16:23 UTC,2013-09-23 05:16:23 UTC
7740 18 St Se,Calgary,Safeway,(403) 236-1210,AB,T2C 2N5,8:00am,11:00pm,8:00am,11:00pm,8:00am,11:00pm,8:00am,11:00pm,8:00am,11:00pm,8:00am,11:00pm,8:00am,11:00pm,-114.016,50.9833,2013-09-23 05:16:23 UTC,2013-09-23 05:16:23 UTC
755 Lake Bonavista Dr Se,Calgary,Safeway,(403) 271-1616,AB,T2J 0N3,8:00am,11:00pm,8:00am,11:00pm,8:00am,11:00pm,8:00am,11:00pm,8:00am,11:00pm,8:00am,11:00pm,8:00am,11:00pm,-114.046,50.9427,2013-09-23 05:16:23 UTC,2013-09-23 05:16:23 UTC
9737 Macleod Trail S,Calgary,Safeway,(403) 252-8199,AB,T2J 0P6,8:00am,11:00pm,8:00am,11:00pm,8:00am,11:00pm,8:00am,11:00pm,8:00am,11:00pm,8:00am,11:00pm,8:00am,11:00pm,-114.072,50.9673,2013-09-23 05:16:23 UTC,2013-09-23 05:16:23 UTC
11011 Bonaventure Dr Se,Calgary,Safeway,(403) 278-5225,AB,T2J 6S1,8:00am,11:00pm,8:00am,11:00pm,8:00am,11:00pm,8:00am,11:00pm,8:00am,11:00pm,8:00am,11:00pm,8:00am,11:00pm,-114.063,50.9539,2013-09-23 05:16:23 UTC,2013-09-23 05:16:23 UTC
5611 - 4 St Nw,Calgary,Safeway,(403) 275-2192,AB,T2K 1B2,10:00am,11:00pm,10:00am,11:00pm,10:00am,11:00pm,10:00am,11:00pm,10:00am,11:00pm,10:00am,11:00pm,10:00am,11:00pm,-114.071,51.1013,2013-09-23 05:16:23 UTC,2013-09-23 05:16:23 UTC
5607 4 St Nw,Calgary,Safeway,(403) 730-4955,AB,T2K 1B3,8:00am,11:00pm,8:00am,11:00pm,8:00am,11:00pm,8:00am,11:00pm,8:00am,11:00pm,8:00am,11:00pm,8:00am,11:00pm,-114.071,51.1013,2013-09-23 05:16:23 UTC,2013-09-23 05:16:23 UTC
3636 Brentwood Rd Nw,Calgary,Safeway,(403) 289-1424,AB,T2L 1K8,8:00am,11:00pm,8:00am,11:00pm,8:00am,11:00pm,8:00am,11:00pm,8:00am,11:00pm,8:00am,11:00pm,8:00am,11:00pm,-114.127,51.085,2013-09-23 05:16:24 UTC,2013-09-23 05:16:24 UTC
1846 - 1632 14 Ave Nw,Calgary,Safeway,(403) 210-0002,AB,T2N 1M7,8:00am,11:00pm,8:00am,11:00pm,8:00am,11:00pm,8:00am,11:00pm,8:00am,11:00pm,8:00am,11:00pm,8:00am,11:00pm,-114.103,51.0652,2013-09-23 05:16:24 UTC,2013-09-23 05:16:24 UTC
410 10 St Nw,Calgary,Safeway,(403) 270-3054,AB,T2N 1V9,8:00am,11:00pm,8:00am,11:00pm,8:00am,11:00pm,8:00am,11:00pm,8:00am,11:00pm,8:00am,11:00pm,8:00am,11:00pm,-114.086,51.0561,2013-09-23 05:16:24 UTC,2013-09-23 05:16:24 UTC
1818 Centre St Ne,Calgary,Safeway,(403) 276-3328,AB,T2P 2S6,8:00am,11:00pm,8:00am,11:00pm,8:00am,11:00pm,8:00am,11:00pm,8:00am,11:00pm,8:00am,11:00pm,8:00am,11:00pm,-114.063,51.068,2013-09-23 05:16:24 UTC,2013-09-23 05:16:24 UTC
813 11 Ave  Sw,Calgary,Safeway,(403) 264-1375,AB,T2R 0E6,8:00am,11:00pm,8:00am,11:00pm,8:00am,11:00pm,8:00am,11:00pm,8:00am,11:00pm,8:00am,11:00pm,8:00am,11:00pm,-114.079,51.0428,2013-09-23 05:16:24 UTC,2013-09-23 05:16:24 UTC
524 Elbow Dr Sw,Calgary,Safeway,(403) 228-6141,AB,T2S 2H6,8:00am,11:00pm,8:00am,11:00pm,8:00am,11:00pm,8:00am,11:00pm,8:00am,11:00pm,8:00am,11:00pm,8:00am,11:00pm,-114.072,51.0297,2013-09-23 05:16:24 UTC,2013-09-23 05:16:24 UTC
2425 34 Ave Sw,Calgary,Safeway,(403) 240-1098,AB,T2T 6E3,8:00am,11:00pm,8:00am,11:00pm,8:00am,11:00pm,8:00am,11:00pm,8:00am,11:00pm,8:00am,11:00pm,8:00am,11:00pm,-114.115,51.0231,2013-09-23 05:16:24 UTC,2013-09-23 05:16:24 UTC
3553 Garrison Gate Sw,Calgary,Safeway,(403) 240-9304,AB,T2T 6E4,10:00am,11:00pm,10:00am,11:00pm,10:00am,11:00pm,10:00am,11:00pm,10:00am,11:00pm,10:00am,11:00pm,10:00am,11:00pm,-114.114,51.0224,2013-09-23 05:16:24 UTC,2013-09-23 05:16:24 UTC
1600 90 Ave Sw,Calgary,Safeway,(403) 255-2755,AB,T2V 5A8,8:00am,11:00pm,8:00am,11:00pm,8:00am,11:00pm,8:00am,11:00pm,8:00am,11:00pm,8:00am,11:00pm,8:00am,11:00pm,-114.096,50.9723,2013-09-23 05:16:24 UTC,2013-09-23 05:16:24 UTC
2525 Woodview Dr Sw,Calgary,Safeway,(403) 238-1400,AB,T2W 4N7,8:00am,11:00pm,8:00am,11:00pm,8:00am,11:00pm,8:00am,11:00pm,8:00am,11:00pm,8:00am,11:00pm,8:00am,11:00pm,-114.119,50.9411,2013-09-23 05:16:24 UTC,2013-09-23 05:16:24 UTC
70 Shawville Blvd Sw,Calgary,Safeway,(403) 256-1401,AB,T2Y 2Z3,8:00am,11:00pm,8:00am,11:00pm,8:00am,11:00pm,8:00am,11:00pm,8:00am,11:00pm,8:00am,11:00pm,8:00am,11:00pm,-114.067,50.9068,2013-09-23 05:16:24 UTC,2013-09-23 05:16:24 UTC
4915 130 Ave. S.East,Calgary,Safeway,(403) 257-8510,AB,T2Z 3V8,8:00am,11:00pm,8:00am,11:00pm,8:00am,11:00pm,8:00am,11:00pm,8:00am,11:00pm,8:00am,11:00pm,8:00am,11:00pm,-113.964,50.9318,2013-09-23 05:16:24 UTC,2013-09-23 05:16:24 UTC
4915 - 130 Ave Se,Calgary,Safeway,(403) 257-8541,AB,T2Z 3V8,10:00am,11:00pm,10:00am,11:00pm,10:00am,11:00pm,10:00am,11:00pm,10:00am,11:00pm,10:00am,11:00pm,10:00am,11:00pm,-113.964,50.9318,2013-09-23 05:16:24 UTC,2013-09-23 05:16:24 UTC
3625 Shaganappi Trail Nw,Calgary,Safeway,(403) 286-5510,AB,T3A 0E2,8:00am,11:00pm,8:00am,11:00pm,8:00am,11:00pm,8:00am,11:00pm,8:00am,11:00pm,8:00am,11:00pm,8:00am,11:00pm,-114.153,51.0856,2013-09-23 05:16:24 UTC,2013-09-23 05:16:24 UTC
100-5005 Dalhousie Dr Nw,Calgary,Safeway,(403) 202-0425,AB,T3A 5R8,8:00am,11:00pm,8:00am,11:00pm,8:00am,11:00pm,8:00am,11:00pm,8:00am,11:00pm,8:00am,11:00pm,8:00am,11:00pm,-114.143,51.1027,2013-09-23 05:16:24 UTC,2013-09-23 05:16:24 UTC
5048 16 Ave Nw,Calgary,Safeway,(403) 288-3219,AB,T3B 0N3,8:00am,11:00pm,8:00am,11:00pm,8:00am,11:00pm,8:00am,11:00pm,8:00am,11:00pm,8:00am,11:00pm,8:00am,11:00pm,-114.166,51.0736,2013-09-23 05:16:24 UTC,2013-09-23 05:16:24 UTC
1200 37 St Sw,Calgary,Safeway,(403) 246-0003,AB,T3C 1S1,8:00am,11:00pm,8:00am,11:00pm,8:00am,11:00pm,8:00am,11:00pm,8:00am,11:00pm,8:00am,11:00pm,8:00am,11:00pm,-114.141,51.0415,2013-09-23 05:16:24 UTC,2013-09-23 05:16:24 UTC
3737-37 St Sw,Calgary,Safeway,(403) 698-8222,AB,T3E 6L6,8:00am,11:00pm,8:00am,11:00pm,8:00am,11:00pm,8:00am,11:00pm,8:00am,11:00pm,8:00am,11:00pm,8:00am,11:00pm,-114.141,51.0214,2013-09-23 05:16:24 UTC,2013-09-23 05:16:24 UTC
65 Crowfoot Crescent Nw,Calgary,Safeway,(403) 241-3814,AB,T3G 2L5,10:00am,11:00pm,10:00am,11:00pm,10:00am,11:00pm,10:00am,11:00pm,10:00am,11:00pm,10:00am,11:00pm,10:00am,11:00pm,-114.199,51.1261,2013-09-23 05:16:24 UTC,2013-09-23 05:16:24 UTC
99 Crowfoot Crescent Nw,Calgary,Safeway,(403) 239-9000,AB,T3G 2L5,8:00am,11:00pm,8:00am,11:00pm,8:00am,11:00pm,8:00am,11:00pm,8:00am,11:00pm,8:00am,11:00pm,8:00am,11:00pm,-114.198,51.1266,2013-09-23 05:16:24 UTC,2013-09-23 05:16:24 UTC
375 Aspen Glen Landing Sw,Calgary,Safeway,(403) 217-5521,AB,T3H 0N6,8:00am,11:00pm,8:00am,11:00pm,8:00am,11:00pm,8:00am,11:00pm,8:00am,11:00pm,8:00am,11:00pm,8:00am,11:00pm,-114.201,51.0388,2013-09-23 05:16:24 UTC,2013-09-23 05:16:24 UTC
200 Stewart Green Sw,Calgary,Safeway,(403) 246-4484,AB,T3H 3C8,8:00am,11:00pm,8:00am,11:00pm,8:00am,11:00pm,8:00am,11:00pm,8:00am,11:00pm,8:00am,11:00pm,8:00am,11:00pm,-114.169,51.0156,2013-09-23 05:16:24 UTC,2013-09-23 05:16:24 UTC
76 Saddletowne Cir. Ne,Calgary,Safeway,(403) 280-3497,AB,T3J 0H5,10:00am,11:00pm,10:00am,11:00pm,10:00am,11:00pm,10:00am,11:00pm,10:00am,11:00pm,10:00am,11:00pm,10:00am,11:00pm,-113.955,51.1301,2013-09-23 05:16:25 UTC,2013-09-23 05:16:25 UTC
33 Castleridge Boulevard NE,Calgary,Safeway,(403) 293-0255,AB,T3J 3J8,8:00am,11:00pm,8:00am,11:00pm,8:00am,11:00pm,8:00am,11:00pm,8:00am,11:00pm,8:00am,11:00pm,8:00am,11:00pm,-113.951,51.1087,2013-09-23 05:16:25 UTC,2013-09-23 05:16:25 UTC
850 Saddletowne Cir. Ne,Calgary,Safeway,(403) 293-0915,AB,T3J 5M1,8:00am,11:00pm,8:00am,11:00pm,8:00am,11:00pm,8:00am,11:00pm,8:00am,11:00pm,8:00am,11:00pm,8:00am,11:00pm,-113.944,51.1248,2013-09-23 05:16:25 UTC,2013-09-23 05:16:25 UTC
8120 Beddington Blvd Nw,Calgary,Safeway,(403) 295-6895,AB,T3K 2A8,8:00am,11:00pm,8:00am,11:00pm,8:00am,11:00pm,8:00am,11:00pm,8:00am,11:00pm,8:00am,11:00pm,8:00am,11:00pm,-114.073,51.1253,2013-09-23 05:16:25 UTC,2013-09-23 05:16:25 UTC
6800 48Th Ave,Camrose,Safeway,(780) 672-1211,AB,T4V 4T1,7:00am,10:00pm,7:00am,10:00pm,7:00am,10:00pm,7:00am,10:00pm,7:00am,10:00pm,7:00am,10:00pm,10:00am,6:00pm,-112.859,53.018,2013-09-23 05:16:25 UTC,2013-09-23 05:16:25 UTC
1200 Railway Ave,Canmore,Safeway,(403) 609-4655,AB,T1W 1P4,10:00am,11:00pm,10:00am,11:00pm,10:00am,11:00pm,10:00am,11:00pm,10:00am,11:00pm,10:00am,11:00pm,10:00am,11:00pm,-115.358,51.0924,2013-09-23 05:16:25 UTC,2013-09-23 05:16:25 UTC
1200 Railway Ave,Canmore,Safeway,(403) 609-2955,AB,T1W 1R4,8:00am,11:00pm,8:00am,11:00pm,8:00am,11:00pm,8:00am,11:00pm,8:00am,11:00pm,8:00am,11:00pm,8:00am,11:00pm,-115.358,51.0924,2013-09-23 05:16:25 UTC,2013-09-23 05:16:25 UTC
100 - 135 Chestermere Station Way,Chestermere,Safeway,(403) 410-9700,AB,T1X 1V2,8:00am,11:00pm,8:00am,11:00pm,8:00am,11:00pm,8:00am,11:00pm,8:00am,11:00pm,8:00am,11:00pm,8:00am,11:00pm,-113.824,51.0507,2013-09-23 05:16:25 UTC,2013-09-23 05:16:25 UTC
304 5 Ave W,Cochrane,Safeway,(403) 851-1290,AB,T0L 0W4,8:00am,10:00pm,8:00am,10:00pm,8:00am,10:00pm,8:00am,10:00pm,8:00am,10:00pm,8:00am,10:00pm,8:00am,10:00pm,-114.478,51.1848,2013-09-23 05:16:25 UTC,2013-09-23 05:16:25 UTC
304B - 5 Ave W,Cochrane,Safeway,(403) 932-8941,AB,T4C 2A5,10:00am,10:00pm,10:00am,10:00pm,10:00am,10:00pm,10:00am,10:00pm,10:00am,10:00pm,10:00am,10:00pm,10:00am,10:00pm,-114.478,51.1848,2013-09-23 05:16:25 UTC,2013-09-23 05:16:25 UTC
500 Manning Crossing,Edmonton,Safeway,(780) 475-2896,AB,T5A 5A1,7:00am,11:00pm,7:00am,11:00pm,7:00am,11:00pm,7:00am,11:00pm,7:00am,11:00pm,7:00am,11:00pm,7:00am,11:00pm,-113.422,53.6015,2013-09-23 05:16:25 UTC,2013-09-23 05:16:25 UTC
8118 118 Ave,Edmonton,Safeway,(780) 477-6459,AB,T5B 0V9,7:00am,11:00pm,7:00am,11:00pm,7:00am,11:00pm,7:00am,11:00pm,7:00am,11:00pm,7:00am,11:00pm,7:00am,11:00pm,-113.466,53.5704,2013-09-23 05:16:25 UTC,2013-09-23 05:16:25 UTC
9499 137Th Ave #200,Edmonton,Safeway,(780) 406-6455,AB,T5E 5R8,7:00am,11:00pm,7:00am,11:00pm,7:00am,11:00pm,7:00am,11:00pm,7:00am,11:00pm,7:00am,11:00pm,7:00am,11:00pm,-113.488,53.5995,2013-09-23 05:16:25 UTC,2013-09-23 05:16:25 UTC
11410 104 Ave,Edmonton,Safeway,(780) 424-1087,AB,T5K 2F5,7:00am,11:00pm,7:00am,11:00pm,7:00am,11:00pm,7:00am,11:00pm,7:00am,11:00pm,7:00am,11:00pm,7:00am,11:00pm,-113.518,53.5463,2013-09-23 05:16:25 UTC,2013-09-23 05:16:25 UTC
12950 137 Ave Nw,Edmonton,Safeway,(780) 377-2402,AB,T5L 5G1,7:00am,11:00pm,7:00am,11:00pm,7:00am,11:00pm,7:00am,11:00pm,7:00am,11:00pm,7:00am,11:00pm,7:00am,11:00pm,-113.556,53.5886,2013-09-23 05:16:26 UTC,2013-09-23 05:16:26 UTC
Groat Rd Nw & 111 Ave Nw,Edmonton,Safeway,(780) 451-1860,AB,T5M 3L8,7:00am,11:00pm,7:00am,11:00pm,7:00am,11:00pm,7:00am,11:00pm,7:00am,11:00pm,7:00am,11:00pm,7:00am,11:00pm,-113.552,53.559,2013-09-23 05:16:26 UTC,2013-09-23 05:16:26 UTC
15007 Stony Plain Rd,Edmonton,Safeway,(780) 483-3255,AB,T5P 4W1,7:00am,11:00pm,7:00am,11:00pm,7:00am,11:00pm,7:00am,11:00pm,7:00am,11:00pm,7:00am,11:00pm,7:00am,11:00pm,-113.581,53.5413,2013-09-23 05:16:26 UTC,2013-09-23 05:16:26 UTC
2534 Guardian Rd Nw,Edmonton,Safeway,(780) 490-0418,AB,T5P 6X9,7:00am,11:00pm,7:00am,11:00pm,7:00am,11:00pm,7:00am,11:00pm,7:00am,11:00pm,7:00am,11:00pm,7:00am,11:00pm,-113.677,53.5107,2013-09-23 05:16:26 UTC,2013-09-23 05:16:26 UTC
8720 156 St,Edmonton,Safeway,(780) 486-0584,AB,T5R 5W9,7:00am,11:00pm,7:00am,11:00pm,7:00am,11:00pm,7:00am,11:00pm,7:00am,11:00pm,7:00am,11:00pm,7:00am,11:00pm,-113.59,53.5197,2013-09-23 05:16:26 UTC,2013-09-23 05:16:26 UTC
600-6655 178 St,Edmonton,Safeway,(780) 487-1050,AB,T5T 4J5,7:00am,11:00pm,7:00am,11:00pm,7:00am,11:00pm,7:00am,11:00pm,7:00am,11:00pm,7:00am,11:00pm,7:00am,11:00pm,-113.63,53.5149,2013-09-23 05:16:26 UTC,2013-09-23 05:16:26 UTC
9710 170 St,Edmonton,Safeway,(780) 486-4242,AB,T5T 4T7,7:00am,11:00pm,7:00am,11:00pm,7:00am,11:00pm,7:00am,11:00pm,7:00am,11:00pm,7:00am,11:00pm,7:00am,11:00pm,-113.615,53.5341,2013-09-23 05:16:26 UTC,2013-09-23 05:16:26 UTC
3210 118 Ave,Edmonton,Safeway,(780) 477-6923,AB,T5W 0Z8,8:00am,10:00pm,8:00am,10:00pm,8:00am,10:00pm,8:00am,10:00pm,8:00am,10:00pm,8:00am,10:00pm,8:00am,10:00pm,-113.391,53.5704,2013-09-23 05:16:26 UTC,2013-09-23 05:16:26 UTC
5004 98 Ave. N.West,Edmonton,Safeway,(780) 466-9001,AB,T6A 0A1,7:00am,11:00pm,7:00am,11:00pm,7:00am,11:00pm,7:00am,11:00pm,7:00am,11:00pm,7:00am,11:00pm,7:00am,11:00pm,-113.42,53.5379,2013-09-23 05:16:26 UTC,2013-09-23 05:16:26 UTC
185-8330 82 Ave,Edmonton,Safeway,(780) 469-9464,AB,T6C 4E3,7:00am,11:00pm,7:00am,11:00pm,7:00am,11:00pm,7:00am,11:00pm,7:00am,11:00pm,7:00am,11:00pm,7:00am,11:00pm,-113.444,53.518,2013-09-23 05:16:26 UTC,2013-09-23 05:16:26 UTC
10930 82 Ave,Edmonton,Safeway,(780) 433-6930,AB,T6G 0S8,8:00am,11:59pm,8:00am,11:59pm,8:00am,11:59pm,8:00am,11:59pm,8:00am,11:59pm,8:00am,11:59pm,8:00am,11:59pm,-113.513,53.5182,2013-09-23 05:16:26 UTC,2013-09-23 05:16:26 UTC
111 St Nw & 51 Ave Nw,Edmonton,Safeway,(780) 435-5132,AB,T6H 4M8,7:00am,11:00pm,7:00am,11:00pm,7:00am,11:00pm,7:00am,11:00pm,7:00am,11:00pm,7:00am,11:00pm,7:00am,11:00pm,-113.49,53.5462,2013-09-23 05:16:26 UTC,2013-09-23 05:16:26 UTC
2310 109 St,Edmonton,Safeway,(780) 430-4278,AB,T6J 3S8,7:00am,11:00pm,7:00am,11:00pm,7:00am,11:00pm,7:00am,11:00pm,7:00am,11:00pm,7:00am,11:00pm,7:00am,11:00pm,-113.509,53.454,2013-09-23 05:16:26 UTC,2013-09-23 05:16:26 UTC
100 Millbourne Shopping Centre Nw,Edmonton,Safeway,(780) 462-4424,AB,T6K 3L6,9:00am,10:00pm,9:00am,10:00pm,9:00am,10:00pm,9:00am,10:00pm,9:00am,10:00pm,9:00am,6:00pm,10:00am,6:00pm,-113.505,53.5567,2013-09-23 05:16:26 UTC,2013-09-23 05:16:26 UTC
2331 66 St,Edmonton,Safeway,(780) 450-8180,AB,T6K 4B4,7:00am,11:00pm,7:00am,11:00pm,7:00am,11:00pm,7:00am,11:00pm,7:00am,11:00pm,7:00am,11:00pm,7:00am,11:00pm,-113.434,53.4544,2013-09-23 05:16:26 UTC,2013-09-23 05:16:26 UTC
576 Riverbend Square Nw,Edmonton,Safeway,(780) 434-6124,AB,T6R 2E3,7:00am,11:00pm,7:00am,11:00pm,7:00am,11:00pm,7:00am,11:00pm,7:00am,11:00pm,7:00am,11:00pm,7:00am,11:00pm,-113.587,53.4687,2013-09-23 05:16:26 UTC,2013-09-23 05:16:26 UTC
12956 - 137 Ave NW,Edmonton,Safeway,(780) 475-5905,AB,T6V 1P1,10:00am,10:00pm,10:00am,10:00pm,10:00am,10:00pm,10:00am,10:00pm,10:00am,11:00pm,10:00am,11:00pm,10:00am,8:00pm,-113.543,53.6021,2013-09-23 05:16:26 UTC,2013-09-23 05:16:26 UTC
5110 Windermere Blvd Nw,Edmonton,Safeway,(780) 436-1854,AB,T6W 0L9,7:00am,11:00pm,7:00am,11:00pm,7:00am,11:00pm,7:00am,11:00pm,7:00am,11:00pm,7:00am,11:00pm,7:00am,11:00pm,-113.615,53.4502,2013-09-23 05:16:26 UTC,2013-09-23 05:16:26 UTC
9601 Franklin Ave,Fort Mcmurray,Safeway,(780) 790-1988,AB,T9H 2J8,7:00am,10:00pm,7:00am,10:00pm,7:00am,10:00pm,7:00am,10:00pm,7:00am,10:00pm,7:00am,10:00pm,7:00am,10:00pm,-111.37,56.723,2013-09-23 05:16:26 UTC,2013-09-23 05:16:26 UTC
121 Signal Road,Fort Mcmurray,Safeway,(780) 791-3909,AB,T9H 4N6,7:00am,10:00pm,7:00am,10:00pm,7:00am,10:00pm,7:00am,10:00pm,7:00am,10:00pm,7:00am,10:00pm,7:00am,10:00pm,-111.426,56.7317,2013-09-23 05:16:27 UTC,2013-09-23 05:16:27 UTC
9450-86 Ave,Fort Saskatchewan,Safeway,(780) 998-4065,AB,T8L 4P4,7:00am,10:00pm,7:00am,10:00pm,7:00am,10:00pm,7:00am,10:00pm,7:00am,10:00pm,7:00am,10:00pm,7:00am,10:00pm,-113.237,53.6907,2013-09-23 05:16:27 UTC,2013-09-23 05:16:27 UTC
9925 114 Ave,Grande Prairie,Safeway,(780) 532-7517,AB,T8V 2N7,8:00am,11:00pm,8:00am,11:00pm,8:00am,11:00pm,8:00am,11:00pm,8:00am,11:00pm,8:00am,11:00pm,8:00am,11:00pm,-118.792,55.1836,2013-09-23 05:16:27 UTC,2013-09-23 05:16:27 UTC
8060 100 St,Grande Prairie,Safeway,(780) 833-8620,AB,T8V 6H7,8:00am,11:00pm,8:00am,11:00pm,8:00am,11:00pm,8:00am,11:00pm,8:00am,11:00pm,8:00am,11:00pm,8:00am,11:00pm,-118.795,55.154,2013-09-23 05:16:27 UTC,2013-09-23 05:16:27 UTC
500-900 Carmichael Lane,Hinton,Safeway,(780) 865-5982,AB,T7V 1V6,7:00am,10:00pm,7:00am,10:00pm,7:00am,10:00pm,7:00am,10:00pm,7:00am,10:00pm,7:00am,10:00pm,7:00am,10:00pm,-117.602,53.3959,2013-09-23 05:16:27 UTC,2013-09-23 05:16:27 UTC
6112 50 St,Leduc,Safeway,(780) 986-0407,AB,T9E 6N7,7:00am,11:00pm,7:00am,11:00pm,7:00am,11:00pm,7:00am,11:00pm,7:00am,11:00pm,7:00am,11:00pm,7:00am,11:00pm,-113.549,53.2763,2013-09-23 05:16:27 UTC,2013-09-23 05:16:27 UTC
6106 - 50 St,Leduc,Safeway,(780) 986-0050,AB,T9E 6P2,10:00am,10:00pm,10:00am,10:00pm,10:00am,10:00pm,10:00am,10:00pm,10:00am,10:00pm,10:00am,10:00pm,10:00am,10:00pm,-113.549,53.276,2013-09-23 05:16:27 UTC,2013-09-23 05:16:27 UTC
1702 23 St N,Lethbridge,Safeway,(403) 320-2231,AB,T1H 5B3,8:00am,11:00pm,8:00am,11:00pm,8:00am,11:00pm,8:00am,11:00pm,8:00am,11:00pm,8:00am,11:00pm,8:00am,11:00pm,-112.81,49.7202,2013-09-23 05:16:27 UTC,2013-09-23 05:16:27 UTC
2750 Fairway Plaza Rd,Lethbridge,Safeway,(403) 328-8444,AB,T1J 3Y7,8:00am,11:00pm,8:00am,11:00pm,8:00am,11:00pm,8:00am,11:00pm,8:00am,11:00pm,8:00am,11:00pm,8:00am,11:00pm,-112.795,49.668,2013-09-23 05:16:27 UTC,2013-09-23 05:16:27 UTC
1-550 University Dr,Lethbridge,Safeway,(403) 329-6382,AB,T1J 4T3,8:00am,11:00pm,8:00am,11:00pm,8:00am,11:00pm,8:00am,11:00pm,8:00am,11:00pm,8:00am,11:00pm,8:00am,11:00pm,-112.894,49.7002,2013-09-23 05:16:27 UTC,2013-09-23 05:16:27 UTC
2605 Fair Plaza Rd S,Lethbridge,Safeway,(403) 380-2614,AB,T1K 6Z2,10:00am,11:00pm,10:00am,11:00pm,10:00am,11:00pm,10:00am,11:00pm,10:00am,11:00pm,10:00am,11:00pm,10:00am,11:00pm,-112.794,49.6672,2013-09-23 05:16:27 UTC,2013-09-23 05:16:27 UTC
5211 44Th St,Lloydminster,Safeway,(780) 875-3448,AB,T9V 0A7,9:00am,9:00pm,9:00am,9:00pm,9:00am,9:00pm,9:00am,9:00pm,9:00am,9:00pm,8:00am,9:00pm,10:00am,6:00pm,-110.011,53.278,2013-09-23 05:16:27 UTC,2013-09-23 05:16:27 UTC
615 Division Ave Se,Medicine Hat,Safeway,(403) 504-2920,AB,T1A 2J9,8:00am,11:00pm,8:00am,11:00pm,8:00am,11:00pm,8:00am,11:00pm,8:00am,11:00pm,8:00am,11:00pm,8:00am,11:00pm,-110.687,50.049,2013-09-23 05:16:27 UTC,2013-09-23 05:16:27 UTC
97 - 8 St Nw,Medicine Hat,Safeway,(403) 527-1494,AB,T1A 6N9,8:00am,11:00pm,8:00am,11:00pm,8:00am,11:00pm,8:00am,11:00pm,8:00am,11:00pm,8:00am,11:00pm,8:00am,11:00pm,-110.69,50.0498,2013-09-23 05:16:27 UTC,2013-09-23 05:16:27 UTC
3292 Dunmore Rd Se,Medicine Hat,Safeway,(403) 527-7537,AB,T1B 2R4,8:00am,11:00pm,8:00am,11:00pm,8:00am,11:00pm,8:00am,11:00pm,8:00am,11:00pm,8:00am,11:00pm,8:00am,11:00pm,-110.646,50.007,2013-09-23 05:16:27 UTC,2013-09-23 05:16:27 UTC
610 Big Rock Lane,Okotoks,Safeway,(403) 938-9341,AB,T0L 1T0,8:00am,10:00pm,8:00am,10:00pm,8:00am,10:00pm,8:00am,10:00pm,8:00am,10:00pm,8:00am,10:00pm,8:00am,10:00pm,-113.98,50.7169,2013-09-23 05:16:27 UTC,2013-09-23 05:16:27 UTC
4407 50th Avenue,Red Deer,Safeway,(403) 346-1886,AB,T4N 3Z5,8:00am,11:00pm,8:00am,11:00pm,8:00am,11:00pm,8:00am,11:00pm,8:00am,11:00pm,8:00am,11:00pm,8:00am,11:00pm,-113.814,52.2635,2013-09-23 05:16:27 UTC,2013-09-23 05:16:27 UTC
6319 50 Ave,Red Deer,Safeway,(403) 343-0224,AB,T4N 4C7,8:00am,11:00pm,8:00am,11:00pm,8:00am,11:00pm,8:00am,11:00pm,8:00am,11:00pm,8:00am,11:00pm,8:00am,11:00pm,-113.815,52.2824,2013-09-23 05:16:27 UTC,2013-09-23 05:16:27 UTC
2020 Sherwood Dr,Sherwood Park,Safeway,(780) 467-3037,AB,T8A 3H9,7:00am,11:00pm,7:00am,11:00pm,7:00am,11:00pm,7:00am,11:00pm,7:00am,11:00pm,7:00am,11:00pm,7:00am,11:00pm,-113.296,53.5303,2013-09-23 05:16:27 UTC,2013-09-23 05:16:27 UTC
985 Fir St,Sherwood Park,Safeway,(780) 467-0177,AB,T8A 4N5,7:00am,11:00pm,7:00am,11:00pm,7:00am,11:00pm,7:00am,11:00pm,7:00am,11:00pm,7:00am,11:00pm,7:00am,11:00pm,-113.325,53.5139,2013-09-23 05:16:27 UTC,2013-09-23 05:16:27 UTC
94 Mcleod Ave,Spruce Grove,Safeway,(780) 962-9183,AB,T7X 1R2,7:00am,11:00pm,7:00am,11:00pm,7:00am,11:00pm,7:00am,11:00pm,7:00am,11:00pm,7:00am,11:00pm,7:00am,11:00pm,-113.911,53.5423,2013-09-23 05:16:27 UTC,2013-09-23 05:16:27 UTC
2 Hebert Rd,St. Albert,Safeway,(780) 460-9356,AB,T8N 5T8,7:00am,11:00pm,7:00am,11:00pm,7:00am,11:00pm,7:00am,11:00pm,7:00am,11:00pm,7:00am,11:00pm,7:00am,11:00pm,-113.609,53.6218,2013-09-23 05:16:27 UTC,2013-09-23 05:16:27 UTC
395 St Albert Trail,St. Albert,Safeway,(780) 458-3620,AB,T8N 5Z9,7:00am,11:00pm,7:00am,11:00pm,7:00am,11:00pm,7:00am,11:00pm,7:00am,11:00pm,7:00am,11:00pm,7:00am,11:00pm,-113.626,53.6436,2013-09-23 05:16:27 UTC,2013-09-23 05:16:27 UTC
4202 S Park Dr,Stony Plain,Safeway,(780) 963-2330,AB,T7Z 1X8,7:00am,11:00pm,7:00am,11:00pm,7:00am,11:00pm,7:00am,11:00pm,7:00am,11:00pm,7:00am,11:00pm,7:00am,11:00pm,-113.979,53.5411,2013-09-23 05:16:28 UTC,2013-09-23 05:16:28 UTC
4926 46 Ave,Taber,Safeway,(403) 223-5749,AB,T1G 2A4,8:00am,11:00pm,8:00am,11:00pm,8:00am,11:00pm,8:00am,11:00pm,8:00am,11:00pm,8:00am,11:00pm,8:00am,11:00pm,-112.151,49.7815,2013-09-23 05:16:28 UTC,2013-09-23 05:16:28 UTC
3905 56 St,Wetaskiwin,Safeway,(780) 352-2041,AB,T9A 2B1,7:00am,10:00pm,7:00am,10:00pm,7:00am,10:00pm,7:00am,10:00pm,7:00am,10:00pm,7:00am,10:00pm,7:00am,9:00pm,-113.39,52.9586,2013-09-23 05:16:28 UTC,2013-09-23 05:16:28 UTC
535 S Cariboo Hwy,100 Mile House,Safeway,(250) 395-4952,BC,V0K 2E0,7:00am,10:00pm,7:00am,10:00pm,7:00am,10:00pm,7:00am,10:00pm,7:00am,10:00pm,7:00am,10:00pm,7:00am,10:00pm,-121.296,51.6466,2013-09-23 05:16:28 UTC,2013-09-23 05:16:28 UTC
100-32500 S Fraser Way,Abbotsford,Safeway,(604) 850-2316,BC,V2T 4W1,7:00am,11:59pm,7:00am,11:59pm,7:00am,11:59pm,7:00am,11:59pm,7:00am,11:59pm,7:00am,11:59pm,7:00am,11:59pm,-122.343,49.0476,2013-09-23 05:16:28 UTC,2013-09-23 05:16:28 UTC
400-9855 Austin Rd,Burnaby,Safeway,(604) 420-3420,BC,V3J 1N4,7:00am,11:59pm,7:00am,11:59pm,7:00am,11:59pm,7:00am,11:59pm,7:00am,11:59pm,7:00am,11:59pm,7:00am,11:59pm,-122.897,49.2488,2013-09-23 05:16:28 UTC,2013-09-23 05:16:28 UTC
6564 E Hastings St,Burnaby,Safeway,(604) 291-2901,BC,V5B 1S2,7:00am,11:59pm,7:00am,11:59pm,7:00am,11:59pm,7:00am,11:59pm,7:00am,11:59pm,7:00am,11:59pm,7:00am,11:59pm,-122.968,49.2803,2013-09-23 05:16:28 UTC,2013-09-23 05:16:28 UTC
4440  Hastings St,Burnaby,Safeway,(604) 205-6922,BC,V5C 2K2,7:00am,11:59pm,7:00am,11:59pm,7:00am,11:59pm,7:00am,11:59pm,7:00am,11:59pm,7:00am,11:59pm,7:00am,11:59pm,-123.005,49.281,2013-09-23 05:16:28 UTC,2013-09-23 05:16:28 UTC
5235 Kingsway,Burnaby,Safeway,(604) 438-0838,BC,V5H 4G1,7:00am,11:59pm,7:00am,11:59pm,7:00am,11:59pm,7:00am,11:59pm,7:00am,11:59pm,7:00am,11:59pm,7:00am,11:59pm,-122.988,49.2248,2013-09-23 05:16:28 UTC,2013-09-23 05:16:28 UTC
1721 Columbia Ave,Castlegar,Safeway,(250) 365-7771,BC,V1N 2W6,7:00am,10:00pm,7:00am,10:00pm,7:00am,10:00pm,7:00am,10:00pm,7:00am,10:00pm,7:00am,10:00pm,7:00am,10:00pm,-117.658,49.3015,2013-09-23 05:16:28 UTC,2013-09-23 05:16:28 UTC
45850 Yale Rd,Chilliwack,Safeway,(604) 795-6428,BC,V2P 4N6,7:00am,11:59pm,7:00am,11:59pm,7:00am,11:59pm,7:00am,11:59pm,7:00am,11:59pm,7:00am,11:59pm,7:00am,11:59pm,-121.959,49.1648,2013-09-23 05:16:28 UTC,2013-09-23 05:16:28 UTC
45610 Luckakuck Way,Chilliwack,Safeway,(604) 858-8115,BC,V2R 1A2,7:00am,11:59pm,7:00am,11:59pm,7:00am,11:59pm,7:00am,11:59pm,7:00am,11:59pm,7:00am,11:59pm,7:00am,11:59pm,-121.962,49.1408,2013-09-23 05:16:28 UTC,2013-09-23 05:16:28 UTC
100-3025 Lougheed Hwy,Coquitlam,Safeway,(604) 941-8212,BC,V3B 1C6,7:00am,11:59pm,7:00am,11:59pm,7:00am,11:59pm,7:00am,11:59pm,7:00am,11:59pm,7:00am,11:59pm,7:00am,11:59pm,-122.791,49.2734,2013-09-23 05:16:28 UTC,2013-09-23 05:16:28 UTC
580 Clarke Rd,Coquitlam,Safeway,(604) 936-8143,BC,V3J 3X5,7:00am,11:59pm,7:00am,11:59pm,7:00am,11:59pm,7:00am,11:59pm,7:00am,11:59pm,7:00am,11:59pm,7:00am,11:59pm,-122.889,49.2625,2013-09-23 05:16:28 UTC,2013-09-23 05:16:28 UTC
1033 Austin Rd,Coquitlam,Safeway,(604) 939-2850,BC,V3K 3P2,7:00am,11:59pm,7:00am,11:59pm,7:00am,11:59pm,7:00am,11:59pm,7:00am,11:59pm,7:00am,11:59pm,7:00am,11:59pm,-122.865,49.249,2013-09-23 05:16:28 UTC,2013-09-23 05:16:28 UTC
1551 Cliffe Ave,Courtenay,Safeway,(250) 334-9284,BC,V9N 2K6,7:00am,11:00pm,7:00am,11:00pm,7:00am,11:00pm,7:00am,11:00pm,7:00am,11:00pm,7:00am,11:00pm,7:00am,11:00pm,-124.992,49.6851,2013-09-23 05:16:29 UTC,2013-09-23 05:16:29 UTC
1200 Baker St,Cranbrook,Safeway,(250) 489-1165,BC,V1C 1A8,8:00am,11:00pm,8:00am,11:00pm,8:00am,11:00pm,8:00am,11:00pm,8:00am,11:00pm,8:00am,11:00pm,8:00am,11:00pm,-115.765,49.5121,2013-09-23 05:16:29 UTC,2013-09-23 05:16:29 UTC
11200 - 8 St,Dawson Creek,Safeway,(250) 782-2253,BC,V1G 4K6,8:00am,11:00pm,8:00am,11:00pm,8:00am,11:00pm,8:00am,11:00pm,8:00am,11:00pm,8:00am,11:00pm,8:00am,11:00pm,-120.224,55.749,2013-09-23 05:16:29 UTC,2013-09-23 05:16:29 UTC
6401 120 St.,Delta,Safeway,(604) 596-4885,BC,V4E 3G3,7:00am,11:59pm,7:00am,11:59pm,7:00am,11:59pm,7:00am,11:59pm,7:00am,11:59pm,7:00am,11:59pm,7:00am,11:59pm,-122.89,49.1194,2013-09-23 05:16:29 UTC,2013-09-23 05:16:29 UTC
181 Trans Canada Highway,Duncan,Safeway,(250) 746-3993,BC,V9L 3P8,7:00am,11:00pm,7:00am,11:00pm,7:00am,11:00pm,7:00am,11:00pm,7:00am,11:00pm,7:00am,11:00pm,7:00am,11:00pm,-123.699,48.7753,2013-09-23 05:16:29 UTC,2013-09-23 05:16:29 UTC
9123 100 St,Fort St. John,Safeway,(250) 261-5477,BC,V1J 5Z2,8:00am,11:00pm,8:00am,11:00pm,8:00am,11:00pm,8:00am,11:00pm,8:00am,11:00pm,8:00am,11:00pm,8:00am,11:00pm,-120.848,56.2376,2013-09-23 05:16:29 UTC,2013-09-23 05:16:29 UTC
750 Fortune Dr,Kamloops,Safeway,(250) 376-4129,BC,V2B 2L2,7:00am,11:59pm,7:00am,11:59pm,7:00am,11:59pm,7:00am,11:59pm,7:00am,11:59pm,7:00am,11:59pm,7:00am,11:59pm,-120.359,50.6987,2013-09-23 05:16:29 UTC,2013-09-23 05:16:29 UTC
945 W Columbia St,Kamloops,Safeway,(250) 374-2811,BC,V2C 1L5,7:00am,11:59pm,7:00am,11:59pm,7:00am,11:59pm,7:00am,11:59pm,7:00am,11:59pm,7:00am,11:59pm,7:00am,11:59pm,-120.318,50.6714,2013-09-23 05:16:29 UTC,2013-09-23 05:16:29 UTC
500-2339 Hwy 97 N,Kelowna,Safeway,(250) 860-4424,BC,V1X 4H9,7:00am,11:59pm,7:00am,11:59pm,7:00am,11:59pm,7:00am,11:59pm,7:00am,11:59pm,7:00am,11:59pm,7:00am,11:59pm,-119.386,49.9244,2013-09-23 05:16:29 UTC,2013-09-23 05:16:29 UTC
697 Bernard Ave,Kelowna,Safeway,(250) 860-0332,BC,V1Y 6P4,7:00am,11:59pm,7:00am,11:59pm,7:00am,11:59pm,7:00am,11:59pm,7:00am,11:59pm,7:00am,11:59pm,7:00am,11:59pm,-119.489,49.8863,2013-09-23 05:16:29 UTC,2013-09-23 05:16:29 UTC
5275 - 48 Ave,Ladner,Safeway,(604) 940-0051,BC,V4K 1W4,7:00am,11:59pm,7:00am,11:59pm,7:00am,11:59pm,7:00am,11:59pm,7:00am,11:59pm,7:00am,11:59pm,7:00am,11:59pm,-123.077,49.0902,2013-09-23 05:16:29 UTC,2013-09-23 05:16:29 UTC
370 Trans Canada Hwy,Ladysmith,Safeway,(250) 245-8147,BC,V0R 2E0,7:00am,10:00pm,7:00am,10:00pm,7:00am,10:00pm,7:00am,10:00pm,7:00am,10:00pm,7:00am,10:00pm,7:00am,10:00pm,-123.803,48.9774,2013-09-23 05:16:29 UTC,2013-09-23 05:16:29 UTC
6153 200 St,Langley,Safeway,(604) 533-3291,BC,V2Y 1A2,7:00am,11:59pm,7:00am,11:59pm,7:00am,11:59pm,7:00am,11:59pm,7:00am,11:59pm,7:00am,11:59pm,7:00am,11:59pm,-122.669,49.1145,2013-09-23 05:16:29 UTC,2013-09-23 05:16:29 UTC
20871 Fraser Highway,Langley,Safeway,(604) 534-4363,BC,V3A 4G7,7:00am,11:59pm,7:00am,11:59pm,7:00am,11:59pm,7:00am,11:59pm,7:00am,11:59pm,7:00am,11:59pm,7:00am,11:59pm,-122.644,49.1014,2013-09-23 05:16:29 UTC,2013-09-23 05:16:29 UTC
27566 Fraser Hwy,Langley,Safeway,(604) 857-1351,BC,V4W 3N5,7:00am,11:59pm,7:00am,11:59pm,7:00am,11:59pm,7:00am,11:59pm,7:00am,11:59pm,7:00am,11:59pm,7:00am,11:59pm,-122.66,49.1055,2013-09-23 05:16:30 UTC,2013-09-23 05:16:30 UTC
20201 Lougheed Hwy,Maple Ridge,Safeway,(604) 460-1553,BC,V2X 2P6,7:00am,11:59pm,7:00am,11:59pm,7:00am,11:59pm,7:00am,11:59pm,7:00am,11:59pm,7:00am,11:59pm,7:00am,11:59pm,-122.661,49.2201,2013-09-23 05:16:30 UTC,2013-09-23 05:16:30 UTC
32520 Lougheed Highway,Mission,Safeway,(604) 826-5369,BC,V2V 1A5,7:00am,11:59pm,7:00am,11:59pm,7:00am,11:59pm,7:00am,11:59pm,7:00am,11:59pm,7:00am,11:59pm,7:00am,11:59pm,-122.323,49.1329,2013-09-23 05:16:30 UTC,2013-09-23 05:16:30 UTC
211 Anderson St,Nelson,Safeway,(250) 352-9710,BC,V1L 3X8,7:00am,10:00pm,7:00am,10:00pm,7:00am,10:00pm,7:00am,10:00pm,7:00am,10:00pm,7:00am,10:00pm,7:00am,10:00pm,-117.283,49.4999,2013-09-23 05:16:30 UTC,2013-09-23 05:16:30 UTC
800 Mcbride Blvd,New Westminster,Safeway,(604) 524-4418,BC,V3L 2B8,7:00am,11:59pm,7:00am,11:59pm,7:00am,11:59pm,7:00am,11:59pm,7:00am,11:59pm,7:00am,11:59pm,7:00am,11:59pm,-122.912,49.2224,2013-09-23 05:16:30 UTC,2013-09-23 05:16:30 UTC
198-610 6 St,New Westminster,Safeway,(604) 520-5937,BC,V3L 3C2,7:00am,11:59pm,7:00am,11:59pm,7:00am,11:59pm,7:00am,11:59pm,7:00am,11:59pm,7:00am,11:59pm,7:00am,11:59pm,-122.913,49.2071,2013-09-23 05:16:30 UTC,2013-09-23 05:16:30 UTC
800 Carnarvon St,New Westminster,Safeway,(604) 522-2019,BC,V3M 0C3,6:00am,11:59pm,6:00am,11:59pm,6:00am,11:59pm,6:00am,11:59pm,6:00am,11:59pm,6:00am,11:59pm,6:00am,11:59pm,-122.913,49.2021,2013-09-23 05:16:30 UTC,2013-09-23 05:16:30 UTC
1175 Mt Seymour Rd,North Vancouver,Safeway,(604) 924-1302,BC,V7H 2Y4,7:00am,11:59pm,7:00am,11:59pm,7:00am,11:59pm,7:00am,11:59pm,7:00am,11:59pm,7:00am,11:59pm,7:00am,11:59pm,-122.969,49.3161,2013-09-23 05:16:30 UTC,2013-09-23 05:16:30 UTC
1170 E 27Th,North Vancouver,Safeway,(604) 980-3316,BC,V7J 1S1,7:00am,11:59pm,7:00am,11:59pm,7:00am,11:59pm,7:00am,11:59pm,7:00am,11:59pm,7:00am,11:59pm,7:00am,11:59pm,-123.041,49.3333,2013-09-23 05:16:30 UTC,2013-09-23 05:16:30 UTC
1300 Lonsdale Ave,North Vancouver,Safeway,(604) 985-9811,BC,V7M 2H8,7:00am,11:59pm,7:00am,11:59pm,7:00am,11:59pm,7:00am,11:59pm,7:00am,11:59pm,7:00am,11:59pm,7:00am,11:59pm,-123.072,49.32,2013-09-23 05:16:30 UTC,2013-09-23 05:16:30 UTC
780 Westview Dr,North Vancouver,Safeway,(604) 988-6645,BC,V7N 3X4,7:00am,11:59pm,7:00am,11:59pm,7:00am,11:59pm,7:00am,11:59pm,7:00am,11:59pm,7:00am,11:59pm,7:00am,11:59pm,-123.09,49.3338,2013-09-23 05:16:30 UTC,2013-09-23 05:16:30 UTC
"1301 Main St.,801",Penticton,Safeway,(250) 487-2103,BC,V2A 5E9,7:00am,11:59pm,7:00am,11:59pm,7:00am,11:59pm,7:00am,11:59pm,7:00am,11:59pm,7:00am,11:59pm,7:00am,11:59pm,-119.586,49.485,2013-09-23 05:16:30 UTC,2013-09-23 05:16:30 UTC
3756 10 Ave,Port Alberni,Safeway,(250) 723-6212,BC,V9Y 4W6,7:00am,10:00pm,7:00am,10:00pm,7:00am,10:00pm,7:00am,10:00pm,7:00am,10:00pm,7:00am,10:00pm,7:00am,10:00pm,-124.798,49.2444,2013-09-23 05:16:30 UTC,2013-09-23 05:16:30 UTC
1100-2850 Shaughnessy St,Port Coquitlam,Safeway,(604) 945-4072,BC,V3C 6K5,7:00am,11:59pm,7:00am,11:59pm,7:00am,11:59pm,7:00am,11:59pm,7:00am,11:59pm,7:00am,11:59pm,7:00am,11:59pm,-122.793,49.234,2013-09-23 05:16:30 UTC,2013-09-23 05:16:30 UTC
7040 Barnet St,Powell River,Safeway,(604) 485-1233,BC,V8A 2A1,7:00am,9:00pm,7:00am,9:00pm,7:00am,9:00pm,7:00am,9:00pm,7:00am,9:00pm,7:00am,9:00pm,7:00am,9:00pm,-124.518,49.8418,2013-09-23 05:16:30 UTC,2013-09-23 05:16:30 UTC
200 2 Ave W,Prince Rupert,Safeway,(250) 624-2412,BC,V8J 1G5,7:00am,10:00pm,7:00am,10:00pm,7:00am,10:00pm,7:00am,10:00pm,7:00am,10:00pm,7:00am,10:00pm,7:00am,10:00pm,-130.323,54.3149,2013-09-23 05:16:30 UTC,2013-09-23 05:16:30 UTC
445 Reid St,Quesnel,Safeway,(250) 992-6477,BC,V2J 2M7,7:00am,10:00pm,7:00am,10:00pm,7:00am,10:00pm,7:00am,10:00pm,7:00am,10:00pm,7:00am,10:00pm,7:00am,10:00pm,-122.497,52.9797,2013-09-23 05:16:30 UTC,2013-09-23 05:16:30 UTC
10151 No 3 Rd,Richmond,Safeway,(604) 271-8678,BC,V7A 4R6,7:00am,11:59pm,7:00am,11:59pm,7:00am,11:59pm,7:00am,11:59pm,7:00am,11:59pm,7:00am,11:59pm,7:00am,11:59pm,-123.138,49.1398,2013-09-23 05:16:30 UTC,2013-09-23 05:16:30 UTC
6140 Blundell Rd,Richmond,Safeway,(604) 274-7244,BC,V7C 1H6,7:00am,11:59pm,7:00am,11:59pm,7:00am,11:59pm,7:00am,11:59pm,7:00am,11:59pm,7:00am,11:59pm,7:00am,11:59pm,-123.157,49.1556,2013-09-23 05:16:30 UTC,2013-09-23 05:16:30 UTC
8671 No 1 Rd,Richmond,Safeway,(604) 271-8790,BC,V7C 1V2,7:00am,11:59pm,7:00am,11:59pm,7:00am,11:59pm,7:00am,11:59pm,7:00am,11:59pm,7:00am,11:59pm,7:00am,11:59pm,-123.181,49.1503,2013-09-23 05:16:30 UTC,2013-09-23 05:16:30 UTC
360 Trans Canada Hwy,Salmon Arm,Safeway,(250) 832-8086,BC,V1E 4M2,7:00am,10:00pm,7:00am,10:00pm,7:00am,10:00pm,7:00am,10:00pm,7:00am,10:00pm,7:00am,10:00pm,10:00am,6:00pm,-119.29,50.6996,2013-09-23 05:16:30 UTC,2013-09-23 05:16:30 UTC
2345 Beacon Ave,Sidney,Safeway,(250) 656-2735,BC,V8L 1W9,7:00am,10:00pm,7:00am,10:00pm,7:00am,10:00pm,7:00am,10:00pm,7:00am,10:00pm,7:00am,10:00pm,7:00am,10:00pm,-123.402,48.649,2013-09-23 05:16:30 UTC,2013-09-23 05:16:30 UTC
3664 Hwy 16,Smithers,Safeway,(250) 847-2622,BC,V0J 2N0,7:00am,10:00pm,7:00am,10:00pm,7:00am,10:00pm,7:00am,10:00pm,7:00am,10:00pm,7:00am,10:00pm,7:00am,10:00pm,-127.164,54.7801,2013-09-23 05:16:30 UTC,2013-09-23 05:16:30 UTC
8860 - 152 St,Surrey,Safeway,(604) 589-4774,BC,V3R 4E4,7:00am,11:59pm,7:00am,11:59pm,7:00am,11:59pm,7:00am,11:59pm,7:00am,11:59pm,7:00am,11:59pm,7:00am,11:59pm,-122.801,49.1639,2013-09-23 05:16:31 UTC,2013-09-23 05:16:31 UTC
10355 King George Highway,Surrey,Safeway,(604) 584-8285,BC,V3T 2W6,7:00am,11:59pm,7:00am,11:59pm,7:00am,11:59pm,7:00am,11:59pm,7:00am,11:59pm,7:00am,11:59pm,7:00am,11:59pm,-122.845,49.1909,2013-09-23 05:16:31 UTC,2013-09-23 05:16:31 UTC
7450 120 St,Surrey,Safeway,(604) 594-7341,BC,V3W 3M9,7:00am,11:59pm,7:00am,11:59pm,7:00am,11:59pm,7:00am,11:59pm,7:00am,11:59pm,7:00am,11:59pm,7:00am,11:59pm,-122.89,49.1385,2013-09-23 05:16:31 UTC,2013-09-23 05:16:31 UTC
7165 138 St,Surrey,Safeway,(604) 594-9155,BC,V3W 7T9,7:00am,11:59pm,7:00am,11:59pm,7:00am,11:59pm,7:00am,11:59pm,7:00am,11:59pm,7:00am,11:59pm,7:00am,11:59pm,-122.839,49.133,2013-09-23 05:16:31 UTC,2013-09-23 05:16:31 UTC
12825 16 Ave,Surrey,Safeway,(604) 531-3422,BC,V4A 1N5,7:00am,10:00pm,7:00am,10:00pm,7:00am,10:00pm,7:00am,10:00pm,7:00am,10:00pm,7:00am,10:00pm,7:00am,10:00pm,-122.866,49.0313,2013-09-23 05:16:31 UTC,2013-09-23 05:16:31 UTC
700-15355 24 Ave,Surrey,Safeway,(604) 535-8960,BC,V4A 2H9,7:00am,11:59pm,7:00am,11:59pm,7:00am,11:59pm,7:00am,11:59pm,7:00am,11:59pm,7:00am,11:59pm,7:00am,11:59pm,-122.846,49.0458,2013-09-23 05:16:31 UTC,2013-09-23 05:16:31 UTC
4655 Lakelse Ave,Terrace,Safeway,(250) 635-7206,BC,V8G 1R3,7:00am,10:00pm,7:00am,10:00pm,7:00am,10:00pm,7:00am,10:00pm,7:00am,10:00pm,7:00am,10:00pm,7:00am,10:00pm,-128.592,54.5168,2013-09-23 05:16:31 UTC,2013-09-23 05:16:31 UTC
1599 2 Ave,Trail,Safeway,(250) 368-8710,BC,V1R 1M3,7:00am,10:00pm,7:00am,10:00pm,7:00am,10:00pm,7:00am,10:00pm,7:00am,10:00pm,7:00am,10:00pm,7:00am,10:00pm,-117.701,49.0975,2013-09-23 05:16:31 UTC,2013-09-23 05:16:31 UTC
1143 - 56 St,Tsawwassen,Safeway,(604) 948-9255,BC,V4L 2A2,7:00am,11:59pm,7:00am,11:59pm,7:00am,11:59pm,7:00am,11:59pm,7:00am,11:59pm,7:00am,11:59pm,7:00am,11:59pm,-123.069,49.0237,2013-09-23 05:16:31 UTC,2013-09-23 05:16:31 UTC
1780 E Brd.Way,Vancouver,Safeway,(604) 873-0225,BC,V5N 1W3,7:00am,11:59pm,7:00am,11:59pm,7:00am,11:59pm,7:00am,11:59pm,7:00am,11:59pm,7:00am,11:59pm,7:00am,11:59pm,-123.067,49.2623,2013-09-23 05:16:31 UTC,2013-09-23 05:16:31 UTC
3410 Kingsway,Vancouver,Safeway,(604) 439-0090,BC,V5R 5L4,7:00am,11:59pm,7:00am,11:59pm,7:00am,11:59pm,7:00am,11:59pm,7:00am,11:59pm,7:00am,11:59pm,7:00am,11:59pm,-123.033,49.2324,2013-09-23 05:16:31 UTC,2013-09-23 05:16:31 UTC
990 King Edward Ave W,Vancouver,Safeway,(604) 733-0073,BC,V5Z 2E2,7:00am,11:59pm,7:00am,11:59pm,7:00am,11:59pm,7:00am,11:59pm,7:00am,11:59pm,7:00am,11:59pm,7:00am,11:59pm,-123.127,49.2492,2013-09-23 05:16:31 UTC,2013-09-23 05:16:31 UTC
185-650 W 41St Ave,Vancouver,Safeway,(604) 263-2575,BC,V5Z 2M9,7:00am,11:59pm,7:00am,11:59pm,7:00am,11:59pm,7:00am,11:59pm,7:00am,11:59pm,7:00am,11:59pm,7:00am,11:59pm,-123.11,49.2333,2013-09-23 05:16:31 UTC,2013-09-23 05:16:31 UTC
555 W 12 Ave,Vancouver,Safeway,(604) 872-8762,BC,V5Z 3X7,7:00am,11:59pm,7:00am,11:59pm,7:00am,11:59pm,7:00am,11:59pm,7:00am,11:59pm,7:00am,11:59pm,7:00am,11:59pm,-123.116,49.2605,2013-09-23 05:16:31 UTC,2013-09-23 05:16:31 UTC
1766 Robson St,Vancouver,Safeway,(604) 683-6155,BC,V6G 1E2,7:00am,11:59pm,7:00am,11:59pm,7:00am,11:59pm,7:00am,11:59pm,7:00am,11:59pm,7:00am,11:59pm,7:00am,11:59pm,-123.135,49.2912,2013-09-23 05:16:31 UTC,2013-09-23 05:16:31 UTC
1641 Davie St,Vancouver,Safeway,(604) 669-8313,BC,V6G 1W1,7:00am,11:59pm,7:00am,11:59pm,7:00am,11:59pm,7:00am,11:59pm,7:00am,11:59pm,7:00am,11:59pm,7:00am,11:59pm,-123.139,49.2856,2013-09-23 05:16:32 UTC,2013-09-23 05:16:32 UTC
109-4255 Arbutus St,Vancouver,Safeway,(604) 731-5331,BC,V6J 4R1,7:00am,11:59pm,7:00am,11:59pm,7:00am,11:59pm,7:00am,11:59pm,7:00am,11:59pm,7:00am,11:59pm,7:00am,11:59pm,-123.153,49.2717,2013-09-23 05:16:32 UTC,2013-09-23 05:16:32 UTC
2315 W 4 Ave,Vancouver,Safeway,(604) 737-9803,BC,V6K 1P2,7:00am,11:59pm,7:00am,11:59pm,7:00am,11:59pm,7:00am,11:59pm,7:00am,11:59pm,7:00am,11:59pm,7:00am,11:59pm,-123.158,49.2682,2013-09-23 05:16:32 UTC,2013-09-23 05:16:32 UTC
2733 W Brdway,Vancouver,Safeway,(604) 732-5226,BC,V6K 2G5,7:00am,11:59pm,7:00am,11:59pm,7:00am,11:59pm,7:00am,11:59pm,7:00am,11:59pm,7:00am,11:59pm,7:00am,11:59pm,-123.167,49.264,2013-09-23 05:16:32 UTC,2013-09-23 05:16:32 UTC
8555 Granville St,Vancouver,Safeway,(604) 263-2635,BC,V6P 4Z9,7:00am,11:59pm,7:00am,11:59pm,7:00am,11:59pm,7:00am,11:59pm,7:00am,11:59pm,7:00am,11:59pm,7:00am,11:59pm,-123.14,49.209,2013-09-23 05:16:32 UTC,2013-09-23 05:16:32 UTC
4575 W 10 Ave,Vancouver,Safeway,(604) 224-7200,BC,V6R 2J2,7:00am,11:59pm,7:00am,11:59pm,7:00am,11:59pm,7:00am,11:59pm,7:00am,11:59pm,7:00am,11:59pm,7:00am,11:59pm,-123.211,49.2639,2013-09-23 05:16:32 UTC,2013-09-23 05:16:32 UTC
3417 30 Ave,Vernon,Safeway,(250) 542-8167,BC,V1T 2E3,7:00am,11:59pm,7:00am,11:59pm,7:00am,11:59pm,7:00am,11:59pm,7:00am,11:59pm,7:00am,11:59pm,7:00am,11:59pm,-119.271,50.2669,2013-09-23 05:16:32 UTC,2013-09-23 05:16:32 UTC
4300 32 St,Vernon,Safeway,(250) 542-2627,BC,V1T 9H2,7:00am,11:59pm,7:00am,11:59pm,7:00am,11:59pm,7:00am,11:59pm,7:00am,11:59pm,7:00am,11:59pm,7:00am,11:59pm,-119.274,50.2747,2013-09-23 05:16:32 UTC,2013-09-23 05:16:32 UTC
3958 Shelbourne,Victoria,Safeway,(250) 477-2433,BC,V8N 3E2,7:00am,11:59pm,7:00am,11:59pm,7:00am,11:59pm,7:00am,11:59pm,7:00am,11:59pm,7:00am,11:59pm,7:00am,11:59pm,-123.333,48.4677,2013-09-23 05:16:32 UTC,2013-09-23 05:16:32 UTC
1950  Foul Bay,Victoria,Safeway,(250) 370-1669,BC,V8R 5A7,7:00am,11:59pm,7:00am,11:59pm,7:00am,11:59pm,7:00am,11:59pm,7:00am,11:59pm,7:00am,11:59pm,7:00am,11:59pm,-123.322,48.4313,2013-09-23 05:16:32 UTC,2013-09-23 05:16:32 UTC
3170 Tillicum Rd,Victoria,Safeway,(250) 384-7714,BC,V9A 6T2,7:00am,11:59pm,7:00am,11:59pm,7:00am,11:59pm,7:00am,11:59pm,7:00am,11:59pm,7:00am,11:59pm,7:00am,11:59pm,-123.394,48.4535,2013-09-23 05:16:32 UTC,2013-09-23 05:16:32 UTC
451 Oliver St,Williams Lake,Safeway,(250) 398-6851,BC,V2G 1M5,7:00am,10:00pm,7:00am,10:00pm,7:00am,10:00pm,7:00am,10:00pm,7:00am,10:00pm,7:00am,10:00pm,7:00am,10:00pm,-122.139,52.1283,2013-09-23 05:16:32 UTC,2013-09-23 05:16:32 UTC
70 N Court St,Thunder Bay,Safeway,(807) 345-2651,ON,P7A 4T8,7:00am,11:00pm,7:00am,11:00pm,7:00am,11:00pm,7:00am,11:00pm,7:00am,11:00pm,7:00am,11:00pm,7:00am,11:00pm,-89.22,48.4377,2013-09-23 05:16:32 UTC,2013-09-23 05:16:32 UTC
1015 Dawson Rd,Thunder Bay,Safeway,(807) 768-0099,ON,P7B 5E3,7:00am,11:00pm,7:00am,11:00pm,7:00am,11:00pm,7:00am,11:00pm,7:00am,11:00pm,7:00am,11:00pm,7:00am,11:00pm,-89.2525,48.4511,2013-09-23 05:16:32 UTC,2013-09-23 05:16:32 UTC
115 W Arthur St,Thunder Bay,Safeway,(807) 473-5993,ON,P7E 5P7,7:00am,11:00pm,7:00am,11:00pm,7:00am,11:00pm,7:00am,11:00pm,7:00am,11:00pm,7:00am,11:00pm,7:00am,11:00pm,-89.279,48.3808,2013-09-23 05:16:32 UTC,2013-09-23 05:16:32 UTC
2995 2 Ave W,Prince Albert,Safeway,(306) 922-1242,SK,S6V 5V5,8:00am,10:00pm,8:00am,10:00pm,8:00am,10:00pm,8:00am,10:00pm,8:00am,10:00pm,8:00am,10:00pm,8:00am,10:00pm,-105.76,53.1859,2013-09-23 05:16:32 UTC,2013-09-23 05:16:32 UTC
2223 Victoria Ave E,Regina,Safeway,(306) 789-3191,SK,S4N 6E4,8:00am,10:00pm,8:00am,10:00pm,8:00am,10:00pm,8:00am,10:00pm,8:00am,10:00pm,8:00am,10:00pm,8:00am,10:00pm,-104.553,50.447,2013-09-23 05:16:32 UTC,2013-09-23 05:16:32 UTC
3859 Sherwood Dr,Regina,Safeway,(306) 949-7488,SK,S4R 4A8,8:00am,10:00pm,8:00am,10:00pm,8:00am,10:00pm,8:00am,10:00pm,8:00am,10:00pm,8:00am,10:00pm,8:00am,10:00pm,-104.637,50.4755,2013-09-23 05:16:32 UTC,2013-09-23 05:16:32 UTC
353 Albert St N,Regina,Safeway,(306) 543-8749,SK,S4R 5R9,8:00am,10:00pm,8:00am,10:00pm,8:00am,10:00pm,8:00am,10:00pm,8:00am,10:00pm,8:00am,10:00pm,8:00am,10:00pm,-104.618,50.4816,2013-09-23 05:16:32 UTC,2013-09-23 05:16:32 UTC
3801 Albert St,Regina,Safeway,(306) 586-6933,SK,S4S 3R4,8:00am,10:00pm,8:00am,10:00pm,8:00am,10:00pm,8:00am,10:00pm,8:00am,10:00pm,8:00am,10:00pm,8:00am,10:00pm,-104.618,50.4187,2013-09-23 05:16:32 UTC,2013-09-23 05:16:32 UTC
3015 Gordon Rd,Regina,Safeway,(306) 586-5140,SK,S4S 6H7,8:00am,10:00pm,8:00am,10:00pm,8:00am,10:00pm,8:00am,10:00pm,8:00am,10:00pm,8:00am,10:00pm,8:00am,10:00pm,-104.624,50.4049,2013-09-23 05:16:32 UTC,2013-09-23 05:16:32 UTC
2931-13 Ave,Regina,Safeway,(306) 522-5453,SK,S4T 1N8,8:00am,10:00pm,8:00am,10:00pm,8:00am,10:00pm,8:00am,10:00pm,8:00am,10:00pm,8:00am,10:00pm,8:00am,10:00pm,-104.623,50.4455,2013-09-23 05:16:32 UTC,2013-09-23 05:16:32 UTC
1501 8 St. East #4,Saskatoon,Safeway,(306) 373-0030,SK,S7H 0T8,8:00am,10:00pm,8:00am,10:00pm,8:00am,10:00pm,8:00am,10:00pm,8:00am,10:00pm,8:00am,10:00pm,8:00am,10:00pm,-106.635,52.1149,2013-09-23 05:16:33 UTC,2013-09-23 05:16:33 UTC
3310-8 St E,Saskatoon,Safeway,(306) 955-4644,SK,S7H 0W4,8:00am,10:00pm,8:00am,10:00pm,8:00am,10:00pm,8:00am,10:00pm,8:00am,10:00pm,8:00am,10:00pm,8:00am,10:00pm,-106.603,52.1146,2013-09-23 05:16:33 UTC,2013-09-23 05:16:33 UTC
2325 Preston Ave,Saskatoon,Safeway,(306) 374-4145,SK,S7J 2G2,8:00am,10:00pm,8:00am,10:00pm,8:00am,10:00pm,8:00am,10:00pm,8:00am,10:00pm,8:00am,10:00pm,8:00am,10:00pm,-106.623,52.1014,2013-09-23 05:16:33 UTC,2013-09-23 05:16:33 UTC
134 Primrose Dr,Saskatoon,Safeway,(306) 934-8185,SK,S7K 5S6,8:00am,10:00pm,8:00am,10:00pm,8:00am,10:00pm,8:00am,10:00pm,8:00am,10:00pm,8:00am,10:00pm,8:00am,10:00pm,-106.64,52.1673,2013-09-23 05:16:33 UTC,2013-09-23 05:16:33 UTC
302 33 St W,Saskatoon,Safeway,(306) 244-2250,SK,S7L 0T2,8:00am,10:00pm,8:00am,10:00pm,8:00am,10:00pm,8:00am,10:00pm,8:00am,10:00pm,8:00am,10:00pm,8:00am,10:00pm,-106.673,52.1439,2013-09-23 05:16:33 UTC,2013-09-23 05:16:33 UTC
300 Confederation Dr,Saskatoon,Safeway,(306) 384-7474,SK,S7L 4R6,8:00am,10:00pm,8:00am,10:00pm,8:00am,10:00pm,8:00am,10:00pm,8:00am,10:00pm,8:00am,10:00pm,8:00am,10:00pm,-106.722,52.1309,2013-09-23 05:16:33 UTC,2013-09-23 05:16:33 UTC
1650 Marine Dr,West Vancouver,Safeway,(604) 922-6131,BC,V7V 1J1,7:00am,9:00pm,7:00am,9:00pm,7:00am,9:00pm,7:00am,9:00pm,7:00am,9:00pm,7:00am,9:00pm,7:00am,7:00pm,-123.16,49.3286,2013-09-23 05:17:10 UTC,2013-09-23 05:17:10 UTC
5385 Headland Dr,West Vancouver,Safeway,(604) 926-2550,BC,V7W 3E7,7:00am,9:00pm,7:00am,9:00pm,7:00am,9:00pm,7:00am,9:00pm,7:00am,9:00pm,7:00am,9:00pm,7:00am,7:00pm,-123.252,49.3506,2013-09-23 05:17:10 UTC,2013-09-23 05:17:10 UTC
1610 18 St,Brandon,Safeway,(204) 725-0117,MB,R7A 5C5,8:00am,11:00pm,8:00am,11:00pm,8:00am,11:00pm,8:00am,11:00pm,8:00am,11:00pm,8:00am,11:00pm,9:00am,6:00pm,-99.962,49.8248,2013-09-23 05:17:10 UTC,2013-09-23 05:17:10 UTC
921 - 18 St N,Brandon,Safeway,(204) 726-8014,MB,R7A 7S1,7:00am,11:00pm,7:00am,11:00pm,7:00am,11:00pm,7:00am,11:00pm,7:00am,11:00pm,7:00am,11:00pm,9:00am,6:00pm,-99.9618,49.8658,2013-09-23 05:17:10 UTC,2013-09-23 05:17:10 UTC
Mountain & Ellen,Neepawa,Safeway,(204) 476-5423,MB,R0J 1H0,8:00am,9:00pm,8:00am,9:00pm,8:00am,9:00pm,8:00am,9:00pm,8:00am,9:00pm,8:00am,9:00pm,12:00pm,6:00pm,,,2013-09-23 05:17:10 UTC,2013-09-23 05:17:10 UTC
318 Manitoba Ave,Selkirk,Safeway,(204) 482-5775,MB,R1A 0Y7,7:00am,11:00pm,7:00am,11:00pm,7:00am,11:00pm,7:00am,11:00pm,7:00am,11:00pm,7:00am,11:00pm,9:00am,6:00pm,-96.8731,50.1454,2013-09-23 05:17:10 UTC,2013-09-23 05:17:10 UTC
143 Provincial Trunk Hwy 12 N,Steinbach,Safeway,(204) 346-1555,MB,R5G 1T5,8:00am,10:00pm,8:00am,10:00pm,8:00am,10:00pm,8:00am,10:00pm,8:00am,10:00pm,8:00am,10:00pm,12:00am,CLOSED,-96.6881,49.5404,2013-09-23 05:17:10 UTC,2013-09-23 05:17:10 UTC
300 Mystery Lake Rd,Thompson,Safeway,(204) 677-2600,MB,R8N 0M2,8:00am,10:00pm,8:00am,10:00pm,8:00am,10:00pm,8:00am,10:00pm,8:00am,10:00pm,8:00am,10:00pm,12:00pm,6:00pm,-97.8507,55.7447,2013-09-23 05:17:11 UTC,2013-09-23 05:17:11 UTC
654 Kildare Ave E,Winnipeg,Safeway,(204) 222-6902,MB,R2C 0P6,7:00am,11:00pm,7:00am,11:00pm,7:00am,11:00pm,7:00am,11:00pm,7:00am,11:00pm,7:00am,11:00pm,9:00am,6:00pm,-96.9858,49.9009,2013-09-23 05:17:11 UTC,2013-09-23 05:17:11 UTC
1615 Regent Ave W,Winnipeg,Safeway,(204) 663-6862,MB,R2C 3C6,8:00am,11:00pm,8:00am,11:00pm,8:00am,11:00pm,8:00am,11:00pm,8:00am,11:00pm,8:00am,11:00pm,9:00am,6:00pm,-97.0697,49.8986,2013-09-23 05:17:11 UTC,2013-09-23 05:17:11 UTC
1441 Henderson Highway,Winnipeg,Safeway,(204) 338-4600,MB,R2G 1N4,7:00am,11:00pm,7:00am,11:00pm,7:00am,11:00pm,7:00am,11:00pm,7:00am,11:00pm,7:00am,11:00pm,9:00am,6:00pm,-97.0861,49.9455,2013-09-23 05:17:11 UTC,2013-09-23 05:17:11 UTC
285 Marion St,Winnipeg,Safeway,(204) 237-6824,MB,R2H 0T8,7:00am,11:00pm,7:00am,11:00pm,7:00am,11:00pm,7:00am,11:00pm,7:00am,11:00pm,7:00am,11:00pm,9:00am,6:00pm,-97.1149,49.8817,2013-09-23 05:17:11 UTC,2013-09-23 05:17:11 UTC
77 Vermillion Rd,Winnipeg,Safeway,(204) 255-5755,MB,R2J 3W7,7:00am,11:00pm,7:00am,11:00pm,7:00am,11:00pm,7:00am,11:00pm,7:00am,11:00pm,7:00am,11:00pm,9:00am,6:00pm,-97.0736,49.854,2013-09-23 05:17:11 UTC,2013-09-23 05:17:11 UTC
731 Henderson Highway,Winnipeg,Safeway,(204) 667-4944,MB,R2K 2K4,8:00am,11:00pm,8:00am,11:00pm,8:00am,11:00pm,8:00am,11:00pm,8:00am,11:00pm,8:00am,11:00pm,9:00am,6:00pm,-97.1046,49.9269,2013-09-23 05:17:11 UTC,2013-09-23 05:17:11 UTC
2 Alpine Ave,Winnipeg,Safeway,(204) 256-9430,MB,R2M 0Y5,7:00am,11:00pm,7:00am,11:00pm,7:00am,11:00pm,7:00am,11:00pm,7:00am,11:00pm,7:00am,11:00pm,9:00am,6:00pm,-97.1015,49.8561,2013-09-23 05:17:11 UTC,2013-09-23 05:17:11 UTC
850 Dakota St,Winnipeg,Safeway,(204) 255-4765,MB,R2M 5R9,7:00am,11:00pm,7:00am,11:00pm,7:00am,11:00pm,7:00am,11:00pm,7:00am,11:00pm,7:00am,11:00pm,9:00am,6:00pm,-97.1071,49.8306,2013-09-23 05:17:11 UTC,2013-09-23 05:17:11 UTC
920 Jefferson Ave,Winnipeg,Safeway,(204) 694-4125,MB,R2P 1W1,7:00am,11:00pm,7:00am,11:00pm,7:00am,11:00pm,7:00am,11:00pm,7:00am,11:00pm,7:00am,11:00pm,9:00am,6:00pm,-97.1559,49.9454,2013-09-23 05:17:11 UTC,2013-09-23 05:17:11 UTC
841 Leila Ave,Winnipeg,Safeway,(204) 339-6962,MB,R2V 3J7,8:00am,11:00pm,8:00am,11:00pm,8:00am,11:00pm,8:00am,11:00pm,8:00am,11:00pm,8:00am,11:00pm,9:00am,6:00pm,-97.1434,49.9522,2013-09-23 05:17:11 UTC,2013-09-23 05:17:11 UTC
594 Mountain Ave,Winnipeg,Safeway,(204) 589-2588,MB,R2W 1L2,8:00am,11:00pm,8:00am,11:00pm,8:00am,11:00pm,8:00am,11:00pm,8:00am,11:00pm,8:00am,11:00pm,9:00am,6:00pm,-97.1441,49.9243,2013-09-23 05:17:11 UTC,2013-09-23 05:17:11 UTC
1441 Main St,Winnipeg,Safeway,(204) 589-7135,MB,R2W 3V6,8:00am,11:00pm,8:00am,11:00pm,8:00am,11:00pm,8:00am,11:00pm,8:00am,11:00pm,8:00am,11:00pm,9:00am,6:00pm,-97.1247,49.9263,2013-09-23 05:17:11 UTC,2013-09-23 05:17:11 UTC
850 Keewatin St,Winnipeg,Safeway,(204) 694-5087,MB,R2X 3J7,7:00am,11:00pm,7:00am,11:00pm,7:00am,11:00pm,7:00am,11:00pm,7:00am,11:00pm,7:00am,11:00pm,9:00am,6:00pm,-97.1952,49.9385,2013-09-23 05:17:11 UTC,2013-09-23 05:17:11 UTC
3059 Ness Ave,Winnipeg,Safeway,(204) 888-4528,MB,R2Y 0G1,8:00am,11:00pm,8:00am,11:00pm,8:00am,11:00pm,8:00am,11:00pm,8:00am,11:00pm,8:00am,11:00pm,9:00am,6:00pm,,,2013-09-23 05:17:11 UTC,2013-09-23 05:17:11 UTC
600 Sargent Ave,Winnipeg,Safeway,(204) 783-0149,MB,R3E 0A1,8:00am,11:00pm,8:00am,11:00pm,8:00am,11:00pm,8:00am,11:00pm,8:00am,11:00pm,8:00am,11:00pm,9:00am,6:00pm,-97.159,49.8966,2013-09-23 05:17:11 UTC,2013-09-23 05:17:11 UTC
1612 Ness Ave,Winnipeg,Safeway,(204) 775-6348,MB,R3J 3X3,7:00am,11:00pm,7:00am,11:00pm,7:00am,11:00pm,7:00am,11:00pm,7:00am,11:00pm,7:00am,11:00pm,9:00am,6:00pm,-97.2049,49.8835,2013-09-23 05:17:11 UTC,2013-09-23 05:17:11 UTC
3393 Portage Ave,Winnipeg,Safeway,(204) 888-3200,MB,R3K 2G7,7:00am,11:00pm,7:00am,11:00pm,7:00am,11:00pm,7:00am,11:00pm,7:00am,11:00pm,7:00am,11:00pm,9:00am,6:00pm,-97.299,49.8827,2013-09-23 05:17:11 UTC,2013-09-23 05:17:11 UTC
499 River Ave,Winnipeg,Safeway,(204) 452-2276,MB,R3L 0C9,7:00am,11:00pm,7:00am,11:00pm,7:00am,11:00pm,7:00am,11:00pm,7:00am,11:00pm,7:00am,11:00pm,9:00am,6:00pm,-97.1482,49.8786,2013-09-23 05:17:11 UTC,2013-09-23 05:17:11 UTC
655 Osborne St,Winnipeg,Safeway,(204) 475-0793,MB,R3L 2B7,7:00am,11:00pm,7:00am,11:00pm,7:00am,11:00pm,7:00am,11:00pm,7:00am,11:00pm,7:00am,11:00pm,9:00am,6:00pm,-97.1326,49.8629,2013-09-23 05:17:12 UTC,2013-09-23 05:17:12 UTC
1120 Grant Ave,Winnipeg,Safeway,(204) 452-7197,MB,R3M 2A6,7:00am,11:00pm,7:00am,11:00pm,7:00am,11:00pm,7:00am,11:00pm,7:00am,11:00pm,7:00am,11:00pm,9:00am,6:00pm,-97.1645,49.8594,2013-09-23 05:17:12 UTC,2013-09-23 05:17:12 UTC
2025 Corydon At Edgeland,Winnipeg,Safeway,(204) 489-6498,MB,R3P 0N5,8:00am,11:00pm,8:00am,11:00pm,8:00am,11:00pm,8:00am,11:00pm,8:00am,11:00pm,8:00am,11:00pm,9:00am,6:00pm,-97.2113,49.8663,2013-09-23 05:17:12 UTC,2013-09-23 05:17:12 UTC
1625 Kenaston Blvd,Winnipeg,Safeway,(204) 488-9404,MB,R3P 2M4,7:00am,11:00pm,7:00am,11:00pm,7:00am,11:00pm,7:00am,11:00pm,7:00am,11:00pm,7:00am,11:00pm,9:00am,6:00pm,-97.2037,49.8247,2013-09-23 05:17:12 UTC,2013-09-23 05:17:12 UTC
3900 Grant Ave,Winnipeg,Safeway,(204) 837-5339,MB,R3R 3C2,7:00am,11:00pm,7:00am,11:00pm,7:00am,11:00pm,7:00am,11:00pm,7:00am,11:00pm,7:00am,11:00pm,9:00am,6:00pm,-97.2631,49.859,2013-09-23 05:17:12 UTC,2013-09-23 05:17:12 UTC
1319 Pembina Highway,Winnipeg,Safeway,(204) 284-3824,MB,R3T 2B6,8:00am,11:00pm,8:00am,11:00pm,8:00am,11:00pm,8:00am,11:00pm,8:00am,11:00pm,8:00am,11:00pm,9:00am,6:00pm,-97.1531,49.8407,2013-09-23 05:17:12 UTC,2013-09-23 05:17:12 UTC
2155 Pembina Ave,Winnipeg,Safeway,(204) 269-6548,MB,R3T 2H1,8:00am,11:00pm,8:00am,11:00pm,8:00am,11:00pm,8:00am,11:00pm,8:00am,11:00pm,8:00am,11:00pm,9:00am,6:00pm,-97.1524,49.8129,2013-09-23 05:17:12 UTC,2013-09-23 05:17:12 UTC
2860 Pembina Highway,Winnipeg,Safeway,(204) 261-6686,MB,R3T 3L9,8:00am,11:00pm,8:00am,11:00pm,8:00am,11:00pm,8:00am,11:00pm,8:00am,11:00pm,8:00am,11:00pm,9:00am,6:00pm,,,2013-09-23 05:17:12 UTC,2013-09-23 05:17:12 UTC
75 Whyte Ave,Dryden,Safeway,(807) 223-3276,ON,P8N 3E6,7:00am,11:00pm,7:00am,11:00pm,7:00am,11:00pm,7:00am,11:00pm,7:00am,11:00pm,7:00am,11:00pm,8:00am,8:00pm,,,2013-09-23 05:17:12 UTC,2013-09-23 05:17:12 UTC
417 Scott St,Fort Frances,Safeway,(807) 274-4521,ON,P9A 1H3,7:00am,11:00pm,7:00am,11:00pm,7:00am,11:00pm,7:00am,11:00pm,7:00am,11:00pm,7:00am,11:00pm,8:00am,8:00pm,-93.3921,48.61,2013-09-23 05:17:12 UTC,2013-09-23 05:17:12 UTC
400 1St Ave S,Kenora,Safeway,(807) 468-9023,ON,P9N 4W1,7:00am,11:00pm,7:00am,11:00pm,7:00am,11:00pm,7:00am,11:00pm,7:00am,11:00pm,7:00am,11:00pm,8:00am,8:00pm,,,2013-09-23 05:17:12 UTC,2013-09-23 05:17:12 UTC
200 1St Ave Nw,Moose Jaw,Safeway,(306) 693-8033,SK,S6H 1S6,8:00am,9:00pm,8:00am,9:00pm,8:00am,9:00pm,8:00am,9:00pm,8:00am,9:00pm,8:00am,9:00pm,10:00am,7:00pm,-105.537,50.3917,2013-09-23 05:17:12 UTC,2013-09-23 05:17:12 UTC
1 Springs Dr,Swift Current,Safeway,(306) 773-6325,SK,S9H 3X6,9:00am,9:00pm,9:00am,9:00pm,9:00am,9:00pm,9:00am,9:00pm,9:00am,9:00pm,9:00am,9:00pm,9:00am,6:00pm,,,2013-09-23 05:17:12 UTC,2013-09-23 05:17:12 UTC
1860 Mcormond Dr.,Saskatoon,Safeway, (306) 934-5060,SK,S7S 0A5,8:00am,10:00pm,8:00am,10:00pm,8:00am,10:00pm,8:00am,10:00pm,8:00am,10:00pm,8:00am,10:00pm,8:00am,10:00pm,-106.566,52.1463,2013-09-23 05:24:27 UTC,2013-09-23 05:24:27 UTC
