address,city,company_name,phone,state,mon_from,mon_to,tue_from,tue_to,wed_from,wed_to,thu_from,thu_to,fri_from,fri_to,sat_from,sat_to,sun_from,sun_to,zip_code,longitude,latitude,gmaps,created_at,updated_at
505 Main St,Airdrie,Safeway,(403) 948-4838,AB,9:00am,9:00pm,9:00am,9:00pm,9:00am,9:00pm,9:00am,9:00pm,9:00am,9:00pm,9:00am,6:00pm,10:00am,6:00pm,T0M 0B0,-114.013,51.2954,,2013-09-16 06:34:01 UTC,2013-09-16 06:34:01 UTC
318 Marten St,Banff,Safeway,(403) 762-5378,AB,10:00am,6:00pm,10:00am,6:00pm,10:00am,6:00pm,10:00am,6:00pm,10:00am,6:00pm,10:00am,6:00pm,Closed,Closed,T0L 0C0,-115.572,51.1795,,2013-09-16 06:34:01 UTC,2013-09-16 06:34:01 UTC
550 Cassils Rd W,Brooks,Safeway,(403) 362-6851,AB,9:00am,9:00pm,9:00am,9:00pm,9:00am,9:00pm,9:00am,9:00pm,9:00am,9:00pm,9:00am,6:00pm,10:00am,6:00pm,T1R 0V9,-111.902,50.5721,,2013-09-16 06:34:01 UTC,2013-09-16 06:34:01 UTC
3550  32 Ave Ne,Calgary,Safeway,(403) 291-2035,AB,9:00am,9:00pm,9:00am,9:00pm,9:00am,9:00pm,9:00am,9:00pm,9:00am,9:00pm,9:00am,6:00pm,10:00am,6:00pm,T1Y 6J2,-113.989,51.0841,,2013-09-16 06:34:01 UTC,2013-09-16 06:34:01 UTC
300-1440 52 St Ne,Calgary,Safeway,(403) 235-1437,AB,9:00am,9:00pm,9:00am,9:00pm,9:00am,9:00pm,9:00am,9:00pm,9:00am,9:00pm,9:00am,6:00pm,10:00am,6:00pm,T2A 4T8,-113.956,51.055,,2013-09-16 06:34:01 UTC,2013-09-16 06:34:01 UTC
399 36 St Ne,Calgary,Safeway,(403) 248-0848,AB,9:00am,9:00pm,9:00am,9:00pm,9:00am,9:00pm,9:00am,9:00pm,9:00am,9:00pm,9:00am,6:00pm,10:00am,6:00pm,T2A 7R4,-113.982,51.0549,,2013-09-16 06:34:01 UTC,2013-09-16 06:34:01 UTC
7740 18 St Se,Calgary,Safeway,(403) 236-1210,AB,9:00am,9:00pm,9:00am,9:00pm,9:00am,9:00pm,9:00am,9:00pm,9:00am,9:00pm,9:00am,6:00pm,10:00am,6:00pm,T2C 2N5,-114.016,50.9833,,2013-09-16 06:34:01 UTC,2013-09-16 06:34:01 UTC
9737 Macleod Trail S,Calgary,Safeway,(403) 252-8199,AB,9:00am,9:00pm,9:00am,9:00pm,9:00am,9:00pm,9:00am,9:00pm,9:00am,9:00pm,9:00am,6:00pm,10:00am,6:00pm,T2J 0P6,-114.072,50.9673,,2013-09-16 06:34:01 UTC,2013-09-16 06:34:01 UTC
11011 Bonaventure Dr Se,Calgary,Safeway,(403) 278-5225,AB,9:00am,9:00pm,9:00am,9:00pm,9:00am,9:00pm,9:00am,9:00pm,9:00am,9:00pm,9:00am,6:00pm,10:00am,6:00pm,T2J 6S1,-114.063,50.9539,,2013-09-16 06:34:01 UTC,2013-09-16 06:34:01 UTC
5607 4 St Nw,Calgary,Safeway,(403) 730-4955,AB,9:00am,9:00pm,9:00am,9:00pm,9:00am,9:00pm,9:00am,9:00pm,9:00am,9:00pm,9:00am,6:00pm,10:00am,6:00pm,T2K 1B3,-114.071,51.1013,,2013-09-16 06:34:01 UTC,2013-09-16 06:34:01 UTC
1846 - 1632 14 Ave Nw,Calgary,Safeway,(403) 210-0002,AB,9:00am,9:00pm,9:00am,9:00pm,9:00am,9:00pm,9:00am,9:00pm,9:00am,9:00pm,9:00am,6:00pm,10:00am,6:00pm,T2N 1M7,-114.103,51.0652,,2013-09-16 06:34:01 UTC,2013-09-16 06:34:01 UTC
410 10 St Nw,Calgary,Safeway,(403) 270-3054,AB,9:00am,9:00pm,9:00am,9:00pm,9:00am,9:00pm,9:00am,9:00pm,9:00am,9:00pm,9:00am,6:00pm,10:00am,6:00pm,T2N 1V9,-114.086,51.0561,,2013-09-16 06:34:01 UTC,2013-09-16 06:34:01 UTC
1818 Centre St Ne,Calgary,Safeway,(403) 276-3328,AB,9:00am,9:00pm,9:00am,9:00pm,9:00am,9:00pm,9:00am,9:00pm,9:00am,9:00pm,9:00am,6:00pm,10:00am,6:00pm,T2P 2S6,-114.063,51.068,,2013-09-16 06:34:01 UTC,2013-09-16 06:34:01 UTC
813 11 Ave  Sw,Calgary,Safeway,(403) 264-1375,AB,9:00am,9:00pm,9:00am,9:00pm,9:00am,9:00pm,9:00am,9:00pm,9:00am,9:00pm,9:00am,6:00pm,10:00am,6:00pm,T2R 0E6,-114.079,51.0428,,2013-09-16 06:34:01 UTC,2013-09-16 06:34:01 UTC
524 Elbow Dr Sw,Calgary,Safeway,(403) 228-6141,AB,9:00am,9:00pm,9:00am,9:00pm,9:00am,9:00pm,9:00am,9:00pm,9:00am,9:00pm,9:00am,6:00pm,10:00am,6:00pm,T2S 2H6,-114.072,51.0297,,2013-09-16 06:34:01 UTC,2013-09-16 06:34:01 UTC
2425 34 Ave Sw,Calgary,Safeway,(403) 240-1098,AB,9:00am,9:00pm,9:00am,9:00pm,9:00am,9:00pm,9:00am,9:00pm,9:00am,9:00pm,9:00am,6:00pm,10:00am,6:00pm,T2T 6E3,-114.115,51.0231,,2013-09-16 06:34:01 UTC,2013-09-16 06:34:01 UTC
1600 90 Ave Sw,Calgary,Safeway,(403) 255-2755,AB,9:00am,9:00pm,9:00am,9:00pm,9:00am,9:00pm,9:00am,9:00pm,9:00am,9:00pm,9:00am,6:00pm,10:00am,6:00pm,T2V 5A8,-114.096,50.9723,,2013-09-16 06:34:02 UTC,2013-09-16 06:34:02 UTC
2525 Woodview Dr Sw,Calgary,Safeway,(403) 238-1400,AB,9:00am,9:00pm,9:00am,9:00pm,9:00am,9:00pm,9:00am,9:00pm,9:00am,9:00pm,9:00am,6:00pm,10:00am,6:00pm,T2W 4N7,-114.119,50.9411,,2013-09-16 06:34:02 UTC,2013-09-16 06:34:02 UTC
70 Shawville Blvd Sw,Calgary,Safeway,(403) 256-1401,AB,9:00am,9:00pm,9:00am,9:00pm,9:00am,9:00pm,9:00am,9:00pm,9:00am,9:00pm,9:00am,6:00pm,10:00am,6:00pm,T2Y 2Z3,-114.067,50.9068,,2013-09-16 06:34:02 UTC,2013-09-16 06:34:02 UTC
4915 130 Ave. S.East,Calgary,Safeway,(403) 257-8510,AB,9:00am,9:00pm,9:00am,9:00pm,9:00am,9:00pm,9:00am,9:00pm,9:00am,9:00pm,9:00am,6:00pm,10:00am,6:00pm,T2Z 3V8,-113.964,50.9318,,2013-09-16 06:34:02 UTC,2013-09-16 06:34:02 UTC
3625 Shaganappi Trail Nw,Calgary,Safeway,(403) 286-5510,AB,9:00am,9:00pm,9:00am,9:00pm,9:00am,9:00pm,9:00am,9:00pm,9:00am,9:00pm,9:00am,6:00pm,10:00am,6:00pm,T3A 0E2,-114.153,51.0856,,2013-09-16 06:34:02 UTC,2013-09-16 06:34:02 UTC
100-5005 Dalhousie Dr Nw,Calgary,Safeway,(403) 202-0425,AB,9:00am,9:00pm,9:00am,9:00pm,9:00am,9:00pm,9:00am,9:00pm,9:00am,9:00pm,9:00am,6:00pm,10:00am,6:00pm,T3A 5R8,-114.143,51.1027,,2013-09-16 06:34:02 UTC,2013-09-16 06:34:02 UTC
5048 16 Ave Nw,Calgary,Safeway,(403) 288-3219,AB,9:00am,9:00pm,9:00am,9:00pm,9:00am,9:00pm,9:00am,9:00pm,9:00am,9:00pm,9:00am,6:00pm,10:00am,6:00pm,T3B 0N3,-114.166,51.0736,,2013-09-16 06:34:02 UTC,2013-09-16 06:34:02 UTC
1200 37 St Sw,Calgary,Safeway,(403) 246-0003,AB,9:00am,9:00pm,9:00am,9:00pm,9:00am,9:00pm,9:00am,9:00pm,9:00am,9:00pm,9:00am,6:00pm,10:00am,6:00pm,T3C 1S1,-114.141,51.0415,,2013-09-16 06:34:02 UTC,2013-09-16 06:34:02 UTC
3737-37 St Sw,Calgary,Safeway,(403) 698-8222,AB,9:00am,9:00pm,9:00am,9:00pm,9:00am,9:00pm,9:00am,9:00pm,9:00am,9:00pm,9:00am,6:00pm,10:00am,6:00pm,T3E 6L6,-114.141,51.0214,,2013-09-16 06:34:02 UTC,2013-09-16 06:34:02 UTC
99 Crowfoot Crescent Nw,Calgary,Safeway,(403) 239-9000,AB,9:00am,9:00pm,9:00am,9:00pm,9:00am,9:00pm,9:00am,9:00pm,9:00am,9:00pm,9:00am,6:00pm,10:00am,6:00pm,T3G 2L5,-114.198,51.1266,,2013-09-16 06:34:02 UTC,2013-09-16 06:34:02 UTC
375 Aspen Glen Landing Sw,Calgary,Safeway,(403) 217-5521,AB,9:00am,9:00pm,9:00am,9:00pm,9:00am,9:00pm,9:00am,9:00pm,9:00am,9:00pm,9:00am,6:00pm,10:00am,6:00pm,T3H 0N6,-114.201,51.0388,,2013-09-16 06:34:02 UTC,2013-09-16 06:34:02 UTC
200 Stewart Green Sw,Calgary,Safeway,(403) 246-4484,AB,9:00am,9:00pm,9:00am,9:00pm,9:00am,9:00pm,9:00am,9:00pm,9:00am,9:00pm,9:00am,6:00pm,10:00am,6:00pm,T3H 3C8,-114.169,51.0156,,2013-09-16 06:34:02 UTC,2013-09-16 06:34:02 UTC
33 Castleridge Boulevard NE,Calgary,Safeway,(403) 293-0255,AB,9:00am,9:00pm,9:00am,9:00pm,9:00am,9:00pm,9:00am,9:00pm,9:00am,9:00pm,9:00am,6:00pm,10:00am,6:00pm,T3J 3J8,-113.951,51.1087,,2013-09-16 06:34:02 UTC,2013-09-16 06:34:02 UTC
850 Saddletowne Cir. Ne,Calgary,Safeway,(403) 293-0915,AB,9:00am,9:00pm,9:00am,9:00pm,9:00am,9:00pm,9:00am,9:00pm,9:00am,9:00pm,9:00am,6:00pm,10:00am,6:00pm,T3J 5M1,-113.944,51.1248,,2013-09-16 06:34:02 UTC,2013-09-16 06:34:02 UTC
8120 Beddington Blvd Nw,Calgary,Safeway,(403) 295-6895,AB,9:00am,9:00pm,9:00am,9:00pm,9:00am,9:00pm,9:00am,9:00pm,9:00am,9:00pm,9:00am,6:00pm,10:00am,6:00pm,T3K 2A8,-114.073,51.1253,,2013-09-16 06:34:02 UTC,2013-09-16 06:34:02 UTC
6800 48Th Ave,Camrose,Safeway,(780) 672-1211,AB,9:00am,9:00pm,9:00am,9:00pm,9:00am,9:00pm,9:00am,9:00pm,9:00am,9:00pm,9:00am,6:00pm,10:00am,6:00pm,T4V 4T1,-112.859,53.018,,2013-09-16 06:34:02 UTC,2013-09-16 06:34:02 UTC
1200 Railway Ave,Canmore,Safeway,(403) 609-2955,AB,9:00am,9:00pm,9:00am,9:00pm,9:00am,9:00pm,9:00am,9:00pm,9:00am,9:00pm,9:00am,6:00pm,10:00am,6:00pm,T1W 1R4,-115.358,51.0924,,2013-09-16 06:34:02 UTC,2013-09-16 06:34:02 UTC
100 - 135 Chestermere Station Way,Chestermere,Safeway,(403) 410-9700,AB,9:00am,9:00pm,9:00am,9:00pm,9:00am,9:00pm,9:00am,9:00pm,9:00am,9:00pm,9:00am,6:00pm,10:00am,6:00pm,T1X 1V2,-113.824,51.0507,,2013-09-16 06:34:02 UTC,2013-09-16 06:34:02 UTC
304 5 Ave W,Cochrane,Safeway,(403) 851-1290,AB,9:00am,9:00pm,9:00am,9:00pm,9:00am,9:00pm,9:00am,9:00pm,9:00am,9:00pm,9:00am,6:00pm,10:00am,6:00pm,T0L 0W4,-114.478,51.1848,,2013-09-16 06:34:02 UTC,2013-09-16 06:34:02 UTC
500 Manning Crossing,Edmonton,Safeway,(780) 475-2896,AB,9:00am,9:00pm,9:00am,9:00pm,9:00am,9:00pm,9:00am,9:00pm,9:00am,9:00pm,9:00am,6:00pm,10:00am,6:00pm,T5A 5A1,-113.422,53.6015,,2013-09-16 06:34:02 UTC,2013-09-16 06:34:02 UTC
8118 118 Ave,Edmonton,Safeway,(780) 477-6459,AB,9:00am,9:00pm,9:00am,9:00pm,9:00am,9:00pm,9:00am,9:00pm,9:00am,9:00pm,9:00am,6:00pm,10:00am,6:00pm,T5B 0V9,-113.466,53.5704,,2013-09-16 06:34:02 UTC,2013-09-16 06:34:02 UTC
9499 137Th Ave #200,Edmonton,Safeway,(780) 406-6455,AB,9:00am,9:00pm,9:00am,9:00pm,9:00am,9:00pm,9:00am,9:00pm,9:00am,9:00pm,9:00am,6:00pm,10:00am,6:00pm,T5E 5R8,-113.488,53.5995,,2013-09-16 06:34:02 UTC,2013-09-16 06:34:02 UTC
11410 104 Ave,Edmonton,Safeway,(780) 424-1087,AB,9:00am,9:00pm,9:00am,9:00pm,9:00am,9:00pm,9:00am,9:00pm,9:00am,9:00pm,9:00am,6:00pm,10:00am,6:00pm,T5K 2F5,-113.518,53.5463,,2013-09-16 06:34:03 UTC,2013-09-16 06:34:03 UTC
12950 137 Ave Nw,Edmonton,Safeway,(780) 377-2402,AB,9:00am,9:00pm,9:00am,9:00pm,9:00am,9:00pm,9:00am,9:00pm,9:00am,9:00pm,9:00am,6:00pm,10:00am,6:00pm,T5L 5G1,-113.556,53.5886,,2013-09-16 06:34:03 UTC,2013-09-16 06:34:03 UTC
Groat Rd Nw & 111 Ave Nw,Edmonton,Safeway,(780) 451-1860,AB,9:00am,9:00pm,9:00am,9:00pm,9:00am,9:00pm,9:00am,9:00pm,9:00am,9:00pm,9:00am,6:00pm,10:00am,6:00pm,T5M 3L8,-113.552,53.559,,2013-09-16 06:34:03 UTC,2013-09-16 06:34:03 UTC
15007 Stony Plain Rd,Edmonton,Safeway,(780) 483-3255,AB,9:00am,9:00pm,9:00am,9:00pm,9:00am,9:00pm,9:00am,9:00pm,9:00am,9:00pm,9:00am,6:00pm,10:00am,6:00pm,T5P 4W1,-113.581,53.5413,,2013-09-16 06:34:03 UTC,2013-09-16 06:34:03 UTC
2534 Guardian Rd Nw,Edmonton,Safeway,(780) 490-0418,AB,9:00am,9:00pm,9:00am,9:00pm,9:00am,9:00pm,9:00am,9:00pm,9:00am,9:00pm,9:00am,6:00pm,10:00am,6:00pm,T5P 6X9,-113.677,53.5107,,2013-09-16 06:34:03 UTC,2013-09-16 06:34:03 UTC
8720 156 St,Edmonton,Safeway,(780) 486-0584,AB,9:00am,9:00pm,9:00am,9:00pm,9:00am,9:00pm,9:00am,9:00pm,9:00am,9:00pm,9:00am,6:00pm,10:00am,6:00pm,T5R 5W9,-113.59,53.5197,,2013-09-16 06:34:03 UTC,2013-09-16 06:34:03 UTC
600-6655 178 St,Edmonton,Safeway,(780) 487-1050,AB,9:00am,9:00pm,9:00am,9:00pm,9:00am,9:00pm,9:00am,9:00pm,9:00am,9:00pm,9:00am,6:00pm,10:00am,6:00pm,T5T 4J5,-113.63,53.5149,,2013-09-16 06:34:03 UTC,2013-09-16 06:34:03 UTC
9710 170 St,Edmonton,Safeway,(780) 486-4242,AB,9:00am,9:00pm,9:00am,9:00pm,9:00am,9:00pm,9:00am,9:00pm,9:00am,9:00pm,9:00am,6:00pm,10:00am,6:00pm,T5T 4T7,-113.615,53.5341,,2013-09-16 06:34:03 UTC,2013-09-16 06:34:03 UTC
3210 118 Ave,Edmonton,Safeway,(780) 477-6923,AB,9:00am,9:00pm,9:00am,9:00pm,9:00am,9:00pm,9:00am,9:00pm,9:00am,9:00pm,9:00am,6:00pm,10:00am,6:00pm,T5W 0Z8,-113.391,53.5704,,2013-09-16 06:34:03 UTC,2013-09-16 06:34:03 UTC
5004 98 Ave. N.West,Edmonton,Safeway,(780) 466-9001,AB,9:00am,9:00pm,9:00am,9:00pm,9:00am,9:00pm,9:00am,9:00pm,9:00am,9:00pm,9:00am,6:00pm,10:00am,6:00pm,T6A 0A1,-113.42,53.5379,,2013-09-16 06:34:03 UTC,2013-09-16 06:34:03 UTC
185-8330 82 Ave,Edmonton,Safeway,(780) 469-9464,AB,9:00am,9:00pm,9:00am,9:00pm,9:00am,9:00pm,9:00am,9:00pm,9:00am,9:00pm,9:00am,6:00pm,10:00am,6:00pm,T6C 4E3,-113.444,53.518,,2013-09-16 06:34:03 UTC,2013-09-16 06:34:03 UTC
10930 82 Ave,Edmonton,Safeway,(780) 433-6930,AB,9:00am,9:00pm,9:00am,9:00pm,9:00am,9:00pm,9:00am,9:00pm,9:00am,9:00pm,9:00am,6:00pm,10:00am,6:00pm,T6G 0S8,-113.513,53.5182,,2013-09-16 06:34:03 UTC,2013-09-16 06:34:03 UTC
111 St Nw & 51 Ave Nw,Edmonton,Safeway,(780) 435-5132,AB,9:00am,9:00pm,9:00am,9:00pm,9:00am,9:00pm,9:00am,9:00pm,9:00am,9:00pm,9:00am,6:00pm,10:00am,6:00pm,T6H 4M8,-113.49,53.5462,,2013-09-16 06:34:03 UTC,2013-09-16 06:34:03 UTC
2310 109 St,Edmonton,Safeway,(780) 430-4278,AB,9:00am,9:00pm,9:00am,9:00pm,9:00am,9:00pm,9:00am,9:00pm,9:00am,9:00pm,9:00am,6:00pm,10:00am,6:00pm,T6J 3S8,-113.509,53.454,,2013-09-16 06:34:03 UTC,2013-09-16 06:34:03 UTC
100 Millbourne Shopping Centre Nw,Edmonton,Safeway,(780) 462-4424,AB,9:00am,9:00pm,9:00am,9:00pm,9:00am,9:00pm,9:00am,9:00pm,9:00am,9:00pm,9:00am,6:00pm,10:00am,6:00pm,T6K 3L6,-113.505,53.5567,,2013-09-16 06:34:03 UTC,2013-09-16 06:34:03 UTC
2331 66 St,Edmonton,Safeway,(780) 450-8180,AB,9:00am,7:00pm,9:00am,7:00pm,9:00am,7:00pm,9:00am,7:00pm,9:00am,7:00pm,9:00am,6:00pm,10:00am,6:00pm,T6K 4B4,-113.434,53.4544,,2013-09-16 06:34:03 UTC,2013-09-16 06:34:03 UTC
576 Riverbend Square Nw,Edmonton,Safeway,(780) 434-6124,AB,9:00am,9:00pm,9:00am,9:00pm,9:00am,9:00pm,9:00am,9:00pm,9:00am,9:00pm,9:00am,6:00pm,10:00am,6:00pm,T6R 2E3,-113.587,53.4687,,2013-09-16 06:34:03 UTC,2013-09-16 06:34:03 UTC
5110 Windermere Blvd Nw,Edmonton,Safeway,(780) 436-1854,AB,9:00am,9:00pm,9:00am,9:00pm,9:00am,9:00pm,9:00am,9:00pm,9:00am,9:00pm,9:00am,6:00pm,10:00am,6:00pm,T6W 0L9,-113.615,53.4502,,2013-09-16 06:34:03 UTC,2013-09-16 06:34:03 UTC
9601 Franklin Ave,Fort Mcmurray,Safeway,(780) 790-1988,AB,9:00am,7:00pm,9:00am,7:00pm,9:00am,7:00pm,9:00am,7:00pm,9:00am,7:00pm,9:00am,6:00pm,10:00am,6:00pm,T9H 2J8,-111.37,56.723,,2013-09-16 06:34:03 UTC,2013-09-16 06:34:03 UTC
121 Signal Road,Fort Mcmurray,Safeway,(780) 791-3909,AB,10:00am,7:00pm,10:00am,7:00pm,10:00am,7:00pm,10:00am,7:00pm,10:00am,7:00pm,10:00am,6:00pm,10:00am,6:00pm,T9H 4N6,-111.426,56.7317,,2013-09-16 06:34:03 UTC,2013-09-16 06:34:03 UTC
9450-86 Ave,Fort Saskatchewan,Safeway,(780) 998-4065,AB,9:00am,9:00pm,9:00am,9:00pm,9:00am,9:00pm,9:00am,9:00pm,9:00am,9:00pm,9:00am,6:00pm,10:00am,6:00pm,T8L 4P4,-113.237,53.6907,,2013-09-16 06:34:03 UTC,2013-09-16 06:34:03 UTC
9925 114 Ave,Grande Prairie,Safeway,(780) 532-7517,AB,9:00am,9:00pm,9:00am,9:00pm,9:00am,9:00pm,9:00am,9:00pm,9:00am,9:00pm,9:00am,6:00pm,10:00am,6:00pm,T8V 2N7,-118.792,55.1836,,2013-09-16 06:34:04 UTC,2013-09-16 06:34:04 UTC
8060 100 St,Grande Prairie,Safeway,(780) 833-8620,AB,9:00am,7:00pm,9:00am,7:00pm,9:00am,7:00pm,9:00am,7:00pm,9:00am,7:00pm,10:00am,6:00pm,10:00am,6:00pm,T8V 6H7,-118.795,55.154,,2013-09-16 06:34:04 UTC,2013-09-16 06:34:04 UTC
6112 50 St,Leduc,Safeway,(780) 986-0407,AB,9:00am,9:00pm,9:00am,9:00pm,9:00am,9:00pm,9:00am,9:00pm,9:00am,9:00pm,9:00am,6:00pm,10:00am,6:00pm,T9E 6N7,-113.549,53.2763,,2013-09-16 06:34:04 UTC,2013-09-16 06:34:04 UTC
1702 23 St N,Lethbridge,Safeway,(403) 320-2231,AB,9:00am,7:00pm,9:00am,7:00pm,9:00am,7:00pm,9:00am,7:00pm,9:00am,7:00pm,10:00am ,,Closed,Closed,T1H 5B3,-112.81,49.7202,,2013-09-16 06:34:04 UTC,2013-09-16 06:34:04 UTC
2750 Fairway Plaza Rd,Lethbridge,Safeway,(403) 328-8444,AB,9:00am,9:00pm,9:00am,9:00pm,9:00am,9:00pm,9:00am,9:00pm,9:00am,9:00pm,10:00am,6:00pm,10:00am,6:00pm,T1J 3Y7,-112.795,49.668,,2013-09-16 06:34:04 UTC,2013-09-16 06:34:04 UTC
1-550 University Dr,Lethbridge,Safeway,(403) 329-6382,AB,9:00am,9:00pm,9:00am,9:00pm,9:00am,9:00pm,9:00am,9:00pm,9:00am,9:00pm,10:00am,6:00pm,10:00am,6:00pm,T1J 4T3,-112.894,49.7002,,2013-09-16 06:34:04 UTC,2013-09-16 06:34:04 UTC
5211 44Th St,Lloydminster,Safeway,(780) 875-3448,AB,9:00am,9:00pm,9:00am,9:00pm,9:00am,9:00pm,9:00am,9:00pm,9:00am,9:00pm,9:00am,6:00pm,10:00am,6:00pm,T9V 0A7,-110.011,53.278,,2013-09-16 06:34:04 UTC,2013-09-16 06:34:04 UTC
615 Division Ave Se,Medicine Hat,Safeway,(403) 504-2920,AB,9:00am,9:00pm,9:00am,9:00pm,9:00am,9:00pm,9:00am,9:00pm,9:00am,9:00pm,9:00am,6:00pm,10:00am,6:00pm,T1A 2J9,-110.687,50.049,,2013-09-16 06:34:04 UTC,2013-09-16 06:34:04 UTC
3292 Dunmore Rd Se,Medicine Hat,Safeway,(403) 527-7537,AB,9:00am,9:00pm,9:00am,9:00pm,9:00am,9:00pm,9:00am,9:00pm,9:00am,9:00pm,9:00am,6:00pm,10:00am,6:00pm,T1B 2R4,-110.646,50.007,,2013-09-16 06:34:04 UTC,2013-09-16 06:34:04 UTC
610 Big Rock Lane,Okotoks,Safeway,(403) 938-9341,AB,9:00am,9:00pm,9:00am,9:00pm,9:00am,9:00pm,9:00am,9:00pm,9:00am,9:00pm,9:00am,6:00pm,10:00am,6:00pm,T0L 1T0,-113.98,50.7169,,2013-09-16 06:34:04 UTC,2013-09-16 06:34:04 UTC
4407 50th Avenue,Red Deer,Safeway,(403) 346-1886,AB,9:00am,9:00pm,9:00am,9:00pm,9:00am,9:00pm,9:00am,9:00pm,9:00am,9:00pm,9:00am,6:00pm,10:00am,6:00pm,T4N 3Z5,-113.814,52.2635,,2013-09-16 06:34:04 UTC,2013-09-16 06:34:04 UTC
6319 50 Ave,Red Deer,Safeway,(403) 343-0224,AB,9:00am,7:00pm,9:00am,7:00pm,9:00am,7:00pm,9:00am,7:00pm,9:00am,7:00pm,9:00am,6:00pm,& Holidays 10:00am,6:00pm,T4N 4C7,-113.815,52.2824,,2013-09-16 06:34:04 UTC,2013-09-16 06:34:04 UTC
2020 Sherwood Dr,Sherwood Park,Safeway,(780) 467-3037,AB,9:00am,9:00pm,9:00am,9:00pm,9:00am,9:00pm,9:00am,9:00pm,9:00am,9:00pm,9:00am,6:00pm,10:00am,6:00pm,T8A 3H9,-113.296,53.5303,,2013-09-16 06:34:04 UTC,2013-09-16 06:34:04 UTC
985 Fir St,Sherwood Park,Safeway,(780) 467-0177,AB,9:00am,9:00pm,9:00am,9:00pm,9:00am,9:00pm,9:00am,9:00pm,9:00am,9:00pm,9:00am,6:00pm,10:00am,6:00pm,T8A 4N5,-113.325,53.5139,,2013-09-16 06:34:04 UTC,2013-09-16 06:34:04 UTC
94 Mcleod Ave,Spruce Grove,Safeway,(780) 962-9183,AB,9:00am,9:00pm,9:00am,9:00pm,9:00am,9:00pm,9:00am,9:00pm,9:00am,9:00pm,9:00am,6:00pm,10:00am,6:00pm,T7X 1R2,-113.911,53.5423,,2013-09-16 06:34:04 UTC,2013-09-16 06:34:04 UTC
2 Hebert Rd,St. Albert,Safeway,(780) 460-9356,AB,9:00am,9:00pm,9:00am,9:00pm,9:00am,9:00pm,9:00am,9:00pm,9:00am,9:00pm,9:00am,6:00pm,10:00am,6:00pm,T8N 5T8,-113.609,53.6218,,2013-09-16 06:34:05 UTC,2013-09-16 06:34:05 UTC
395 St Albert Trail,St. Albert,Safeway,(780) 458-3620,AB,9:00am,9:00pm,9:00am,9:00pm,9:00am,9:00pm,9:00am,9:00pm,9:00am,9:00pm,9:00am,6:00pm,10:00am,6:00pm,T8N 5Z9,-113.626,53.6436,,2013-09-16 06:34:05 UTC,2013-09-16 06:34:05 UTC
4202 S Park Dr,Stony Plain,Safeway,(780) 963-2330,AB,9:00am,9:00pm,9:00am,9:00pm,9:00am,9:00pm,9:00am,9:00pm,9:00am,9:00pm,9:00am,6:00pm,10:00am,6:00pm,T7Z 1X8,-113.979,53.5411,,2013-09-16 06:34:05 UTC,2013-09-16 06:34:05 UTC
4926 46 Ave,Taber,Safeway,(403) 223-5749,AB,9:00am,7:00pm,9:00am,7:00pm,9:00am,7:00pm,9:00am,7:00pm,9:00am,7:00pm,10:00am,6:00pm,Closed,Closed,T1G 2A4,-112.151,49.7815,,2013-09-16 06:34:05 UTC,2013-09-16 06:34:05 UTC
3905 56 St,Wetaskiwin,Safeway,(780) 352-2041,AB,9:00am,9:00pm,9:00am,9:00pm,9:00am,9:00pm,9:00am,9:00pm,9:00am,9:00pm,9:00am,6:00pm,10:00am,6:00pm,T9A 2B1,-113.39,52.9586,,2013-09-16 06:34:05 UTC,2013-09-16 06:34:05 UTC
100-32500 S Fraser Way,Abbotsford,Safeway,(604) 850-2316,BC,8:00am,9:00pm,8:00am,9:00pm,8:00am,9:00pm,8:00am,9:00pm,8:00am,9:00pm,9:00am,6:00pm,10:00am,6:00pm,V2T 4W1,-122.343,49.0476,,2013-09-16 06:34:05 UTC,2013-09-16 06:34:05 UTC
400-9855 Austin Rd,Burnaby,Safeway,(604) 420-3420,BC,8:00am,9:00pm,8:00am,9:00pm,8:00am,9:00pm,8:00am,9:00pm,8:00am,9:00pm,9:00am,6:00pm,10:00am,6:00pm,V3J 1N4,-122.897,49.2488,,2013-09-16 06:34:05 UTC,2013-09-16 06:34:05 UTC
6564 E Hastings St,Burnaby,Safeway,(604) 291-2901,BC,8:00am,9:00pm,8:00am,9:00pm,8:00am,9:00pm,8:00am,9:00pm,8:00am,9:00pm,9:00am,6:00pm,10:00am,6:00pm,V5B 1S2,-122.968,49.2803,,2013-09-16 06:34:05 UTC,2013-09-16 06:34:05 UTC
4440  Hastings St,Burnaby,Safeway,(604) 205-6922,BC,8:00am,9:00pm,8:00am,9:00pm,8:00am,9:00pm,8:00am,9:00pm,8:00am,9:00pm,9:00am,6:00pm,10:00am,6:00pm,V5C 2K2,-123.005,49.281,,2013-09-16 06:34:05 UTC,2013-09-16 06:34:05 UTC
5235 Kingsway,Burnaby,Safeway,(604) 438-0838,BC,8:00am,9:00pm,8:00am,9:00pm,8:00am,9:00pm,8:00am,9:00pm,8:00am,9:00pm,9:00am,6:00pm,10:00am,6:00pm,V5H 4G1,-122.988,49.2248,,2013-09-16 06:34:05 UTC,2013-09-16 06:34:05 UTC
1721 Columbia Ave,Castlegar,Safeway,(250) 365-7771,BC,8:00am,9:00pm,8:00am,9:00pm,8:00am,9:00pm,8:00am,9:00pm,8:00am,9:00pm,9:00am,6:00pm,10:00am,6:00pm,V1N 2W6,-117.658,49.3015,,2013-09-16 06:34:05 UTC,2013-09-16 06:34:05 UTC
45850 Yale Rd,Chilliwack,Safeway,(604) 795-6428,BC,8:00am,9:00pm,8:00am,9:00pm,8:00am,9:00pm,8:00am,9:00pm,8:00am,9:00pm,9:00am,6:00pm,10:00am,6:00pm,V2P 4N6,-121.959,49.1648,,2013-09-16 06:34:05 UTC,2013-09-16 06:34:05 UTC
45610 Luckakuck Way,Chilliwack,Safeway,(604) 858-8115,BC,8:00am,9:00pm,8:00am,9:00pm,8:00am,9:00pm,8:00am,9:00pm,8:00am,9:00pm,9:00am,6:00pm,10:00am,6:00pm,V2R 1A2,-121.962,49.1408,,2013-09-16 06:34:05 UTC,2013-09-16 06:34:05 UTC
100-3025 Lougheed Hwy,Coquitlam,Safeway,(604) 941-8212,BC,8:00am,9:00pm,8:00am,9:00pm,8:00am,9:00pm,8:00am,9:00pm,8:00am,9:00pm,9:00am,6:00pm,10:00am,6:00pm,V3B 1C6,-122.791,49.2734,,2013-09-16 06:34:05 UTC,2013-09-16 06:34:05 UTC
1033 Austin Rd,Coquitlam,Safeway,(604) 939-2850,BC,8:00am,9:00pm,8:00am,9:00pm,8:00am,9:00pm,8:00am,9:00pm,8:00am,9:00pm,9:00am,6:00pm,10:00am,6:00pm,V3K 3P2,-122.865,49.249,,2013-09-16 06:34:05 UTC,2013-09-16 06:34:05 UTC
1551 Cliffe Ave,Courtenay,Safeway,(250) 334-9284,BC,8:00am,9:00pm,8:00am,9:00pm,8:00am,9:00pm,8:00am,9:00pm,8:00am,9:00pm,9:00am,6:00pm,10:00am,6:00pm,V9N 2K6,-124.992,49.6851,,2013-09-16 06:34:05 UTC,2013-09-16 06:34:05 UTC
1200 Baker St,Cranbrook,Safeway,(250) 489-1165,BC,9:00am,9:00pm,9:00am,9:00pm,9:00am,9:00pm,9:00am,9:00pm,9:00am,9:00pm,10:00am,6:00pm,10:00am,6:00pm,V1C 1A8,-115.765,49.5121,,2013-09-16 06:34:05 UTC,2013-09-16 06:34:05 UTC
11200 - 8 St,Dawson Creek,Safeway,(250) 782-2253,BC,9:00am,9:00pm,9:00am,9:00pm,9:00am,9:00pm,9:00am,9:00pm,9:00am,9:00pm,9:00am,6:00pm,10:00am,6:00pm,V1G 4K6,-120.224,55.749,,2013-09-16 06:34:05 UTC,2013-09-16 06:34:05 UTC
6401 120 St.,Delta,Safeway,(604) 596-4885,BC,8:00am,9:00pm,8:00am,9:00pm,8:00am,9:00pm,8:00am,9:00pm,8:00am,9:00pm,9:00am,6:00pm,10:00am,6:00pm,V4E 3G3,-122.89,49.1194,,2013-09-16 06:34:05 UTC,2013-09-16 06:34:05 UTC
181 Trans Canada Highway,Duncan,Safeway,(250) 746-3993,BC,8:00am,9:00pm,8:00am,9:00pm,8:00am,9:00pm,8:00am,9:00pm,8:00am,9:00pm,9:00am,6:00pm,10:00am,6:00pm,V9L 3P8,-123.699,48.7753,,2013-09-16 06:34:05 UTC,2013-09-16 06:34:05 UTC
9123 100 St,Fort St. John,Safeway,(250) 261-5477,BC,9:00am,9:00pm,9:00am,9:00pm,9:00am,9:00pm,9:00am,9:00pm,9:00am,9:00pm,10:00am,6:00pm,Closed,Closed,V1J 5Z2,-120.848,56.2376,,2013-09-16 06:34:05 UTC,2013-09-16 06:34:05 UTC
750 Fortune Dr,Kamloops,Safeway,(250) 376-4129,BC,8:00am,9:00pm,8:00am,9:00pm,8:00am,9:00pm,8:00am,9:00pm,8:00am,9:00pm,9:00am,6:00pm,10:00am,6:00pm,V2B 2L2,-120.359,50.6987,,2013-09-16 06:34:05 UTC,2013-09-16 06:34:05 UTC
945 W Columbia St,Kamloops,Safeway,(250) 374-2811,BC,8:00am,9:00pm,8:00am,9:00pm,8:00am,9:00pm,8:00am,9:00pm,8:00am,9:00pm,9:00am,6:00pm,10:00am,6:00pm,V2C 1L5,-120.318,50.6714,,2013-09-16 06:34:05 UTC,2013-09-16 06:34:05 UTC
500-2339 Hwy 97 N,Kelowna,Safeway,(250) 860-4424,BC,8:00am,9:00pm,8:00am,9:00pm,8:00am,9:00pm,8:00am,9:00pm,8:00am,9:00pm,9:00am,6:00pm,10:00am,6:00pm,V1X 4H9,-119.386,49.9244,,2013-09-16 06:34:06 UTC,2013-09-16 06:34:06 UTC
697 Bernard Ave,Kelowna,Safeway,(250) 860-0332,BC,8:00am,9:00pm,8:00am,9:00pm,8:00am,9:00pm,8:00am,9:00pm,8:00am,9:00pm,9:00am,6:00pm,10:00am,6:00pm,V1Y 6P4,-119.489,49.8863,,2013-09-16 06:34:06 UTC,2013-09-16 06:34:06 UTC
6153 200 St,Langley,Safeway,(604) 533-3291,BC,8:00am,9:00pm,8:00am,9:00pm,8:00am,9:00pm,8:00am,9:00pm,8:00am,9:00pm,9:00am,6:00pm,10:00am,6:00pm,V2Y 1A2,-122.669,49.1145,,2013-09-16 06:34:06 UTC,2013-09-16 06:34:06 UTC
20871 Fraser Highway,Langley,Safeway,(604) 534-4363,BC,8:00am,9:00pm,8:00am,9:00pm,8:00am,9:00pm,8:00am,9:00pm,8:00am,9:00pm,9:00am,6:00pm,10:00am,6:00pm,V3A 4G7,-122.644,49.1014,,2013-09-16 06:34:06 UTC,2013-09-16 06:34:06 UTC
27566 Fraser Hwy,Langley,Safeway,(604) 857-1351,BC,8:00am,9:00pm,8:00am,9:00pm,8:00am,9:00pm,8:00am,9:00pm,8:00am,9:00pm,9:00am,6:00pm,10:00am,6:00pm,V4W 3N5,-122.66,49.1055,,2013-09-16 06:34:06 UTC,2013-09-16 06:34:06 UTC
20201 Lougheed Hwy,Maple Ridge,Safeway,(604) 460-1553,BC,8:00am,9:00pm,8:00am,9:00pm,8:00am,9:00pm,8:00am,9:00pm,8:00am,9:00pm,9:00am,6:00pm,10:00am,6:00pm,V2X 2P6,-122.661,49.2201,,2013-09-16 06:34:06 UTC,2013-09-16 06:34:06 UTC
32520 Lougheed Highway,Mission,Safeway,(604) 826-5369,BC,8:00am,9:00pm,8:00am,9:00pm,8:00am,9:00pm,8:00am,9:00pm,8:00am,9:00pm,9:00am,6:00pm,10:00am,6:00pm,V2V 1A5,-122.323,49.1329,,2013-09-16 06:34:06 UTC,2013-09-16 06:34:06 UTC
211 Anderson St,Nelson,Safeway,(250) 352-9710,BC,8:00am,9:00pm,8:00am,9:00pm,8:00am,9:00pm,8:00am,9:00pm,8:00am,9:00pm,9:00am,6:00pm,10:00am,6:00pm,V1L 3X8,-117.283,49.4999,,2013-09-16 06:34:06 UTC,2013-09-16 06:34:06 UTC
800 Mcbride Blvd,New Westminster,Safeway,(604) 524-4418,BC,8:00am,9:00pm,8:00am,9:00pm,8:00am,9:00pm,8:00am,9:00pm,8:00am,9:00pm,9:00am,6:00pm,10:00am,6:00pm,V3L 2B8,-122.912,49.2224,,2013-09-16 06:34:06 UTC,2013-09-16 06:34:06 UTC
198-610 6 St,New Westminster,Safeway,(604) 520-5937,BC,8:00am,9:00pm,8:00am,9:00pm,8:00am,9:00pm,8:00am,9:00pm,8:00am,9:00pm,9:00am,6:00pm,10:00am,6:00pm,V3L 3C2,-122.913,49.2071,,2013-09-16 06:34:06 UTC,2013-09-16 06:34:06 UTC
800 Carnarvon St,New Westminster,Safeway,(604) 522-2019,BC,8:00am,9:00pm,8:00am,9:00pm,8:00am,9:00pm,8:00am,9:00pm,8:00am,9:00pm,9:00am,6:00pm,10:00am,6:00pm,V3M 0C3,-122.913,49.2021,,2013-09-16 06:34:06 UTC,2013-09-16 06:34:06 UTC
1175 Mt Seymour Rd,North Vancouver,Safeway,(604) 924-1302,BC,8:00am,9:00pm,8:00am,9:00pm,8:00am,9:00pm,8:00am,9:00pm,8:00am,9:00pm,9:00am,6:00pm,10:00am,6:00pm,V7H 2Y4,-122.969,49.3161,,2013-09-16 06:34:06 UTC,2013-09-16 06:34:06 UTC
1170 E 27Th,North Vancouver,Safeway,(604) 980-3316,BC,8:00am,9:00pm,8:00am,9:00pm,8:00am,9:00pm,8:00am,9:00pm,8:00am,9:00pm,9:00am,6:00pm,10:00am,6:00pm,V7J 1S1,-123.041,49.3333,,2013-09-16 06:34:06 UTC,2013-09-16 06:34:06 UTC
1300 Lonsdale Ave,North Vancouver,Safeway,(604) 985-9811,BC,8:00am,9:00pm,8:00am,9:00pm,8:00am,9:00pm,8:00am,9:00pm,8:00am,9:00pm,9:00am,6:00pm,10:00am,6:00pm,V7M 2H8,-123.072,49.32,,2013-09-16 06:34:06 UTC,2013-09-16 06:34:06 UTC
780 Westview Dr,North Vancouver,Safeway,(604) 988-6645,BC,8:00am,9:00pm,8:00am,9:00pm,8:00am,9:00pm,8:00am,9:00pm,8:00am,9:00pm,9:00am,6:00pm,10:00am,6:00pm,V7N 3X4,-123.09,49.3338,,2013-09-16 06:34:07 UTC,2013-09-16 06:34:07 UTC
"1301 Main St.,801",Penticton,Safeway,(250) 487-2103,BC,8:00am,9:00pm,8:00am,9:00pm,8:00am,9:00pm,8:00am,9:00pm,8:00am,9:00pm,9:00am,6:00pm,10:00am,6:00pm,V2A 5E9,-119.586,49.485,,2013-09-16 06:34:07 UTC,2013-09-16 06:34:07 UTC
3756 10 Ave,Port Alberni,Safeway,(250) 723-6212,BC,8:00am,9:00pm,8:00am,9:00pm,8:00am,9:00pm,8:00am,9:00pm,8:00am,9:00pm,9:00am,6:00pm,10:00am,6:00pm,V9Y 4W6,-124.798,49.2444,,2013-09-16 06:34:07 UTC,2013-09-16 06:34:07 UTC
1100-2850 Shaughnessy St,Port Coquitlam,Safeway,(604) 945-4072,BC,8:00am,9:00pm,8:00am,9:00pm,8:00am,9:00pm,8:00am,9:00pm,8:00am,9:00pm,9:00am,6:00pm,10:00am,6:00pm,V3C 6K5,-122.793,49.234,,2013-09-16 06:34:07 UTC,2013-09-16 06:34:07 UTC
7040 Barnet St,Powell River,Safeway,(604) 485-1233,BC,8:00am,9:00pm,8:00am,9:00pm,8:00am,9:00pm,8:00am,9:00pm,8:00am,9:00pm,9:00am,6:00pm,10:00am,6:00pm,V8A 2A1,-124.518,49.8418,,2013-09-16 06:34:07 UTC,2013-09-16 06:34:07 UTC
200 2 Ave W,Prince Rupert,Safeway,(250) 624-2412,BC,9:00am,9:00pm,9:00am,9:00pm,9:00am,9:00pm,9:00am,9:00pm,9:00am,9:00pm,9:00am,6:00pm,10:00am,5:00pm,V8J 1G5,-130.323,54.3149,,2013-09-16 06:34:07 UTC,2013-09-16 06:34:07 UTC
445 Reid St,Quesnel,Safeway,(250) 992-6477,BC,8:00am,8:00pm,8:00am,8:00pm,8:00am,8:00pm,8:00am,8:00pm,8:00am,8:00pm,10:00am,6:00pm,10:00am,6:00pm,V2J 2M7,-122.497,52.9797,,2013-09-16 06:34:07 UTC,2013-09-16 06:34:07 UTC
10151 No 3 Rd,Richmond,Safeway,(604) 271-8678,BC,8:00am,9:00pm,8:00am,9:00pm,8:00am,9:00pm,8:00am,9:00pm,8:00am,9:00pm,9:00am,6:00pm,10:00am,6:00pm,V7A 4R6,-123.138,49.1398,,2013-09-16 06:34:07 UTC,2013-09-16 06:34:07 UTC
6140 Blundell Rd,Richmond,Safeway,(604) 274-7244,BC,8:00am,9:00pm,8:00am,9:00pm,8:00am,9:00pm,8:00am,9:00pm,8:00am,9:00pm,9:00am,6:00pm,10:00am,6:00pm,V7C 1H6,-123.157,49.1556,,2013-09-16 06:34:07 UTC,2013-09-16 06:34:07 UTC
8671 No 1 Rd,Richmond,Safeway,(604) 271-8790,BC,8:00am,9:00pm,8:00am,9:00pm,8:00am,9:00pm,8:00am,9:00pm,8:00am,9:00pm,9:00am,6:00pm,10:00am,6:00pm,V7C 1V2,-123.181,49.1503,,2013-09-16 06:34:07 UTC,2013-09-16 06:34:07 UTC
360 Trans Canada Hwy,Salmon Arm,Safeway,(250) 832-8086,BC,8:00am,9:00pm,8:00am,9:00pm,8:00am,9:00pm,8:00am,9:00pm,8:00am,9:00pm,9:00am,6:00pm,10:00am,6:00pm,V1E 4M2,-119.29,50.6996,,2013-09-16 06:34:07 UTC,2013-09-16 06:34:07 UTC
2345 Beacon Ave,Sidney,Safeway,(250) 656-2735,BC,8:00am,8:00pm,8:00am,8:00pm,8:00am,8:00pm,8:00am,8:00pm,8:00am,8:00pm,9:00am,6:00pm,9:00am,5:00pm,V8L 1W9,-123.402,48.649,,2013-09-16 06:34:07 UTC,2013-09-16 06:34:07 UTC
3664 Hwy 16,Smithers,Safeway,(250) 847-2622,BC,10:00am,6:00pm,10:00am,6:00pm,10:00am,6:00pm,10:00am,6:00pm,10:00am,6:00pm,CLOSED,CLOSED,Closed,Closed,V0J 2N0,-127.164,54.7801,,2013-09-16 06:34:08 UTC,2013-09-16 06:34:08 UTC
8860 - 152 St,Surrey,Safeway,(604) 589-4774,BC,8:00am,9:00pm,8:00am,9:00pm,8:00am,9:00pm,8:00am,9:00pm,8:00am,9:00pm,9:00am,6:00pm,10:00am,6:00pm,V3R 4E4,-122.801,49.1639,,2013-09-16 06:34:08 UTC,2013-09-16 06:34:08 UTC
10355 King George Highway,Surrey,Safeway,(604) 584-8285,BC,8:00am,9:00pm,8:00am,9:00pm,8:00am,9:00pm,8:00am,9:00pm,8:00am,9:00pm,9:00am,6:00pm,10:00am,6:00pm,V3T 2W6,-122.845,49.1909,,2013-09-16 06:34:08 UTC,2013-09-16 06:34:08 UTC
7450 120 St,Surrey,Safeway,(604) 594-7341,BC,8:00am,9:00pm,8:00am,9:00pm,8:00am,9:00pm,8:00am,9:00pm,8:00am,9:00pm,9:00am,6:00pm,10:00am,6:00pm,V3W 3M9,-122.89,49.1385,,2013-09-16 06:34:08 UTC,2013-09-16 06:34:08 UTC
7165 138 St,Surrey,Safeway,(604) 594-9155,BC,8:00am,9:00pm,8:00am,9:00pm,8:00am,9:00pm,8:00am,9:00pm,8:00am,9:00pm,9:00am,6:00pm,10:00am,6:00pm,V3W 7T9,-122.839,49.133,,2013-09-16 06:34:08 UTC,2013-09-16 06:34:08 UTC
12825 16 Ave,Surrey,Safeway,(604) 531-3422,BC,8:00am,9:00pm,8:00am,9:00pm,8:00am,9:00pm,8:00am,9:00pm,8:00am,9:00pm,9:00am,6:00pm,10:00am,6:00pm,V4A 1N5,-122.866,49.0313,,2013-09-16 06:34:08 UTC,2013-09-16 06:34:08 UTC
700-15355 24 Ave,Surrey,Safeway,(604) 535-8960,BC,8:00am,9:00pm,8:00am,9:00pm,8:00am,9:00pm,8:00am,9:00pm,8:00am,9:00pm,9:00am,6:00pm,10:00am,6:00pm,V4A 2H9,-122.846,49.0458,,2013-09-16 06:34:08 UTC,2013-09-16 06:34:08 UTC
4655 Lakelse Ave,Terrace,Safeway,(250) 635-7206,BC,9:00am,9:00pm,9:00am,9:00pm,9:00am,9:00pm,9:00am,9:00pm,9:00am,9:00pm,9:00am,5:00pm,9:00am,5:00pm,V8G 1R3,-128.592,54.5168,,2013-09-16 06:34:08 UTC,2013-09-16 06:34:08 UTC
1599 2 Ave,Trail,Safeway,(250) 368-8710,BC,9:00am,6:00pm,9:00am,6:00pm,9:00am,6:00pm,9:00am,6:00pm,9:00am,6:00pm,9:00am,6:00pm,10:00am,6:00pm,V1R 1M3,-117.701,49.0975,,2013-09-16 06:34:08 UTC,2013-09-16 06:34:08 UTC
1143 - 56 St,Tsawwassen,Safeway,(604) 948-9255,BC,8:00am,9:00pm,8:00am,9:00pm,8:00am,9:00pm,8:00am,9:00pm,8:00am,9:00pm,9:00am,6:00pm,10:00am,6:00pm,V4L 2A2,-123.069,49.0237,,2013-09-16 06:34:08 UTC,2013-09-16 06:34:08 UTC
1780 E Brd.Way,Vancouver,Safeway,(604) 873-0225,BC,8:00am,9:00pm,8:00am,9:00pm,8:00am,9:00pm,8:00am,9:00pm,8:00am,9:00pm,9:00am,6:00pm,10:00am,6:00pm,V5N 1W3,-123.067,49.2623,,2013-09-16 06:34:08 UTC,2013-09-16 06:34:08 UTC
3410 Kingsway,Vancouver,Safeway,(604) 439-0090,BC,8:00am,9:00pm,8:00am,9:00pm,8:00am,9:00pm,8:00am,9:00pm,8:00am,9:00pm,9:00am,6:00pm,10:00am,6:00pm,V5R 5L4,-123.033,49.2324,,2013-09-16 06:34:08 UTC,2013-09-16 06:34:08 UTC
990 King Edward Ave W,Vancouver,Safeway,(604) 733-0073,BC,8:00am,9:00pm,8:00am,9:00pm,8:00am,9:00pm,8:00am,9:00pm,8:00am,9:00pm,9:00am,6:00pm,10:00am,6:00pm,V5Z 2E2,-123.127,49.2492,,2013-09-16 06:34:08 UTC,2013-09-16 06:34:08 UTC
185-650 W 41St Ave,Vancouver,Safeway,(604) 263-2575,BC,8:00am,9:00pm,8:00am,9:00pm,8:00am,9:00pm,8:00am,9:00pm,8:00am,9:00pm,9:00am,6:00pm,10:00am,6:00pm,V5Z 2M9,-123.11,49.2333,,2013-09-16 06:34:08 UTC,2013-09-16 06:34:08 UTC
555 W 12 Ave,Vancouver,Safeway,(604) 872-8762,BC,8:00am,9:00pm,8:00am,9:00pm,8:00am,9:00pm,8:00am,9:00pm,8:00am,9:00pm,9:00am,6:00pm,10:00am,6:00pm,V5Z 3X7,-123.116,49.2605,,2013-09-16 06:34:08 UTC,2013-09-16 06:34:08 UTC
1766 Robson St,Vancouver,Safeway,(604) 683-6155,BC,8:00am,9:00pm,8:00am,9:00pm,8:00am,9:00pm,8:00am,9:00pm,8:00am,9:00pm,9:00am,6:00pm,10:00am,6:00pm,V6G 1E2,-123.135,49.2912,,2013-09-16 06:34:08 UTC,2013-09-16 06:34:08 UTC
1641 Davie St,Vancouver,Safeway,(604) 669-8313,BC,8:00am,9:00pm,8:00am,9:00pm,8:00am,9:00pm,8:00am,9:00pm,8:00am,9:00pm,9:00am,6:00pm,10:00am,6:00pm,V6G 1W1,-123.139,49.2856,,2013-09-16 06:34:08 UTC,2013-09-16 06:34:08 UTC
109-4255 Arbutus St,Vancouver,Safeway,(604) 731-5331,BC,8:00am,9:00pm,8:00am,9:00pm,8:00am,9:00pm,8:00am,9:00pm,8:00am,9:00pm,9:00am,6:00pm,10:00am,6:00pm,V6J 4R1,-123.153,49.2717,,2013-09-16 06:34:08 UTC,2013-09-16 06:34:08 UTC
2315 W 4 Ave,Vancouver,Safeway,(604) 737-9803,BC,8:00am,9:00pm,8:00am,9:00pm,8:00am,9:00pm,8:00am,9:00pm,8:00am,9:00pm,9:00am,6:00pm,10:00am,6:00pm,V6K 1P2,-123.158,49.2682,,2013-09-16 06:34:08 UTC,2013-09-16 06:34:08 UTC
2733 W Brdway,Vancouver,Safeway,(604) 732-5226,BC,8:00am,9:00pm,8:00am,9:00pm,8:00am,9:00pm,8:00am,9:00pm,8:00am,9:00pm,9:00am,6:00pm,10:00am,6:00pm,V6K 2G5,-123.167,49.264,,2013-09-16 06:34:08 UTC,2013-09-16 06:34:08 UTC
8377 Granville St,Vancouver,Safeway,,BC,8:00am,8:00pm,8:00am,8:00pm,8:00am,8:00pm,8:00am,8:00pm,8:00am,8:00pm,9:00am,5:00pm,10:00am,6:00pm,V6P 4Z8,-123.14,49.2106,,2013-09-16 06:34:08 UTC,2013-09-16 06:34:08 UTC
8555 Granville St,Vancouver,Safeway,(604) 263-2635,BC,8:00am,9:00pm,8:00am,9:00pm,8:00am,9:00pm,8:00am,9:00pm,8:00am,9:00pm,9:00am,6:00pm,10:00am,6:00pm,V6P 4Z9,-123.14,49.209,,2013-09-16 06:34:08 UTC,2013-09-16 06:34:08 UTC
4575 W 10 Ave,Vancouver,Safeway,(604) 224-7200,BC,8:00am,9:00pm,8:00am,9:00pm,8:00am,9:00pm,8:00am,9:00pm,8:00am,9:00pm,9:00am,6:00pm,10:00am,6:00pm,V6R 2J2,-123.211,49.2639,,2013-09-16 06:34:08 UTC,2013-09-16 06:34:08 UTC
3417 30 Ave,Vernon,Safeway,(250) 542-8167,BC,8:00am,9:00pm,8:00am,9:00pm,8:00am,9:00pm,8:00am,9:00pm,8:00am,9:00pm,9:00am,6:00pm,10:00am,6:00pm,V1T 2E3,-119.271,50.2669,,2013-09-16 06:34:09 UTC,2013-09-16 06:34:09 UTC
4300 32 St,Vernon,Safeway,(250) 542-2627,BC,8:00am,9:00pm,8:00am,9:00pm,8:00am,9:00pm,8:00am,9:00pm,8:00am,9:00pm,9:00am,6:00pm,10:00am,6:00pm,V1T 9H2,-119.274,50.2747,,2013-09-16 06:34:09 UTC,2013-09-16 06:34:09 UTC
3958 Shelbourne,Victoria,Safeway,(250) 477-2433,BC,9:00am,9:00pm,9:00am,9:00pm,9:00am,9:00pm,9:00am,9:00pm,9:00am,9:00pm,9:00am,6:00pm,10:00am,6:00pm,V8N 3E2,-123.333,48.4677,,2013-09-16 06:34:09 UTC,2013-09-16 06:34:09 UTC
1950  Foul Bay,Victoria,Safeway,(250) 370-1669,BC,9:00am,9:00pm,9:00am,9:00pm,9:00am,9:00pm,9:00am,9:00pm,9:00am,9:00pm,9:00am,6:00pm,10:00am,6:00pm,V8R 5A7,-123.322,48.4313,,2013-09-16 06:34:09 UTC,2013-09-16 06:34:09 UTC
3170 Tillicum Rd,Victoria,Safeway,(250) 384-7714,BC,9:00am,9:00pm,9:00am,9:00pm,9:00am,9:00pm,9:00am,9:00pm,9:00am,9:00pm,9:00am,6:00pm,10:00am,6:00pm,V9A 6T2,-123.394,48.4535,,2013-09-16 06:34:09 UTC,2013-09-16 06:34:09 UTC
1650 Marine Dr,West Vancouver,Safeway,(604) 922-6131,BC,9:00am,7:00pm,9:00am,7:00pm,9:00am,7:00pm,9:00am,7:00pm,9:00am,7:00pm,9:00am,6:00pm,10:00am,6:00pm,V7V 1J1,-123.16,49.3286,,2013-09-16 06:34:09 UTC,2013-09-16 06:34:09 UTC
5385 Headland Dr,West Vancouver,Safeway,(604) 926-2550,BC,9:00am,7:00pm,9:00am,7:00pm,9:00am,7:00pm,9:00am,7:00pm,9:00am,7:00pm,9:00am,6:00pm,10:00am,6:00pm,V7W 3E7,-123.252,49.3506,,2013-09-16 06:34:09 UTC,2013-09-16 06:34:09 UTC
451 Oliver St,Williams Lake,Safeway,(250) 398-6851,BC,9:00am,7:00pm,9:00am,7:00pm,9:00am,7:00pm,9:00am,7:00pm,9:00am,7:00pm,9:00am,6:00pm,10:00am,5:00pm,V2G 1M5,-122.139,52.1283,,2013-09-16 06:34:09 UTC,2013-09-16 06:34:09 UTC
1610 18 St,Brandon,Safeway,(204) 725-0117,MB,9:00am,9:00pm,9:00am,9:00pm,9:00am,9:00pm,9:00am,9:00pm,9:00am,9:00pm,9:00am,6:00pm,10:00am,6:00 pm,R7A 5C5,-99.962,49.8248,,2013-09-16 06:34:09 UTC,2013-09-16 06:34:09 UTC
921 - 18 St N,Brandon,Safeway,(204) 726-8014,MB,9:00am,9:00pm,9:00am,9:00pm,9:00am,9:00pm,9:00am,9:00pm,9:00am,9:00pm,9:00am,6:00pm,10:00am,6:00 pm,R7A 7S1,-99.9618,49.8658,,2013-09-16 06:34:09 UTC,2013-09-16 06:34:09 UTC
318 Manitoba Ave,Selkirk,Safeway,(204) 482-5775,MB,9:00am,9:00pm,9:00am,9:00pm,9:00am,9:00pm,9:00am,9:00pm,9:00am,9:00pm,9:00am,6:00pm,10:00am,6:00 pm,R1A 0Y7,-96.8731,50.1454,,2013-09-16 06:34:09 UTC,2013-09-16 06:34:09 UTC
143 Provincial Trunk Hwy 12 N,Steinbach,Safeway,(204) 346-1555,MB,9:00am,9:00pm,9:00am,9:00pm,9:00am,9:00pm,9:00am,9:00pm,9:00am,9:00pm,9:00am,6:00pm,Closed,Closed,R5G 1T5,-96.6881,49.5404,,2013-09-16 06:34:09 UTC,2013-09-16 06:34:09 UTC
300 Mystery Lake Rd,Thompson,Safeway,(204) 677-2600,MB,9:00am,7:00pm,9:00am,7:00pm,9:00am,7:00pm,9:00am,7:00pm,9:00am,7:00pm,10:00am,6:00pm,10:00am,6:00pm,R8N 0M2,-97.8507,55.7447,,2013-09-16 06:34:09 UTC,2013-09-16 06:34:09 UTC
654 Kildare Ave E,Winnipeg,Safeway,(204) 222-6902,MB,9:00am,9:00pm,9:00am,9:00pm,9:00am,9:00pm,9:00am,9:00pm,9:00am,9:00pm,9:00am,6:00pm,10:00am,6:00 pm,R2C 0P6,-96.9858,49.9009,,2013-09-16 06:34:09 UTC,2013-09-16 06:34:09 UTC
1615 Regent Ave W,Winnipeg,Safeway,(204) 663-6862,MB,9:00am,9:00pm,9:00am,9:00pm,9:00am,9:00pm,9:00am,9:00pm,9:00am,9:00pm,9:00am,6:00pm,10:00am,6:00 pm,R2C 3C6,-97.0697,49.8986,,2013-09-16 06:34:09 UTC,2013-09-16 06:34:09 UTC
1441 Henderson Highway,Winnipeg,Safeway,(204) 338-4600,MB,9:00am,9:00pm,9:00am,9:00pm,9:00am,9:00pm,9:00am,9:00pm,9:00am,9:00pm,9:00am,6:00pm,10:00am,6:00 pm,R2G 1N4,-97.0861,49.9455,,2013-09-16 06:34:09 UTC,2013-09-16 06:34:09 UTC
285 Marion St,Winnipeg,Safeway,(204) 237-6824,MB,9:00am,9:00pm,9:00am,9:00pm,9:00am,9:00pm,9:00am,9:00pm,9:00am,9:00pm,9:00am,6:00pm,10:00am,6:00 pm,R2H 0T8,-97.1149,49.8817,,2013-09-16 06:34:09 UTC,2013-09-16 06:34:09 UTC
77 Vermillion Rd,Winnipeg,Safeway,(204) 255-5755,MB,9:00am,9:00pm,9:00am,9:00pm,9:00am,9:00pm,9:00am,9:00pm,9:00am,9:00pm,9:00am,6:00pm,10:00am,6:00 pm,R2J 3W7,-97.0736,49.854,,2013-09-16 06:34:09 UTC,2013-09-16 06:34:09 UTC
731 Henderson Highway,Winnipeg,Safeway,(204) 667-4944,MB,9:00am,9:00pm,9:00am,9:00pm,9:00am,9:00pm,9:00am,9:00pm,9:00am,9:00pm,9:00am,6:00pm,10:00am,6:00 pm,R2K 2K4,-97.1046,49.9269,,2013-09-16 06:34:09 UTC,2013-09-16 06:34:09 UTC
2 Alpine Ave,Winnipeg,Safeway,(204) 256-9430,MB,9:00am,9:00pm,9:00am,9:00pm,9:00am,9:00pm,9:00am,9:00pm,9:00am,9:00pm,9:00am,6:00pm,10:00am,6:00 pm,R2M 0Y5,-97.1015,49.8561,,2013-09-16 06:34:09 UTC,2013-09-16 06:34:09 UTC
850 Dakota St,Winnipeg,Safeway,(204) 255-4765,MB,9:00am,9:00pm,9:00am,9:00pm,9:00am,9:00pm,9:00am,9:00pm,9:00am,9:00pm,9:00am,6:00pm,10:00am,6:00 pm,R2M 5R9,-97.1071,49.8306,,2013-09-16 06:34:09 UTC,2013-09-16 06:34:09 UTC
920 Jefferson Ave,Winnipeg,Safeway,(204) 694-4125,MB,9:00am,9:00pm,9:00am,9:00pm,9:00am,9:00pm,9:00am,9:00pm,9:00am,9:00pm,9:00am,6:00pm,10:00am,6:00 pm,R2P 1W1,-97.1559,49.9454,,2013-09-16 06:34:10 UTC,2013-09-16 06:34:10 UTC
841 Leila Ave,Winnipeg,Safeway,(204) 339-6962,MB,9:00am,9:00pm,9:00am,9:00pm,9:00am,9:00pm,9:00am,9:00pm,9:00am,9:00pm,9:00am,6:00pm,10:00am,6:00 pm,R2V 3J7,-97.1434,49.9522,,2013-09-16 06:34:10 UTC,2013-09-16 06:34:10 UTC
594 Mountain Ave,Winnipeg,Safeway,(204) 589-2588,MB,9:00am,9:00pm,9:00am,9:00pm,9:00am,9:00pm,9:00am,9:00pm,9:00am,9:00pm,9:00am,6:00pm,10:00am,6:00 pm,R2W 1L2,-97.1441,49.9243,,2013-09-16 06:34:10 UTC,2013-09-16 06:34:10 UTC
1441 Main St,Winnipeg,Safeway,(204) 589-7135,MB,9:00am,9:00pm,9:00am,9:00pm,9:00am,9:00pm,9:00am,9:00pm,9:00am,9:00pm,9:00am,6:00pm,10:00am,6:00 pm,R2W 3V6,-97.1247,49.9263,,2013-09-16 06:34:10 UTC,2013-09-16 06:34:10 UTC
850 Keewatin St,Winnipeg,Safeway,(204) 694-5087,MB,9:00am,9:00pm,9:00am,9:00pm,9:00am,9:00pm,9:00am,9:00pm,9:00am,9:00pm,9:00am,6:00pm,10:00am,6:00 pm,R2X 3J7,-97.1952,49.9385,,2013-09-16 06:34:10 UTC,2013-09-16 06:34:10 UTC
600 Sargent Ave,Winnipeg,Safeway,(204) 783-0149,MB,9:00am,9:00pm,9:00am,9:00pm,9:00am,9:00pm,9:00am,9:00pm,9:00am,9:00pm,9:00am,6:00pm,10:00am,6:00 pm,R3E 0A1,-97.159,49.8966,,2013-09-16 06:34:10 UTC,2013-09-16 06:34:10 UTC
1612 Ness Ave,Winnipeg,Safeway,(204) 775-6348,MB,9:00am,9:00pm,9:00am,9:00pm,9:00am,9:00pm,9:00am,9:00pm,9:00am,9:00pm,9:00am,6:00pm,10:00am,6:00 pm,R3J 3X3,-97.2049,49.8835,,2013-09-16 06:34:10 UTC,2013-09-16 06:34:10 UTC
3393 Portage Ave,Winnipeg,Safeway,(204) 888-3200,MB,9:00am,9:00pm,9:00am,9:00pm,9:00am,9:00pm,9:00am,9:00pm,9:00am,9:00pm,9:00am,6:00pm,10:00am,6:00 pm,R3K 2G7,-97.299,49.8827,,2013-09-16 06:34:10 UTC,2013-09-16 06:34:10 UTC
499 River Ave,Winnipeg,Safeway,(204) 452-2276,MB,9:00am,9:00pm,9:00am,9:00pm,9:00am,9:00pm,9:00am,9:00pm,9:00am,9:00pm,9:00am,6:00pm,10:00am,6:00 pm,R3L 0C9,-97.1482,49.8786,,2013-09-16 06:34:10 UTC,2013-09-16 06:34:10 UTC
655 Osborne St,Winnipeg,Safeway,(204) 475-0793,MB,9:00am,9:00pm,9:00am,9:00pm,9:00am,9:00pm,9:00am,9:00pm,9:00am,9:00pm,9:00am,6:00pm,10:00am,6:00 pm,R3L 2B7,-97.1326,49.8629,,2013-09-16 06:34:10 UTC,2013-09-16 06:34:10 UTC
1120 Grant Ave,Winnipeg,Safeway,(204) 452-7197,MB,9:00am,9:00pm,9:00am,9:00pm,9:00am,9:00pm,9:00am,9:00pm,9:00am,9:00pm,9:00am,6:00pm,10:00am,6:00 pm,R3M 2A6,-97.1645,49.8594,,2013-09-16 06:34:10 UTC,2013-09-16 06:34:10 UTC
2025 Corydon At Edgeland,Winnipeg,Safeway,(204) 489-6498,MB,9:00am,9:00pm,9:00am,9:00pm,9:00am,9:00pm,9:00am,9:00pm,9:00am,9:00pm,9:00am,6:00pm,10:00am,6:00 pm,R3P 0N5,-97.2113,49.8663,,2013-09-16 06:34:10 UTC,2013-09-16 06:34:10 UTC
1625 Kenaston Blvd,Winnipeg,Safeway,(204) 488-9404,MB,9:00am,9:00pm,9:00am,9:00pm,9:00am,9:00pm,9:00am,9:00pm,9:00am,9:00pm,9:00am,6:00pm,10:00am,6:00 pm,R3P 2M4,-97.2037,49.8247,,2013-09-16 06:34:10 UTC,2013-09-16 06:34:10 UTC
3900 Grant Ave,Winnipeg,Safeway,(204) 837-5339,MB,9:00am,9:00pm,9:00am,9:00pm,9:00am,9:00pm,9:00am,9:00pm,9:00am,9:00pm,9:00am,6:00pm,10:00am,6:00 pm,R3R 3C2,-97.2631,49.859,,2013-09-16 06:34:10 UTC,2013-09-16 06:34:10 UTC
1319 Pembina Highway,Winnipeg,Safeway,(204) 284-3824,MB,9:00am,9:00pm,9:00am,9:00pm,9:00am,9:00pm,9:00am,9:00pm,9:00am,9:00pm,9:00am,6:00pm,10:00am,6:00 pm,R3T 2B6,-97.1531,49.8407,,2013-09-16 06:34:10 UTC,2013-09-16 06:34:10 UTC
2155 Pembina Ave,Winnipeg,Safeway,(204) 269-6548,MB,9:00am,9:00pm,9:00am,9:00pm,9:00am,9:00pm,9:00am,9:00pm,9:00am,9:00pm,9:00am,6:00pm,10:00am,6:00 pm,R3T 2H1,-97.1524,49.8129,,2013-09-16 06:34:10 UTC,2013-09-16 06:34:10 UTC
417 Scott St,Fort Frances,Safeway,(807) 274-4521,ON,10:00am,6:00pm,10:00am,6:00pm,10:00am,6:00pm,10:00am,6:00pm,10:00am,6:00pm,CLOSED,CLOSED,Closed,Closed,P9A 1H3,-93.3921,48.61,,2013-09-16 06:34:10 UTC,2013-09-16 06:34:10 UTC
70 N Court St,Thunder Bay,Safeway,(807) 345-2651,ON,9:00am,9:00pm,9:00am,9:00pm,9:00am,9:00pm,9:00am,9:00pm,9:00am,9:00pm,9:00am,6:00pm,10:00am,5:00pm,P7A 4T8,-89.22,48.4377,,2013-09-16 06:34:10 UTC,2013-09-16 06:34:10 UTC
1015 Dawson Rd,Thunder Bay,Safeway,(807) 768-0099,ON,9:00am,9:00pm,9:00am,9:00pm,9:00am,9:00pm,9:00am,9:00pm,9:00am,9:00pm,9:00am,6:00pm,10:00am,5:00pm,P7B 5E3,-89.2525,48.4511,,2013-09-16 06:34:11 UTC,2013-09-16 06:34:11 UTC
115 W Arthur St,Thunder Bay,Safeway,(807) 473-5993,ON,9:00am,9:00pm,9:00am,9:00pm,9:00am,9:00pm,9:00am,9:00pm,9:00am,9:00pm,9:00am,6:00pm,10:00am,5:00pm,P7E 5P7,-89.279,48.3808,,2013-09-16 06:34:11 UTC,2013-09-16 06:34:11 UTC
200 1St Ave Nw,Moose Jaw,Safeway,(306) 693-8033,SK,9:00am,9:00pm,9:00am,9:00pm,9:00am,9:00pm,9:00am,9:00pm,9:00am,9:00pm,9:00am,6:00pm,10:00am,6:00pm,S6H 1S6,-105.537,50.3917,,2013-09-16 06:34:11 UTC,2013-09-16 06:34:11 UTC
2995 2 Ave W,Prince Albert,Safeway,(306) 922-1242,SK,9:00am,9:00pm,9:00am,9:00pm,9:00am,9:00pm,9:00am,9:00pm,9:00am,9:00pm,9:00am,6:00pm,10:00am,6:00pm,S6V 5V5,-105.76,53.1859,,2013-09-16 06:34:11 UTC,2013-09-16 06:34:11 UTC
2223 Victoria Ave E,Regina,Safeway,(306) 789-3191,SK,9:00am,9:00pm,9:00am,9:00pm,9:00am,9:00pm,9:00am,9:00pm,9:00am,9:00pm,9:00am,6:00pm,10:00am,6:00pm,S4N 6E4,-104.553,50.447,,2013-09-16 06:34:11 UTC,2013-09-16 06:34:11 UTC
3859 Sherwood Dr,Regina,Safeway,(306) 949-7488,SK,9:00am,9:00pm,9:00am,9:00pm,9:00am,9:00pm,9:00am,9:00pm,9:00am,9:00pm,9:00am,6:00pm,10:00am,6:00pm,S4R 4A8,-104.637,50.4755,,2013-09-16 06:34:11 UTC,2013-09-16 06:34:11 UTC
353 Albert St N,Regina,Safeway,(306) 543-8749,SK,9:00am,9:00pm,9:00am,9:00pm,9:00am,9:00pm,9:00am,9:00pm,9:00am,9:00pm,9:00am,6:00pm,10:00am,6:00pm,S4R 5R9,-104.618,50.4816,,2013-09-16 06:34:11 UTC,2013-09-16 06:34:11 UTC
3801 Albert St,Regina,Safeway,(306) 586-6933,SK,9:00am,9:00pm,9:00am,9:00pm,9:00am,9:00pm,9:00am,9:00pm,9:00am,9:00pm,9:00am,6:00pm,10:00am,6:00pm,S4S 3R4,-104.618,50.4187,,2013-09-16 06:34:11 UTC,2013-09-16 06:34:11 UTC
3015 Gordon Rd,Regina,Safeway,(306) 586-5140,SK,9:00am,9:00pm,9:00am,9:00pm,9:00am,9:00pm,9:00am,9:00pm,9:00am,9:00pm,9:00am,6:00pm,10:00am,6:00pm,S4S 6H7,-104.624,50.4049,,2013-09-16 06:34:11 UTC,2013-09-16 06:34:11 UTC
2931-13 Ave,Regina,Safeway,(306) 522-5453,SK,9:00am,9:00pm,9:00am,9:00pm,9:00am,9:00pm,9:00am,9:00pm,9:00am,9:00pm,9:00am,6:00pm,10:00am,6:00pm,S4T 1N8,-104.623,50.4455,,2013-09-16 06:34:11 UTC,2013-09-16 06:34:11 UTC
1501 8 St. East #4,Saskatoon,Safeway,(306) 373-0030,SK,9:00am,9:00pm,9:00am,9:00pm,9:00am,9:00pm,9:00am,9:00pm,9:00am,9:00pm,9:00am,6:00pm,10:00am,6:00pm,S7H 0T8,-106.635,52.1149,,2013-09-16 06:34:11 UTC,2013-09-16 06:34:11 UTC
3310-8 St E,Saskatoon,Safeway,(306) 955-4644,SK,9:00am,9:00pm,9:00am,9:00pm,9:00am,9:00pm,9:00am,9:00pm,9:00am,9:00pm,9:00am,6:00pm,10:00am,6:00pm,S7H 0W4,-106.603,52.1146,,2013-09-16 06:34:11 UTC,2013-09-16 06:34:11 UTC
2325 Preston Ave,Saskatoon,Safeway,(306) 374-4145,SK,9:00am,9:00pm,9:00am,9:00pm,9:00am,9:00pm,9:00am,9:00pm,9:00am,9:00pm,9:00am,6:00pm,10:00am,6:00pm,S7J 2G2,-106.623,52.1014,,2013-09-16 06:34:11 UTC,2013-09-16 06:34:11 UTC
134 Primrose Dr,Saskatoon,Safeway,(306) 934-8185,SK,9:00am,9:00pm,9:00am,9:00pm,9:00am,9:00pm,9:00am,9:00pm,9:00am,9:00pm,9:00am,6:00pm,10:00am,6:00pm,S7K 5S6,-106.64,52.1673,,2013-09-16 06:34:11 UTC,2013-09-16 06:34:11 UTC
302 33 St W,Saskatoon,Safeway,(306) 244-2250,SK,9:00am,9:00pm,9:00am,9:00pm,9:00am,9:00pm,9:00am,9:00pm,9:00am,9:00pm,9:00am,6:00pm,10:00am,6:00pm,S7L 0T2,-106.673,52.1439,,2013-09-16 06:34:11 UTC,2013-09-16 06:34:11 UTC
300 Confederation Dr,Saskatoon,Safeway,(306) 384-7474,SK,9:00am,9:00pm,9:00am,9:00pm,9:00am,9:00pm,9:00am,9:00pm,9:00am,9:00pm,9:00am,6:00pm,10:00am,6:00pm,S7L 4R6,-106.722,52.1309,,2013-09-16 06:34:12 UTC,2013-09-16 06:34:12 UTC
1860 Mcormond Dr.,Saskatoon,Safeway,(306) 934-5060,SK,9:00am,9:00pm,9:00am,9:00pm,9:00am,9:00pm,9:00am,9:00pm,9:00am,9:00pm,9:00am,6:00pm,10:00am,6:00pm,S7S 0A5,-106.566,52.1463,,2013-09-16 06:34:12 UTC,2013-09-16 06:34:12 UTC