address,city,company_name,phone,state,mon_from,mon_to,tue_from,tue_to,wed_from,wed_to,thu_from,thu_to,fri_from,fri_to,sat_from,sat_to,sun_from,sun_to,zip_code,longitude,latitude,gmaps,created_at,updated_at
727 anderton road ,Comox,McDonalds, (250) 890-2001,BC, 05:00,11:00, 05:00,11:00, 05:00,11:00, 05:00,11:00, 05:00,11:00, 05:00,11:00, 05:00,11:00,V9M 3Y6,-124.933,49.6928,true,2013-09-12 11:42:04 UTC,2013-09-12 11:42:04 UTC
1 peace bridge plaza ,Fort erie,McDonalds, (905) 871-6262,ON, 05:00,11:00, 05:00,11:00, 05:00,11:00, 05:00,11:00, 05:00,11:00, 05:00,11:00, 05:00,11:00,L2A 5N1,-78.9166,42.9296,true,2013-09-12 11:42:04 UTC,2013-09-12 11:42:04 UTC
13 - 7519 prairie valley road ,Summerland,McDonalds, (250) 494-1350,BC, 06:00,10:00, 06:00,10:00, 06:00,10:00, 06:00,10:00, 06:00,11:00, 06:00,11:00, 06:00,10:00,V0H 1Z0,-119.839,49.5717,true,2013-09-12 11:42:05 UTC,2013-09-12 11:42:05 UTC
100 - 310 shawville blvd. se ,Calgary,McDonalds, (403) 254-6989,AB, 07:00,11:00, 07:00,11:00, 07:00,11:00, 07:00,11:00, 07:00,11:00, 07:00,11:00, 07:00,11:00,T2Y 3S4,-114.061,50.9002,true,2013-09-12 11:42:05 UTC,2013-09-12 11:42:05 UTC
711 centre st ,Espanola,McDonalds, (705) 862-7770,ON, 05:00,11:00, 05:00,11:00, 05:00,11:00, 05:00,11:00, 05:00,11:59, 05:00,11:59, 05:00,11:00,P5E 1J2,-81.7631,46.2502,true,2013-09-12 11:42:05 UTC,2013-09-12 11:42:05 UTC
#2 hospital street ,Fort mcmurray,McDonalds, (780) 715-2050,AB, 07:00,11:00, 07:00,11:00, 07:00,11:00, 07:00,11:00, 07:00,11:00, 07:00,11:00, 07:00,11:00,T9H 5E4,-111.359,56.7221,true,2013-09-12 11:42:06 UTC,2013-09-12 11:42:06 UTC
"155, montÉ masson ",Mascouche,McDonalds, (450) 474-7047,QC, 08:00,09:00, 08:00,09:00, 08:00,09:00, 08:00,09:00, 08:00,09:00, 08:00,09:00, 08:00,09:00,J7K 3B4,-73.6144,45.7248,true,2013-09-12 11:42:06 UTC,2013-09-12 11:42:06 UTC
1530 albion road unit f-1,Toronto,McDonalds, (416) 746-0175,ON, 08:00,09:00, 08:00,09:00, 08:00,09:00, 08:00,09:00, 08:00,09:00, 08:00,06:00, 11:00,05:00,M9V 1B4,-79.5849,43.7421,true,2013-09-12 11:42:06 UTC,2013-09-12 11:42:06 UTC
100 wellington st. west ,Toronto,McDonalds, (416) 214-0884,ON, 06:00,08:00, 06:00,08:00, 06:00,08:00, 06:00,08:00, 06:00,08:00,Closed,Closed,Closed,Closed,M5J 2N7,-79.3816,43.6466,true,2013-09-12 11:42:07 UTC,2013-09-12 11:42:07 UTC
80 buchanan drive ,Charlottetown,McDonalds, (902) 566-6706,PE, 08:00,09:00, 08:00,09:00, 08:00,09:00, 08:00,09:00, 08:00,09:00, 08:00,09:00, 12:00,05:00,C1E 2E5,-63.1533,46.2619,true,2013-09-12 11:42:07 UTC,2013-09-12 11:42:07 UTC
551 thatcher drive east ,Moose jaw,McDonalds, (306) 692-1304,SK, 08:00,10:00, 08:00,10:00, 08:00,10:00, 08:00,10:00, 08:00,10:00, 08:00,10:00, 08:00,10:00,S6J 1L8,-105.571,50.4133,true,2013-09-12 11:42:07 UTC,2013-09-12 11:42:07 UTC
450 bayfield street ,Barrie,McDonalds, (705) 721-5627,ON, 08:00,09:00, 08:00,09:00, 08:00,09:00, 08:00,09:00, 07:00,10:00, 08:00,10:00, 09:00,07:00,L4M 5A2,-79.7154,44.4152,true,2013-09-12 11:42:08 UTC,2013-09-12 11:42:08 UTC
240 hamilton rd. ,Yorkton,McDonalds, (306) 783-4417,SK, 08:00,10:00, 08:00,10:00, 08:00,10:00, 08:00,10:00, 08:00,10:00, 08:00,10:00, 08:00,10:00,S3N 2V7,-102.474,51.2278,true,2013-09-12 11:42:08 UTC,2013-09-12 11:42:08 UTC
2277 riverside drive ,Ottawa,McDonalds, (613) 260-9799,ON, 07:00,09:00, 07:00,09:00, 07:00,09:00, 07:00,09:00, 07:00,09:00, 08:00,06:00, 11:00,05:00,K1H 7X6,-75.6801,45.3864,true,2013-09-12 11:42:08 UTC,2013-09-12 11:42:08 UTC
420 vansickle rd ,St catharines,McDonalds, (905) 687-8820,ON, 07:00,11:00, 07:00,11:00, 07:00,11:00, 07:00,11:00, 07:00,11:00, 07:00,11:00, 07:00,11:00,L2R 6P9,-79.3071,43.1701,true,2013-09-12 11:42:09 UTC,2013-09-12 11:42:09 UTC
4210 - 70th avenue ,Lloydminster,McDonalds, (780) 871-2868,AB, 08:00,10:00, 08:00,10:00, 08:00,10:00, 08:00,10:00, 08:00,10:00, 08:00,10:00, 08:00,09:00,T9V 2X3,-110.048,53.2756,true,2013-09-12 11:42:09 UTC,2013-09-12 11:42:09 UTC
"Rr 1, unit 107 6661 sooke road",Sooke,McDonalds, (250) 642-1200,BC, 05:00,11:59, 05:00,11:59, 05:00,11:59, 05:00,11:59, 05:00,11:59, 05:00,11:59, 05:00,11:59,V0S 1N0,-124.095,48.5089,true,2013-09-12 11:42:09 UTC,2013-09-12 11:42:09 UTC
2001 - 16th avenue ,Campbell river,McDonalds, (250) 830-1466,BC, 06:00,10:00, 06:00,10:00, 06:00,10:00, 06:00,10:00, 06:00,10:00, 06:00,10:00, 06:00,10:00,V9W 8E8,-125.274,50.0306,true,2013-09-12 11:42:10 UTC,2013-09-12 11:42:10 UTC
1665 kenaston blvd ,Winnipeg,McDonalds, (204) 949-5118,MB, 07:00,11:00, 07:00,11:00, 07:00,11:00, 07:00,11:00, 07:00,11:00, 07:00,11:00, 09:00,06:00,R3P 2M4,-97.2016,49.8241,true,2013-09-12 11:42:10 UTC,2013-09-12 11:42:10 UTC
3495 lawrence ave. east ,Scarborough,McDonalds, (416) 289-2830,ON, 08:00,10:00, 08:00,10:00, 08:00,10:00, 08:00,10:00, 08:00,10:00, 08:00,07:00, 11:00,06:00,M1H 1B3,-79.2285,43.7582,true,2013-09-12 11:42:10 UTC,2013-09-12 11:42:10 UTC
20202  66th avenue ,Langley,McDonalds, (604) 539-4681,BC, 07:00,11:00, 07:00,11:00, 07:00,11:00, 07:00,11:00, 07:00,11:00, 07:00,11:00, 07:00,11:00,V2Y 1P3,-122.662,49.1235,true,2013-09-12 11:42:11 UTC,2013-09-12 11:42:11 UTC
"5400, boul. jean-talon ouest ",MontrÉal,McDonalds, (514) 739-7272,QC, 08:00,09:00, 08:00,09:00, 08:00,09:00, 08:00,09:00, 08:00,09:00, 08:00,05:00, 08:00,05:00,H4P 2T5,-73.6529,45.4923,true,2013-09-12 11:42:11 UTC,2013-09-12 11:42:11 UTC
1108 pembroke street east ,Pembroke,McDonalds, (613) 732-0059,ON, 07:00,10:00, 07:00,10:00, 07:00,10:00, 07:00,10:00, 07:00,10:00, 07:00,10:00, 07:00,10:00,K8A 8P7,-77.0796,45.8175,true,2013-09-12 11:42:11 UTC,2013-09-12 11:42:11 UTC
298 erie street south ,Leamington,McDonalds, (519) 326-4530,ON, 07:00,10:00, 07:00,10:00, 07:00,10:00, 07:00,10:00, 07:00,10:00, 07:00,10:00, 08:00,08:00,N8H 3C5,-82.599,42.0366,true,2013-09-12 11:42:12 UTC,2013-09-12 11:42:12 UTC
450 westmorland road ,Saint john,McDonalds, (506) 634-2703,NB, 07:00,09:30, 07:00,09:30, 07:00,09:30, 07:00,09:30, 07:00,09:30, 07:00,09:30, 12:00,05:00,E2J 4Z2,-66.0198,45.308,true,2013-09-12 11:42:12 UTC,2013-09-12 11:42:12 UTC
1555  18th avenue east ,Owen sound,McDonalds, (519) 372-9320,ON, 07:00,10:00, 07:00,10:00, 07:00,10:00, 07:00,10:00, 07:00,10:00, 07:00,10:00, 07:00,10:00,N4K 6Y3,-80.9121,44.5748,true,2013-09-12 11:42:12 UTC,2013-09-12 11:42:12 UTC
7166 highway #1 ,Coldbrook,McDonalds, (902) 678-8227,NS, 05:00,11:59, 05:00,11:59, 05:00,11:59, 05:00,11:59, 05:00,01:00, 05:00,01:00, 05:00,11:59,B4R 1A2,-64.5695,45.0688,true,2013-09-12 11:42:13 UTC,2013-09-12 11:42:13 UTC
"3240, ch. des quatre-bourgeois ",Sainte-foy,McDonalds, (418) 651-5085,QC, 05:00,11:59, 05:00,11:59, 05:00,11:59, 05:00,11:59, 05:00,11:59, 05:00,11:59, 05:00,11:59,G1W 2K8,-71.3111,46.7671,true,2013-09-12 11:42:13 UTC,2013-09-12 11:42:13 UTC
1807 eglinton avenue west ,Toronto,McDonalds, (416) 256-0433,ON, 05:00,01:00, 05:00,01:00, 05:00,01:00, 05:00,01:00, 05:00,01:00, 05:00,01:00, 05:00,01:00,M6E 2H7,-79.4495,43.6956,true,2013-09-12 11:42:13 UTC,2013-09-12 11:42:13 UTC
121 front st east ,Toronto,McDonalds, (416) 868-9998,ON, 06:00,11:59, 06:00,11:59, 06:00,11:59, 06:00,11:59, 06:00,11:59, 06:00,11:59, 06:00,11:00,M5A 4P7,-79.3708,43.6493,true,2013-09-12 11:42:14 UTC,2013-09-12 11:42:14 UTC
1095 woolridge street ,Coquitlam,McDonalds, (604) 718-1169,BC, 05:00,11:59, 05:00,11:59, 05:00,11:59, 05:00,11:59, 05:00,02:00, 05:00,02:00, 05:00,11:59,V3K 7A9,-122.864,49.2334,true,2013-09-12 11:42:14 UTC,2013-09-12 11:42:14 UTC
601 carlton trail ,North battleford,McDonalds, (306) 445-0033,SK, 08:00,10:00, 08:00,10:00, 08:00,10:00, 08:00,10:00, 08:00,10:00, 08:00,10:00, 08:00,10:00,S9A 4A9,-108.269,52.7645,true,2013-09-12 11:42:14 UTC,2013-09-12 11:42:14 UTC
"705, av. du pont nord ",Alma,McDonalds, (418) 662-3639,QC, 05:00,07:00, 05:00,07:00, 05:00,07:00, 05:00,09:00, 05:00,09:00, 05:00,07:00, 05:00,07:00,G8B 6T5,-71.6406,48.5616,true,2013-09-12 11:42:15 UTC,2013-09-12 11:42:15 UTC
4922 46th avenue ,Taber,McDonalds, (403) 223-6433,AB, 05:00,11:00, 05:00,11:00, 05:00,11:00, 05:00,11:00, 05:00,11:00, 05:00,11:00, 05:00,11:00,T1G 2A4,-112.154,49.7804,true,2013-09-12 11:42:15 UTC,2013-09-12 11:42:15 UTC
2900 warden ave ,Scarborough,McDonalds, (416) 491-3199,ON, 06:00,11:00, 06:00,11:00, 06:00,11:00, 06:00,11:00, 06:00,11:00, 06:00,11:00, 06:00,11:00,M1W 2S8,-79.3187,43.7981,true,2013-09-12 11:42:15 UTC,2013-09-12 11:42:15 UTC
334 sykes st s ,Meaford,McDonalds, (519) 538-2905,ON, 05:00,11:00, 05:00,11:00, 05:00,11:00, 05:00,11:00, 05:00,11:00, 05:00,11:00, 05:00,11:00,N4L 1X1,-80.5863,44.5976,true,2013-09-12 11:42:16 UTC,2013-09-12 11:42:16 UTC
"75, rue simonds nord ",Granby,McDonalds, (450) 777-7846,QC, 08:00,09:00, 08:00,09:00, 08:00,09:00, 08:00,09:00, 08:00,09:00, 08:00,05:00, 08:00,05:00,J2J 1L7,-72.7584,45.4051,true,2013-09-12 11:42:16 UTC,2013-09-12 11:42:16 UTC
"Unit #d112, phase i, 8882-170th street ",Edmonton,McDonalds, (780) 414-8500,AB, 08:00,10:00, 08:00,10:00, 08:00,10:00, 08:00,10:00, 08:00,10:00, 08:00,10:00, 09:00,08:00,T5T 4J7,-113.652,53.5176,true,2013-09-12 11:42:16 UTC,2013-09-12 11:42:16 UTC
"700, autoroute chomedey ouest ",Laval,McDonalds, (450) 969-2745,QC, 08:00,09:00, 08:00,09:00, 08:00,09:00, 08:00,09:00, 08:00,09:00, 08:00,05:00, 08:00,05:00,H7X 3S9,-73.7902,45.5317,true,2013-09-12 11:42:17 UTC,2013-09-12 11:42:17 UTC
Unit 400 cornerstone 6800 48th avenue,Camrose,McDonalds, (780) 672-0589,AB, 08:00,10:00, 08:00,10:00, 08:00,10:00, 08:00,10:00, 08:00,10:00, 08:00,10:00, 08:00,10:00,T4V 4T1,-112.869,53.0231,true,2013-09-12 11:42:17 UTC,2013-09-12 11:42:17 UTC
330 clarke road ,London,McDonalds, (519) 457-2990,ON, 07:00,10:00, 07:00,10:00, 07:00,10:00, 07:00,10:00, 07:00,10:00, 07:00,10:00, 07:00,08:00,N5W 6G4,-81.1716,43.0017,true,2013-09-12 11:42:17 UTC,2013-09-12 11:42:17 UTC
1500 fisher street ,North bay,McDonalds, (705) 494-6003,ON, 07:00,10:00, 07:00,10:00, 07:00,10:00, 07:00,10:00, 07:00,10:00, 07:00,10:00, 07:00,10:00,P1B 2H3,-79.4433,46.3134,true,2013-09-12 11:42:17 UTC,2013-09-12 11:42:17 UTC
1812 vedder way ,Abbotsford,McDonalds, (604) 853-8030,BC, 07:00,11:00, 07:00,11:00, 07:00,11:00, 07:00,11:00, 07:00,11:00, 07:00,11:00, 07:00,11:00,V2S 8K1,-122.271,49.0359,true,2013-09-12 11:42:18 UTC,2013-09-12 11:42:18 UTC
1055 hillside drive ,Kamloops,McDonalds, (250) 372-2161,BC, 07:30,10:00, 07:30,10:00, 07:30,10:00, 07:30,10:00, 07:30,10:00, 07:30,10:00, 07:30,10:00,V2E 2S5,-120.371,50.6655,true,2013-09-12 11:42:18 UTC,2013-09-12 11:42:18 UTC
595 bay st ,Toronto,McDonalds, (416) 591-0662,ON, 06:00,11:00, 06:00,11:00, 06:00,11:00, 06:00,11:00, 06:00,11:00, 06:00,11:00, 06:00,10:00,M5G 1M5,-79.3845,43.6561,true,2013-09-12 11:42:18 UTC,2013-09-12 11:42:18 UTC
2600 hwy #43 ,Kemptville,McDonalds, (613) 258-6539,ON, 05:00,11:00, 05:00,11:00, 05:00,11:00, 05:00,11:00, 05:00,11:59, 05:00,11:59, 05:00,11:00,K0G 1J9,-76.1395,44.9436,true,2013-09-12 11:42:19 UTC,2013-09-12 11:42:19 UTC
"1154, rue de la faune ",QuÉbec,McDonalds, (418) 845-6323,QC, 05:00,11:00, 05:00,11:00, 05:00,11:00, 05:00,11:00, 05:00,11:00, 05:00,11:00, 05:00,11:00,G3E 1T2,-71.3247,46.8772,true,2013-09-12 11:42:19 UTC,2013-09-12 11:42:19 UTC
3605 portage avenue ,Winnipeg,McDonalds, (204) 949-6014,MB, 07:00,11:00, 07:00,11:00, 07:00,11:00, 07:00,11:00, 07:00,11:00, 07:00,11:00, 09:00,06:00,R3K 0X3,-97.3038,49.8762,true,2013-09-12 11:42:19 UTC,2013-09-12 11:42:19 UTC
2150 prince of wales drive ,Regina,McDonalds, (306) 546-2540,SK, 07:00,11:00, 07:00,11:00, 07:00,11:00, 07:00,11:00, 07:00,11:00, 07:00,11:00, 07:00,11:00,S4V 3A6,-104.533,50.4495,true,2013-09-12 11:42:20 UTC,2013-09-12 11:42:20 UTC
2010-50th avenue ,Red deer,McDonalds, (403) 341-3254,AB, 07:00,11:00, 07:00,11:00, 07:00,11:00, 07:00,11:00, 07:00,11:00, 07:00,11:00, 07:00,11:00,T4R 3A2,-113.817,52.236,true,2013-09-12 11:42:20 UTC,2013-09-12 11:42:20 UTC
2002 6060 minoru blvd. ,Richmond,McDonalds, (604) 718-1110,BC, 08:00,07:00, 08:00,07:00, 08:00,09:30, 08:00,09:30, 08:00,09:30, 08:00,07:30, 10:30,06:30,V6Y 2V7,-123.14,49.1631,true,2013-09-12 11:42:20 UTC,2013-09-12 11:42:20 UTC
98 danforth ave ,Toronto,McDonalds, (416) 461-2900,ON, 06:00,11:59, 06:00,11:59, 06:00,11:59, 06:00,11:59, 06:00,01:00, 06:00,01:00, 09:00,11:59,M4K 1N2,-79.3559,43.6765,true,2013-09-12 11:42:21 UTC,2013-09-12 11:42:21 UTC
1899 brock rd  ,Pickering,McDonalds, (905) 619-6627,ON, 07:00,10:00, 07:00,10:00, 07:00,10:00, 07:00,10:00, 07:00,10:00, 07:00,10:00, 07:00,10:00,L1V 4H7,-79.0709,43.8451,true,2013-09-12 11:42:21 UTC,2013-09-12 11:42:21 UTC
17940 yonge street ,Newmarket,McDonalds, (905) 895-0845,ON, 07:00,10:00, 07:00,10:00, 07:00,10:00, 07:00,10:00, 07:00,11:00, 07:00,11:00, 07:00,10:00,L3Y 8S4,-79.4848,44.0666,true,2013-09-12 11:42:21 UTC,2013-09-12 11:42:21 UTC
4390 steeles avenue east ,Markham,McDonalds, (905) 415-7772,ON, 08:00,09:00, 08:00,09:00, 08:00,09:00, 08:00,09:00, 08:00,09:00, 08:00,09:00, 08:00,09:00,L3R 9V7,-79.3042,43.8255,true,2013-09-12 11:42:22 UTC,2013-09-12 11:42:22 UTC
"505 main street, highway # 4 ",Montague,McDonalds, (902) 838-2050,PE, 05:00,11:59, 05:00,11:59, 05:00,11:59, 05:00,11:59, 05:00,11:59, 05:00,11:59, 05:00,11:59,C0A 1R0,-62.6433,46.1284,true,2013-09-12 11:42:22 UTC,2013-09-12 11:42:22 UTC
"625, rue sainte-catherine ouest prom. de la cathÉdrale",MontrÉal,McDonalds, (514) 284-0848,QC, 07:00,05:00, 07:00,05:00, 07:00,05:00, 07:00,09:00, 07:00,09:00, 08:00,05:00, 08:00,05:00,H3B 1B7,-73.5695,45.5037,true,2013-09-12 11:42:22 UTC,2013-09-12 11:42:22 UTC
"415, montÉ industrielle ",Rimouski,McDonalds, (418) 722-6864,QC, 08:00,09:00, 08:00,09:00, 08:00,09:00, 08:00,09:00, 08:00,09:00, 08:00,05:00, 08:00,05:00,G5M 1X1,-68.4888,48.4534,true,2013-09-12 11:42:23 UTC,2013-09-12 11:42:23 UTC
"825, boul. jean-gauvin  ",Sainte-foy,McDonalds, (418) 872-6805,QC, 05:00,11:59, 05:00,11:59, 05:00,11:59, 05:00,11:59, 05:00,11:59, 05:00,11:59, 05:00,11:59,G1X 4M6,-71.3701,46.7616,true,2013-09-12 11:42:23 UTC,2013-09-12 11:42:23 UTC
25 frederick street suite #320,Kitchener,McDonalds, (519) 568-8088,ON, 07:00,06:00, 07:00,06:00, 07:00,06:00, 07:00,06:00, 07:00,06:00, 08:00,05:00, 11:00,05:00,N2H 6M8,-80.487,43.4496,true,2013-09-12 11:42:23 UTC,2013-09-12 11:42:23 UTC
3155 argentia road ,Mississauga,McDonalds, (905) 824-3728,ON, 07:00,11:00, 07:00,11:00, 07:00,11:00, 07:00,11:00, 07:00,11:00, 07:00,11:00, 07:00,11:00,L5N 8E1,-79.7883,43.5968,true,2013-09-12 11:42:24 UTC,2013-09-12 11:42:24 UTC
3291 lake thomas drive ,Fall river,McDonalds, (902) 860-3007,NS, 07:00,10:00, 07:00,10:00, 07:00,10:00, 07:00,10:00, 07:00,10:00, 07:00,10:00, 07:00,10:00,B2T 1E6,-63.6187,44.8075,true,2013-09-12 11:42:24 UTC,2013-09-12 11:42:24 UTC
Unit f6 38th avenue & millwoods road ,Edmonton,McDonalds, (780) 414-8520,AB, 07:00,10:00, 07:00,10:00, 07:00,10:00, 07:00,10:00, 07:00,10:00, 07:00,10:00, 07:00,10:00,T6K 3L6,-113.447,53.46,true,2013-09-12 11:42:24 UTC,2013-09-12 11:42:24 UTC
16 murphy square ,Corner brook,McDonalds, (709) 634-7377,NL, 08:00,10:00, 08:00,10:00, 08:00,10:00, 08:00,10:00, 08:00,10:00, 08:00,10:00, 08:00,08:00,A2H 1R4,-57.9701,48.9476,true,2013-09-12 11:42:24 UTC,2013-09-12 11:42:24 UTC
90 aberdeen avenue ,St. john's,McDonalds, (709) 726-4130,NL, 07:00,11:00, 07:00,11:00, 07:00,11:00, 07:00,11:00, 07:00,11:00, 07:00,11:00, 07:00,11:00,A1A 5N6,-52.7157,47.6202,true,2013-09-12 11:42:25 UTC,2013-09-12 11:42:25 UTC
2220 beacon avenue ,Sidney,McDonalds, (250) 655-6040,BC, 06:00,11:59, 06:00,11:59, 06:00,11:59, 06:00,11:59, 06:00,11:59, 06:00,11:59, 06:00,11:59,V8L 1X1,-123.406,48.6495,true,2013-09-12 11:42:25 UTC,2013-09-12 11:42:25 UTC
1000 regional road # 17 ,Newcastle,McDonalds, (905) 987-0505,ON, 05:00,11:00, 05:00,11:00, 05:00,11:00, 05:00,11:00, 05:00,11:30, 05:00,11:30, 05:00,11:00,L1B 1L9,-78.532,43.9444,true,2013-09-12 11:42:25 UTC,2013-09-12 11:42:25 UTC
2956 hwy 69 north ,Val caron,McDonalds, (705) 897-2369,ON, 05:00,11:00, 05:00,11:00, 05:00,11:00, 05:00,11:00, 05:00,11:00, 05:00,11:00, 05:00,11:00,P3N 1E3,-81.0052,46.6099,true,2013-09-12 11:42:26 UTC,2013-09-12 11:42:26 UTC
81 lombard street ,Smiths falls,McDonalds, (613) 283-8633,ON, 05:00,11:00, 05:00,11:00, 05:00,11:00, 05:00,11:00, 05:00,11:59, 05:00,11:59, 05:00,11:00,K7A 4Y9,-76.0281,44.8935,true,2013-09-12 11:42:26 UTC,2013-09-12 11:42:26 UTC
"100, rue omer-marcil ",Saint-jean-sur-richelieu,McDonalds, (450) 348-3121,QC, 08:00,09:00, 08:00,09:00, 08:00,09:00, 08:00,09:00, 08:00,09:00, 08:00,05:00, 08:00,05:00,J2W 2X2,-73.2967,45.3317,true,2013-09-12 11:42:26 UTC,2013-09-12 11:42:26 UTC
"Rr #2 ,1835 niagara stone rd ",Niagara on the lake,McDonalds, (905) 468-1809,ON, 07:00,10:00, 07:00,10:00, 07:00,10:00, 07:00,10:00, 07:00,10:00, 07:00,10:00, 07:00,10:00,L0S 1J0,-79.1887,43.2115,true,2013-09-12 11:42:27 UTC,2013-09-12 11:42:27 UTC
3033 st. john's street ,Port moody,McDonalds, (604) 469-4350,BC, 05:30,11:59, 05:30,11:59, 05:30,11:59, 05:30,11:59, 05:30,11:59, 05:30,11:59, 05:30,11:59,V3H 2C4,-122.843,49.2764,true,2013-09-12 11:42:27 UTC,2013-09-12 11:42:27 UTC
300 borough dr unit #3,Scarborough,McDonalds, (416) 279-0722,ON, 08:00,10:00, 08:00,10:00, 08:00,10:00, 08:00,10:00, 08:00,10:00, 08:00,10:00, 08:00,10:00,M1P 4P5,-79.2585,43.7767,true,2013-09-12 11:42:27 UTC,2013-09-12 11:42:27 UTC
700 lawrence ave w ,Toronto,McDonalds, (416) 783-0397,ON, 09:00,09:00, 09:00,09:00, 09:00,09:00, 09:00,09:00, 09:00,09:00, 09:00,06:00, 11:00,05:00,M6A 3B4,-79.4475,43.7172,true,2013-09-12 11:42:28 UTC,2013-09-12 11:42:28 UTC
1399 regent street wal-mart,Fredericton,McDonalds, (506) 444-6236,NB, 08:00,10:00, 08:00,10:00, 08:00,10:00, 08:00,10:00, 08:00,10:00, 08:00,10:00, 12:00,05:00,E3C 1A3,-66.6646,45.9339,true,2013-09-12 11:42:28 UTC,2013-09-12 11:42:28 UTC
1070 major mackenzie drive east ,Richmond hill,McDonalds, (905) 508-9550,ON, 08:00,10:00, 08:00,10:00, 08:00,10:00, 08:00,10:00, 08:00,10:00, 08:00,10:00, 08:00,10:00,L4S 1P3,-79.4083,43.8767,true,2013-09-12 11:42:28 UTC,2013-09-12 11:42:28 UTC
"1855,  3e avenue ouest ",Val-d'or,McDonalds, (819) 874-4440,QC, 08:00,09:00, 08:00,09:00, 08:00,09:00, 08:00,09:00, 08:00,09:00, 08:00,05:00, 08:00,05:00,J9P 4N7,-77.9708,48.1782,true,2013-09-12 11:42:29 UTC,2013-09-12 11:42:29 UTC
3700 mayor mcgrath drive south ,Lethbridge,McDonalds, (403) 320-2899,AB, 07:00,11:00, 07:00,11:00, 07:00,11:00, 07:00,11:00, 07:00,11:00, 07:00,11:00, 07:00,11:00,T1K 7T6,-112.796,49.6581,true,2013-09-12 11:42:29 UTC,2013-09-12 11:42:29 UTC
"100 corner stone , 800-15th street east",Prince albert,McDonalds, (306) 922-6366,SK, 08:00,10:00, 08:00,10:00, 08:00,10:00, 08:00,10:00, 08:00,10:00, 08:00,10:00, 09:00,09:00,S6V 8E3,-105.732,53.2005,true,2013-09-12 11:42:29 UTC,2013-09-12 11:42:29 UTC
7001 mumford road halifax centre,Halifax,McDonalds, (902) 454-0040,NS, 08:00,10:00, 08:00,10:00, 08:00,10:00, 08:00,10:00, 08:00,10:00, 08:00,10:00, 10:00,08:00,B3L 4P1,-63.6185,44.6452,true,2013-09-12 11:42:30 UTC,2013-09-12 11:42:30 UTC
1063 talbot street ,St thomas,McDonalds, (519) 631-2275,ON, 07:00,10:00, 07:00,10:00, 07:00,10:00, 07:00,10:00, 07:00,10:00, 07:00,10:00, 09:00,09:00,N5P 1G4,-81.1666,42.779,true,2013-09-12 11:42:30 UTC,2013-09-12 11:42:30 UTC
1330 exmouth street ,Sarnia,McDonalds, (519) 542-1345,ON, 05:00,11:59, 05:00,11:59, 05:00,11:59, 05:00,11:59, 05:00,11:59, 05:00,11:59, 05:00,11:59,N7S 3X9,-82.3554,42.9855,true,2013-09-12 11:42:30 UTC,2013-09-12 11:42:30 UTC
4410 west saanich road ,Victoria,McDonalds, (250) 708-3920,BC, 06:00,11:59, 06:00,11:59, 06:00,11:59, 06:00,11:59, 06:00,11:59, 06:00,11:59, 06:00,11:59,V8Z 3E9,-123.388,48.4918,true,2013-09-12 11:42:30 UTC,2013-09-12 11:42:30 UTC
3199 cliffe avenue ,Courtenay,McDonalds, (250) 703-0210,BC, 08:00,10:00, 08:00,10:00, 08:00,10:00, 08:00,10:00, 08:00,10:00, 08:00,10:00, 09:00,09:00,V9N 2L9,-124.979,49.6721,true,2013-09-12 11:42:31 UTC,2013-09-12 11:42:31 UTC
2200-58th avenue ,Vernon,McDonalds, (250) 542-6422,BC, 07:00,11:00, 07:00,11:00, 07:00,11:00, 07:00,11:00, 07:00,11:00, 07:00,11:00, 07:00,11:00,V1T 9T2,-119.258,50.2892,true,2013-09-12 11:42:31 UTC,2013-09-12 11:42:31 UTC
890 rita road ,Quesnel,McDonalds, (250) 747-0800,BC, 07:30,10:00, 07:30,10:00, 07:30,10:00, 07:30,10:00, 07:30,10:00, 07:30,10:00, 07:30,10:00,V2J 7J3,-122.442,52.9663,true,2013-09-12 11:42:31 UTC,2013-09-12 11:42:31 UTC
4702-43rd avenue ,Cold lake,McDonalds, (780) 594-0340,AB, 08:00,10:00, 08:00,10:00, 08:00,10:00, 08:00,10:00, 08:00,10:00, 08:00,10:00, 08:00,10:00,T9M 1M9,-110.201,54.4081,true,2013-09-12 11:42:32 UTC,2013-09-12 11:42:32 UTC
B4 beaver avenue ,Beaverton,McDonalds, (705) 426-2672,ON, 05:00,11:59, 05:00,11:59, 05:00,11:59, 05:00,11:59, 05:00,11:59, 05:00,11:59, 05:00,11:59,L0K 1A0,-79.1436,44.436,true,2013-09-12 11:42:32 UTC,2013-09-12 11:42:32 UTC
109 mccaul street ,Toronto,McDonalds, (416) 977-6607,ON, 07:00,09:00, 07:00,09:00, 07:00,09:00, 07:00,09:00, 07:00,09:00, 08:00,09:00, 09:00,09:00,M5T 3K5,-79.3911,43.6541,true,2013-09-12 11:42:33 UTC,2013-09-12 11:42:33 UTC
"224, rue joseph-casavant ",Beauport,McDonalds, (418) 661-4814,QC, 08:00,09:00, 08:00,09:00, 08:00,09:00, 08:00,09:00, 08:00,09:00, 08:00,05:00, 08:00,05:00,G1C 7Z3,-71.2052,46.8718,true,2013-09-12 11:42:33 UTC,2013-09-12 11:42:33 UTC
3651 strandherd drive ,Nepean,McDonalds, (613) 823-9679,ON, 07:00,11:00, 07:00,11:00, 07:00,11:00, 07:00,11:00, 07:00,11:00, 07:00,11:00, 07:00,11:00,K2J 2B5,-75.7659,45.2756,true,2013-09-12 11:42:33 UTC,2013-09-12 11:42:33 UTC
1482 w. broadway ,Vancouver,McDonalds, (604) 718-1191,BC, 05:00,11:59, 05:00,11:59, 05:00,11:59, 05:00,11:59, 05:00,11:59, 05:00,11:59, 05:00,11:59,V6H 1H4,-123.137,49.2633,true,2013-09-12 11:42:34 UTC,2013-09-12 11:42:34 UTC
90 campsite road ,Spruce grove,McDonalds, (780) 962-0924,AB, 07:00,11:00, 07:00,11:00, 07:00,11:00, 07:00,11:00, 07:00,11:00, 07:00,11:00, 07:00,11:00,T7X 4H4,-113.931,53.5397,true,2013-09-12 11:42:34 UTC,2013-09-12 11:42:34 UTC
860 attree avenue ,Victoria,McDonalds, (250) 391-8560,BC, 07:00,11:00, 07:00,11:00, 07:00,11:00, 07:00,11:00, 07:00,11:00, 07:00,11:00, 07:00,11:00,V6B 2P3,-123.115,49.2808,true,2013-09-12 11:42:34 UTC,2013-09-12 11:42:34 UTC
140 wade road ,Truro,McDonalds, (902) 893-1672,NS, 07:00,10:00, 07:00,10:00, 07:00,10:00, 07:00,10:00, 07:00,10:00, 07:00,10:00, 07:00,10:00,B2N 7H3,-63.3061,45.3529,true,2013-09-12 11:42:34 UTC,2013-09-12 11:42:34 UTC
9021 quartz road ,Whitehorse,McDonalds, (867) 667-4750,YT, 08:00,10:00, 08:00,10:00, 08:00,10:00, 08:00,10:00, 08:00,10:00, 08:00,10:00, 08:00,10:00,Y1A 4P9,-135.071,60.7342,true,2013-09-12 11:42:35 UTC,2013-09-12 11:42:35 UTC
200 front street west ,Toronto,McDonalds, (416) 542-1234,ON, 07:00,07:00, 07:00,07:00, 07:00,07:00, 07:00,07:00, 07:00,07:00, 09:00,03:00,Closed,Closed,M5V 3K2,-79.3858,43.6449,true,2013-09-12 11:42:35 UTC,2013-09-12 11:42:35 UTC
306 centre ave ,Altona,McDonalds, (204) 324-1656,MB, 06:00,11:00, 06:00,11:00, 06:00,11:00, 06:00,11:00, 06:00,11:00, 06:00,11:00, 06:00,11:00,R0G 0B0,-97.5343,49.0891,true,2013-09-12 11:42:35 UTC,2013-09-12 11:42:35 UTC
"377-a, rue papineau  ",Papineauville,McDonalds, (819) 427-9956,QC, 05:00,11:59, 05:00,11:59, 05:00,11:59, 05:00,11:59, 05:00,11:59, 12:00,12:00, 12:00,12:00,J0V 1R0,-75.0183,45.6517,true,2013-09-12 11:42:36 UTC,2013-09-12 11:42:36 UTC
115 hamilton street north ,Waterdown,McDonalds, (905) 690-8458,ON, 05:00,11:59, 05:00,11:59, 05:00,11:59, 05:00,11:59, 05:00,11:59, 05:00,11:59, 05:00,11:59,L0R 2H0,-79.8983,43.3379,true,2013-09-12 11:42:36 UTC,2013-09-12 11:42:36 UTC
700 st. albert rd ,St albert,McDonalds, (780) 460-4640,AB, 07:00,11:59, 07:00,11:59, 07:00,11:59, 07:00,11:59, 07:00,11:59, 07:00,11:59, 07:00,11:59,T8N 7A5,-113.632,53.6596,true,2013-09-12 11:42:36 UTC,2013-09-12 11:42:36 UTC
3939 rochdale blvd. ,Regina,McDonalds, (306) 543-7446,SK, 07:00,11:00, 07:00,11:00, 07:00,11:00, 07:00,11:00, 07:00,11:00, 07:00,11:00, 07:00,11:00,S4X 4P7,-104.636,50.5024,true,2013-09-12 11:42:37 UTC,2013-09-12 11:42:37 UTC
"500, voie de la desserte route 132",Saint-constant,McDonalds, (450) 635-7800,QC, 08:00,09:00, 08:00,09:00, 08:00,09:00, 08:00,09:00, 08:00,09:00, 08:00,05:00, 08:00,05:00,J5A 2E7,-73.5846,45.3344,true,2013-09-12 11:42:37 UTC,2013-09-12 11:42:37 UTC
"202, boul. des promenades ",Saint-bruno,McDonalds, (450) 441-6986,QC, 09:00,09:00, 09:00,09:00, 09:00,09:00, 09:00,09:00, 09:00,09:00, 08:00,05:00, 09:00,05:00,J3V 5K4,-73.382,45.5049,true,2013-09-12 11:42:37 UTC,2013-09-12 11:42:37 UTC
"6797, boul. newman  ",Lasalle,McDonalds, (514) 364-5282,QC, 08:00,09:00, 08:00,09:00, 08:00,09:00, 08:00,09:00, 08:00,09:00, 08:00,05:00, 08:00,05:00,H8N 3E4,-73.6087,45.4508,true,2013-09-12 11:42:38 UTC,2013-09-12 11:42:38 UTC
"401, boul. curÉ-labelle ",RosemÈre,McDonalds, (450) 979-6633,QC, 08:00,09:00, 08:00,09:00, 08:00,09:00, 08:00,09:00, 08:00,09:00, 08:00,05:00, 08:00,05:00,J7A 3T2,-73.8165,45.6313,true,2013-09-12 11:42:38 UTC,2013-09-12 11:42:38 UTC
"1700, boul.  lebourgneuf  ",QuÉbec,McDonalds, (418) 621-9607,QC, 08:00,09:00, 08:00,09:00, 08:00,09:00, 08:00,09:00, 08:00,09:00, 08:00,05:00, 08:00,05:00,G2K 2M4,-71.3029,46.8341,true,2013-09-12 11:42:38 UTC,2013-09-12 11:42:38 UTC
6020 - 6086 russ baker way ,Richmond,McDonalds, (604) 718-1013,BC, 06:00,11:59, 06:00,11:59, 06:00,11:59, 06:00,11:59, 06:00,11:59, 06:00,11:59, 06:00,11:59,V7B 1B4,-123.166,49.1825,true,2013-09-12 11:42:38 UTC,2013-09-12 11:42:38 UTC
8 eagle court box 638,Osoyoos,McDonalds, (250) 495-5560,BC, 05:00,10:00, 05:00,10:00, 05:00,10:00, 05:00,10:00, 05:00,10:00, 05:00,10:00, 05:00,10:00,V0H 1V0,-119.538,49.0042,true,2013-09-12 11:42:39 UTC,2013-09-12 11:42:39 UTC
374 queen street ,Acton,McDonalds, (519) 853-9128,ON, 05:00,11:59, 05:00,11:59, 05:00,11:59, 05:00,11:59, 05:00,01:00, 05:00,01:00, 05:00,11:59,L7J 2N3,-80.0268,43.638,true,2013-09-12 11:42:39 UTC,2013-09-12 11:42:39 UTC
"3131, ch. de la cÔte-vertu ",Saint-laurent,McDonalds, (514) 334-1637,QC, 07:00,05:30, 07:00,05:30, 07:00,09:00, 07:00,09:00, 07:00,09:00, 07:00,05:30, 10:00,05:30,H4R 1Y8,-73.7044,45.4977,true,2013-09-12 11:42:40 UTC,2013-09-12 11:42:40 UTC
3208 dougall rd ,Windsor,McDonalds, (519) 966-1402,ON, 07:00,11:00, 07:00,11:00, 07:00,11:00, 07:00,11:00, 07:00,11:00, 07:00,11:00, 07:00,11:00,N9E 1S6,-83.0096,42.2679,true,2013-09-12 11:42:40 UTC,2013-09-12 11:42:40 UTC
229 columbus dr ,Carbonear,McDonalds, (709) 596-5036,NL, 05:00,11:59, 05:00,11:59, 05:00,11:59, 05:00,11:59, 05:00,02:00, 05:00,02:00, 05:00,11:59,A1A 3G0,-80.3341,27.4701,true,2013-09-12 11:42:40 UTC,2013-09-12 11:42:40 UTC
24 yonge street north hwy 27 & john,Elmvale,McDonalds, (705) 322-4444,ON, 06:30,10:00, 06:30,10:00, 06:30,10:00, 06:30,10:00, 06:30,10:00, 06:30,10:00, 06:30,10:00,L0L 1P0,-79.8904,44.5704,true,2013-09-12 11:42:41 UTC,2013-09-12 11:42:41 UTC
165 north queen st. ,Etobicoke,McDonalds, (416) 620-0081,ON, 08:00,11:00, 08:00,11:00, 08:00,11:00, 08:00,11:00, 08:00,11:00, 08:00,11:00, 08:00,11:00,M9C 1A7,-79.5554,43.6172,true,2013-09-12 11:42:41 UTC,2013-09-12 11:42:41 UTC
6631 island hwy. north ,Nanaimo,McDonalds, (250) 390-4081,BC, 07:00,11:00, 07:00,11:00, 07:00,11:00, 07:00,11:00, 07:00,11:00, 07:00,11:00, 07:00,11:00,V9T 4T7,-124.048,49.2359,true,2013-09-12 11:42:41 UTC,2013-09-12 11:42:41 UTC
"60, merchant drive ",Mount pearl,McDonalds, (709) 745-3750,NL, 07:00,10:00, 07:00,10:00, 07:00,10:00, 07:00,10:00, 07:00,10:00, 07:00,10:00, 07:00,10:00,A1N 5J5,-52.8092,47.5029,true,2013-09-12 11:42:42 UTC,2013-09-12 11:42:42 UTC
"6140, boul. henri-bourassa est ",MontrÉal-nord,McDonalds, (514) 321-0467,QC, 08:00,09:00, 08:00,09:00, 08:00,09:00, 08:00,09:00, 08:00,09:00, 08:00,05:00, 08:00,05:00,H1G 5X3,-73.6127,45.6063,true,2013-09-12 11:42:42 UTC,2013-09-12 11:42:42 UTC
804 main st ,Humboldt,McDonalds, (306) 682-9928,SK, 05:00,11:00, 05:00,11:00, 05:00,11:00, 05:00,11:00, 12:00,12:00, 12:00,12:00, 05:00,11:00,S0K 2A0,-105.113,52.1701,true,2013-09-12 11:42:42 UTC,2013-09-12 11:42:42 UTC
4801 e. hastings st. ,Burnaby,McDonalds, (604) 718-1015,BC, 05:00,11:59, 05:00,11:59, 05:00,11:59, 05:00,11:59, 12:00,12:00, 12:00,12:00, 05:00,11:59,V5C 2L1,-122.993,49.281,true,2013-09-12 11:42:43 UTC,2013-09-12 11:42:43 UTC
8415 109th street ,Edmonton,McDonalds, (780) 414-8374,AB, 05:00,11:00, 05:00,11:00, 05:00,11:00, 05:00,11:00, 05:00,11:00, 05:00,11:00, 05:00,11:00,T6G 1E3,-113.511,53.5207,true,2013-09-12 11:42:43 UTC,2013-09-12 11:42:43 UTC
5302 discovery way ,Leduc,McDonalds, (780) 986-1091,AB, 08:00,10:00, 08:00,10:00, 08:00,10:00, 08:00,10:00, 08:00,10:00, 08:00,10:00, 08:00,10:00,T9E 8J7,-113.571,53.2679,true,2013-09-12 11:42:43 UTC,2013-09-12 11:42:43 UTC
800 stonehaven drive ,Kanata,McDonalds, (613) 254-9438,ON, 06:00,11:00, 06:00,11:00, 06:00,11:00, 06:00,11:00, 06:00,11:00, 06:00,11:00, 06:00,11:00,K2M 2Z2,-75.8378,45.2813,true,2013-09-12 11:42:44 UTC,2013-09-12 11:42:44 UTC
55 - 4567 lougheed hwy ,Burnaby,McDonalds, (604) 718-1029,BC, 05:00,11:00, 05:00,11:00, 05:00,11:00, 05:00,11:00, 05:00,11:00, 05:00,11:00, 05:00,11:00,V5C 3Z6,-123.001,49.268,true,2013-09-12 11:42:44 UTC,2013-09-12 11:42:44 UTC
"Unit 3006, 9402 - 135th ave. n.w. ",Edmonton,McDonalds, (780) 414-8529,AB, 08:00,09:00, 08:00,09:00, 08:00,09:00, 08:00,09:00, 08:00,09:00, 09:00,05:30, 11:00,05:00,T5E 5R8,-113.491,53.5984,true,2013-09-12 11:42:44 UTC,2013-09-12 11:42:44 UTC
"237, boul. st-luc ",Saint-jean-sur-richelieu,McDonalds, (450) 349-3950,QC, 05:30,10:00, 05:30,10:00, 05:30,10:00, 05:30,10:00, 05:30,10:00, 05:30,11:00, 05:30,11:00,J2W 1C6,-73.291,45.3516,true,2013-09-12 11:42:45 UTC,2013-09-12 11:42:45 UTC
25 plaza blvd ,Moncton,McDonalds, (506) 862-1707,NB, 08:00,10:00, 08:00,10:00, 08:00,10:00, 08:00,10:00, 08:00,10:00, 08:00,10:00, 09:00,06:00,E1C 0E8,-64.8314,46.1137,true,2013-09-12 11:42:45 UTC,2013-09-12 11:42:45 UTC
499 norwich avenue ,Woodstock,McDonalds, (519) 539-5247,ON, 07:00,11:00, 07:00,11:00, 07:00,11:00, 07:00,11:00, 07:00,11:00, 07:00,11:00, 07:00,11:00,N4S 9A2,-80.736,43.1161,true,2013-09-12 11:42:45 UTC,2013-09-12 11:42:45 UTC
1001 Empress Street,Winnipeg,Winnipeg,204-284-6900,MB,12:00,12:00,12:00,12:00,12:00,12:00,12:00,12:00,12:00,12:00,12:00,12:00,09:00,06:00,R3G 3P8,-97.1957,49.8906,true,2013-09-12 11:42:46 UTC,2013-09-12 11:42:46 UTC
2370 McPhillips St.,Winnipeg,Winnipeg,204-334-2273,MB,12:00,12:00,12:00,12:00,12:00,12:00,12:00,12:00,12:00,12:00,12:00,12:00,09:00,06:00,R2V 4J6,-97.1492,49.9574,true,2013-09-12 11:42:46 UTC,2013-09-12 11:42:46 UTC
1000 Gerrard Street East,Toronto,Toronto (Gerrard Square),416-461-8778,ON, 9:00am , 6:00pm, 9:00am , 6:00pm, 9:00am , 9:00pm, 9:00am , 9:00pm, 9:00am , 9:00pm, 9:00am , 9:00pm, 9:00am , 9:00pm,M4M 3G6,-79.3393,43.6696,true,2013-09-12 11:44:01 UTC,2013-09-12 11:44:01 UTC
1300 King Street East,Oshawa,Oshawa (Kingsway),905-579-3325,ON, 8:00am , 9:00pm, 8:00am , 10:00pm, 8:00am , 10:00pm, 8:00am , 10:00pm, 8:00am , 10:00pm, 8:00am , 10:00pm, 8:00am , 10:00pm,L1H 8J4,-78.8153,43.9077,true,2013-09-12 11:44:02 UTC,2013-09-12 11:44:02 UTC
"161, route 230 Ouest, suite 400",La Pocatière,La Pocatiere,418-856-2000,QC, 8:00am , 5:00pm, 8:00am , 5:00pm, 8:00am , 9:00pm, 8:00am , 9:00pm, 8:00am , 9:00pm, 8:00am , 9:00pm, 8:00am , 9:00pm,G0R 1Z0,-70.0405,47.3286,true,2013-09-12 11:44:02 UTC,2013-09-12 11:44:02 UTC
1576 Regent Avenue West Crossroads Shopping Centre,Winnipeg,Winnipeg (Transcona),204-669-3575,MB, 6:00am , 12:00am, 12:00 , 12:00, 12:00 , 12:00, 12:00 , 12:00, 12:00 , 12:00, 12:00am , 11:00pm, 9:00am , 6:00pm,R2C 3B4,-97.0639,49.895,true,2013-09-12 11:44:02 UTC,2013-09-12 11:44:02 UTC
286 Main St,Sussex, Western Street Plaza,1-506-432-6905,NB, 9:00 AM,9:00 PM, 9:00 AM,9:00 PM, 9:00 AM,9:00 PM, 9:00 AM,9:00 PM, 9:00 AM,9:00 PM, 9:00 AM,9:00 PM, 12:00 PM,5:00 PM,E4E 1R6,-65.5214,45.7244,true,2013-09-12 11:44:03 UTC,2013-09-12 11:44:03 UTC
150 West Dr.,Brampton, 7th Shopping Centre,1-905-457-5245,ON, 9:00 AM,9:00 PM, 9:00 AM,9:00 PM, 9:00 AM,9:00 PM, 9:00 AM,9:00 PM, 9:00 AM,9:00 PM, 9:00 AM,7:00 PM, 10:00 AM,6:00 PM,L6T 4P9,-79.7347,43.7069,true,2013-09-12 11:44:03 UTC,2013-09-12 11:44:03 UTC
3920 Brock St,Whitby, Taunton Centre,1-905-665-3156,ON, 9:00 AM,9:00 PM, 9:00 AM,9:00 PM, 9:00 AM,9:00 PM, 9:00 AM,9:00 PM, 9:00 AM,9:00 PM, 9:00 AM,9:00 PM, 10:00 AM,7:00 PM,L1R 3E1,-78.9589,43.9141,true,2013-09-12 11:44:03 UTC,2013-09-12 11:44:03 UTC
755 Lake Bonavista Dr Se,Calgary,Lake Bonavista Mall Safeway, (403) 271-1616,AB, 8:00 am,11:00 pm, 8:00 am,11:00 pm, 8:00 am,11:00 pm, 8:00 am,11:00 pm, 8:00 am,11:00 pm, 8:00 am,11:00 pm, 8:00 am,11:00 pm,T2J 0N3,-114.047,50.9423,true,2013-09-12 11:44:04 UTC,2013-09-12 11:44:04 UTC
3636 Brentwood Rd Nw,Calgary,Brentwood Safeway, (403) 289-1424,AB, 8:00 am,11:00 pm, 8:00 am,11:00 pm, 8:00 am,11:00 pm, 8:00 am,11:00 pm, 8:00 am,11:00 pm, 8:00 am,11:00 pm, 8:00 am,11:00 pm,T2L 1K8,-114.127,51.0864,true,2013-09-12 11:44:04 UTC,2013-09-12 11:44:04 UTC
3553 Garrison Gate Sw,Calgary,Safeway Liquor Store, (403) 240-9304,AB, 10:00 am,11:00 pm, 10:00 am,11:00 pm, 10:00 am,11:00 pm, 10:00 am,11:00 pm, 10:00 am,11:00 pm, 10:00 am,11:00 pm, 10:00 am,11:00 pm,T2T 6E4,-114.115,51.0227,true,2013-09-12 11:44:04 UTC,2013-09-12 11:44:04 UTC
4915 - 130 Ave Se,Calgary,Safeway Liquor Store, (403) 257-8541,AB, 10:00 am,11:00 pm, 10:00 am,11:00 pm, 10:00 am,11:00 pm, 10:00 am,11:00 pm, 10:00 am,11:00 pm, 10:00 am,11:00 pm, 10:00 am,11:00 pm,T2Z 3V8,-113.973,50.9318,true,2013-09-12 11:44:04 UTC,2013-09-12 11:44:04 UTC
65 Crowfoot Crescent Nw,Calgary,Safeway Liquor Store, (403) 241-3814,AB, 10:00 am,11:00 pm, 10:00 am,11:00 pm, 10:00 am,11:00 pm, 10:00 am,11:00 pm, 10:00 am,11:00 pm, 10:00 am,11:00 pm, 10:00 am,11:00 pm,T3G 2L5,-114.203,51.1275,true,2013-09-12 11:44:05 UTC,2013-09-12 11:44:05 UTC
76 Saddletowne Cir. Ne,Calgary,Saddletowne Safeway Wine & Spirits, (403) 280-3497,AB, 10:00 am,11:00 pm, 10:00 am,11:00 pm, 10:00 am,11:00 pm, 10:00 am,11:00 pm, 10:00 am,11:00 pm, 10:00 am,11:00 pm, 10:00 am,11:00 pm,T3J 0H5,-113.945,51.1235,true,2013-09-12 11:44:05 UTC,2013-09-12 11:44:05 UTC
1200 Railway Ave,Canmore,Safeway Liquor Store, (403) 609-4655,AB, 10:00 am,11:00 pm, 10:00 am,11:00 pm, 10:00 am,11:00 pm, 10:00 am,11:00 pm, 10:00 am,11:00 pm, 10:00 am,11:00 pm, 10:00 am,11:00 pm,T1W 1P4,-115.356,51.0921,true,2013-09-12 11:44:05 UTC,2013-09-12 11:44:05 UTC
304B - 5 Ave W,Cochrane,Safeway Liquor Store, (403) 932-8941,AB, 10:00 am,10:00 pm, 10:00 am,10:00 pm, 10:00 am,10:00 pm, 10:00 am,10:00 pm, 10:00 am,10:00 pm, 10:00 am,10:00 pm, 10:00 am,10:00 pm,T4C 2A5,-114.476,51.1851,true,2013-09-12 11:44:06 UTC,2013-09-12 11:44:06 UTC
500-900 Carmichael Lane,Hinton,Hinton Safeway, (780) 865-5982,AB, 7:00 am,10:00 pm, 7:00 am,10:00 pm, 7:00 am,10:00 pm, 7:00 am,10:00 pm, 7:00 am,10:00 pm, 7:00 am,10:00 pm, 7:00 am,10:00 pm,T7V 1V6,-117.588,53.3994,true,2013-09-12 11:44:06 UTC,2013-09-12 11:44:06 UTC
6106 - 50 St,Leduc,Safeway Liquor Store, (780) 986-0050,AB, 10:00 am,10:00 pm, 10:00 am,10:00 pm, 10:00 am,10:00 pm, 10:00 am,10:00 pm, 10:00 am,10:00 pm, 10:00 am,10:00 pm, 10:00 am,10:00 pm,T9E 6P2,-113.55,53.2759,true,2013-09-12 11:44:07 UTC,2013-09-12 11:44:07 UTC
2605 Fair Plaza Rd S,Lethbridge,Safeway Liquor Store, (403) 380-2614,AB, 10:00 am,11:00 pm, 10:00 am,11:00 pm, 10:00 am,11:00 pm, 10:00 am,11:00 pm, 10:00 am,11:00 pm, 10:00 am,11:00 pm, 10:00 am,11:00 pm,T1K 6Z2,-112.794,49.6673,true,2013-09-12 11:44:07 UTC,2013-09-12 11:44:07 UTC
97 - 8 St Nw,Medicine Hat,Crescent Heights Safeway, (403) 527-1494,AB, 8:00 am,11:00 pm, 8:00 am,11:00 pm, 8:00 am,11:00 pm, 8:00 am,11:00 pm, 8:00 am,11:00 pm, 8:00 am,11:00 pm, 8:00 am,11:00 pm,T1A 6N9,-110.688,50.0496,true,2013-09-12 11:44:07 UTC,2013-09-12 11:44:07 UTC
535 S Cariboo Hwy,100 Mile House,100 Mile House  Safeway, (250) 395-4952,BC, 7:00 am,10:00 pm, 7:00 am,10:00 pm, 7:00 am,10:00 pm, 7:00 am,10:00 pm, 7:00 am,10:00 pm, 7:00 am,10:00 pm, 7:00 am,10:00 pm,V0K 2E0,-121.381,51.6796,true,2013-09-12 11:44:07 UTC,2013-09-12 11:44:07 UTC
580 Clarke Rd,Coquitlam,Burquitlam Plaza Safeway, (604) 936-8143,BC, 7:00 am,11:59 pm, 7:00 am,11:59 pm, 7:00 am,11:59 pm, 7:00 am,11:59 pm, 7:00 am,11:59 pm, 7:00 am,11:59 pm, 7:00 am,11:59 pm,V3J 3X5,-122.888,49.2625,true,2013-09-12 11:44:08 UTC,2013-09-12 11:44:08 UTC
5275 - 48 Ave,Ladner,Trenant Park Safeway, (604) 940-0051,BC, 7:00 am,11:59 pm, 7:00 am,11:59 pm, 7:00 am,11:59 pm, 7:00 am,11:59 pm, 7:00 am,11:59 pm, 7:00 am,11:59 pm, 7:00 am,11:59 pm,V4K 1W4,-123.078,49.0911,true,2013-09-12 11:44:08 UTC,2013-09-12 11:44:08 UTC
370 Trans Canada Hwy,Ladysmith,Ladysmith Safeway, (250) 245-8147,BC, 7:00 am,10:00 pm, 7:00 am,10:00 pm, 7:00 am,10:00 pm, 7:00 am,10:00 pm, 7:00 am,10:00 pm, 7:00 am,10:00 pm, 7:00 am,10:00 pm,V0R 2E0,-124.546,49.1307,true,2013-09-12 11:44:08 UTC,2013-09-12 11:44:08 UTC
5611 - 4 St Nw,Calgary,Safeway Liquor Store, (403) 275-2192,AB, 10:00 am,11:00 pm, 10:00 am,11:00 pm, 10:00 am,11:00 pm, 10:00 am,11:00 pm, 10:00 am,11:00 pm, 10:00 am,11:00 pm, 10:00 am,11:00 pm,T2K 1B2,-114.071,51.1018,true,2013-09-12 11:44:09 UTC,2013-09-12 11:44:09 UTC
360 Trans Canada Hwy,Salmon Arm,Salmon Arm Safeway, (250) 832-8086,BC, 8:00am,9:00pm, 8:00am,9:00pm, 8:00am,9:00pm, 8:00am,9:00pm, 8:00am,9:00pm, 9:00am,6:00pm, 10:00am,6:00pm,V1E 4M2,-119.287,50.7009,true,2013-09-12 11:44:09 UTC,2013-09-12 11:44:09 UTC
1650 Marine Dr,West Vancouver,ambleside Safeway, (604) 922-6131,BC, 9:00am,7:00pm, 9:00am,7:00pm, 9:00am,7:00pm, 9:00am,7:00pm, 9:00am,7:00pm, 9:00am,6:00pm, 10:00am,6:00pm,V7V 1J1,-123.16,49.3281,true,2013-09-12 11:44:09 UTC,2013-09-12 11:44:09 UTC
5385 Headland Dr,West Vancouver,Some Place Special Safeway, (604) 926-2550,BC, 9:00am,7:00pm, 9:00am,7:00pm, 9:00am,7:00pm, 9:00am,7:00pm, 9:00am,7:00pm, 9:00am,6:00pm, 10:00am,6:00pm,V7W 3E7,-123.253,49.3467,true,2013-09-12 11:44:10 UTC,2013-09-12 11:44:10 UTC
1610 18 St,Brandon,Shoppers Mall Safeway, (204) 725-0117,MB, 9:00am,9:00pm, 9:00am,9:00pm, 9:00am,9:00pm, 9:00am,9:00pm, 9:00am,9:00pm, 9:00am,6:00pm, 10:00am,6:00 pm,R7A 5C5,-99.9625,49.8228,true,2013-09-12 11:44:10 UTC,2013-09-12 11:44:10 UTC
921 - 18 St N,Brandon,Brandon Safeway, (204) 726-8014,MB, 9:00am,9:00pm, 9:00am,9:00pm, 9:00am,9:00pm, 9:00am,9:00pm, 9:00am,9:00pm, 9:00am,6:00pm, 10:00am,6:00 pm,R7A 7S1,-99.9594,49.8665,true,2013-09-12 11:44:10 UTC,2013-09-12 11:44:10 UTC
6800 48Th Ave,Camrose,Camrose Safeway, (780) 672-1211,AB, 9:00am,9:00pm, 9:00am,9:00pm, 9:00am,9:00pm, 9:00am,9:00pm, 9:00am,9:00pm, 9:00am,6:00pm, 10:00am,6:00pm,T4V 4T1,-112.869,53.0231,true,2013-09-12 11:44:11 UTC,2013-09-12 11:44:11 UTC
689 guelph line rd.,Burlington,McDonalds, (905) 639-1661,ON, 05:00,02:00, 05:00,02:00, 05:00,02:00, 05:00,02:00, 05:00,02:00, 05:00,02:00, 05:00,02:00,L7R 3M7,-79.7927,43.3447,true,2013-09-12 11:44:11 UTC,2013-09-12 11:44:11 UTC
25 the west mall ,Etobicoke,McDonalds, (416) 622-6796,ON, 08:00,09:00, 08:00,09:00, 08:00,09:00, 08:00,09:00, 08:00,09:00, 08:00,06:00,11:00,05:00,M9C 1B8,-79.5568,43.6114,true,2013-09-12 11:44:11 UTC,2013-09-12 11:44:11 UTC
"569 main street, west ",Port colborne,McDonalds, (905) 834-9644,ON, 05:00,11:00, 05:00,11:00, 05:00,11:00, 05:00,11:00, 05:00,11:00, 05:00,11:00, 05:00,11:00,L3K 3W8,-79.2626,42.8989,true,2013-09-12 11:44:12 UTC,2013-09-12 11:44:12 UTC
34 livingston ave grimsby plaza ,Grimsby,McDonalds, (905) 945-5491,ON, 05:00,11:59, 05:00,11:59, 05:00,11:59, 05:00,11:59, 05:00,11:59, 12:00,12:00, 12:00,12:00,L3M 4H8,-79.5608,43.193,true,2013-09-12 11:44:12 UTC,2013-09-12 11:44:12 UTC
411 christina street n. ,Sarnia,McDonalds, (519) 336-7096,ON, 05:00,11:59, 05:00,11:59, 05:00,11:59, 05:00,11:59, 05:00,11:59,05:00,11:59,05:00,11:59,N7T 5V8,-82.4037,42.9801,true,2013-09-12 11:44:12 UTC,2013-09-12 11:44:12 UTC
65 gordon street ,Guelph,McDonalds, (519) 836-3070,ON, 05:00,11:59, 05:00,11:59, 05:00,11:59, 05:00,11:59, 05:00,11:59, 05:00,11:59, 05:00,11:59,N1H 4H5,-80.2452,43.5404,true,2013-09-12 11:44:13 UTC,2013-09-12 11:44:13 UTC
50 mcnaughton ave ,Wallaceburg,McDonalds, (519) 627-3376,ON, 05:00,11:59, 05:00,11:59, 05:00,11:59, 05:00,11:59, 05:00,11:59, 05:00,11:59, 05:00,11:59,N8A 1R9,-82.3838,42.5845,true,2013-09-12 11:44:13 UTC,2013-09-12 11:44:13 UTC
600 king street west ,Kitchener,McDonalds, (519) 578-5610,ON, 06:00,11:59, 06:00,11:59, 06:00,11:59, 06:00,11:59, 06:00,11:59,06:00,11:59,06:00,11:59,N2G 1C8,-80.5017,43.4542,true,2013-09-12 11:44:13 UTC,2013-09-12 11:44:13 UTC
377 burnhamthorpe road east ,Mississauga,McDonalds, (905) 270-3529,ON, 06:00,11:59, 06:00,11:59, 06:00,11:59, 06:00,11:59, 06:00,01:00, 06:00,01:00, 06:00,11:59,L5A 3Y1,-79.6267,43.6026,true,2013-09-12 11:44:14 UTC,2013-09-12 11:44:14 UTC
40 king william street ,Huntsville,McDonalds, (705) 789-9877,ON, 05:00,11:59, 05:00,11:59, 05:00,11:59, 05:00,11:59, 05:00,11:59, 05:00,11:59, 05:00,11:59,P0A 1K0,-79.0636,45.8378,true,2013-09-12 11:44:14 UTC,2013-09-12 11:44:14 UTC
"501, rue samuel-de-champlain, bureau 100 ",Boucherville,McDonalds, (450) 641-1810,QC, 05:00,11:59, 05:00,11:59, 05:00,11:59, 05:00,11:59, 05:00,11:59, 05:00,11:59, 05:00,11:59,J4B 6B6,-73.4447,45.6011,true,2013-09-12 11:44:14 UTC,2013-09-12 11:44:14 UTC
170 simcoe street ,Tillsonburg,McDonalds, (519) 842-7655,ON, 05:00,11:59, 05:00,11:59, 05:00,11:59, 05:00,11:59, 05:00,01:00, 05:00,01:00, 05:00,11:59,N4G 4Z6,-80.7041,42.8604,true,2013-09-12 11:44:15 UTC,2013-09-12 11:44:15 UTC
240 government road ,Kapuskasing,McDonalds, (705) 335-6922,ON, 05:00,11:00, 05:00,11:00, 05:00,11:00, 05:00,11:00, 05:00,11:00, 05:00,11:00, 05:00,11:00,P5N 2X2,-82.3958,49.4073,true,2013-09-12 11:44:15 UTC,2013-09-12 11:44:15 UTC
1324 s broadway ,Williams lake,McDonalds, (250) 392-4919,BC, 05:00,03:00, 05:00,03:00, 05:00,03:00, 05:00,03:00, 05:00,03:00, 05:00,03:00, 05:00,03:00,V2G 4N2,-122.117,52.1248,true,2013-09-12 11:44:15 UTC,2013-09-12 11:44:15 UTC
"424, rue riviÈre",Cowansville,McDonalds, (450) 263-5505,QC, 05:00,10:00, 05:00,10:00, 05:00,10:00, 05:00,10:00, 05:00,10:00, 05:00,11:00, 05:00,11:00,J2K 3H8,-72.7691,45.2104,true,2013-09-12 11:45:18 UTC,2013-09-12 11:45:18 UTC
800 tenth st ,Hanover,McDonalds, (519) 364-5198,ON, 05:00,11:00, 05:00,11:00, 05:00,11:00, 05:00,11:00, 05:00,11:59, 05:00,11:59, 05:00,11:00,N4N 1S3,-81.0075,44.1562,true,2013-09-12 11:45:19 UTC,2013-09-12 11:45:19 UTC
Highway 108 ,Elliot lake,McDonalds, (705) 848-8118,ON, 05:00,11:00, 05:00,11:00, 05:00,11:00, 05:00,11:00, 05:00,11:00, 05:00,11:00, 05:00,11:00,P5A 2T1,-82.691,46.4009,true,2013-09-12 11:45:19 UTC,2013-09-12 11:45:19 UTC
710 st. clair w. ,Toronto,McDonalds, (416) 656-1702,ON, 05:00,11:59, 05:00,11:59, 05:00,11:59, 05:00,01:00, 05:00,01:00, 05:00,01:00, 05:00,11:59,M6C 1B2,-79.4263,43.6814,true,2013-09-12 11:45:20 UTC,2013-09-12 11:45:20 UTC
"1151, rue saint-jean ",QuÉbec,McDonalds, (418) 692-4848,QC, 05:00,11:59, 05:00,11:59, 05:00,11:59, 05:00,11:59, 05:00,11:59, 05:00,11:59, 05:00,11:59,G1R 1S3,-71.2101,46.8139,true,2013-09-12 11:45:20 UTC,2013-09-12 11:45:20 UTC
105 highway #118 west ,Bracebridge,McDonalds, (705) 645-9941,ON, 05:00,11:59, 05:00,11:59, 05:00,11:59, 05:00,11:59, 05:00,11:59, 05:00,11:59, 05:00,11:59,P1L 1T5,-79.3126,45.042,true,2013-09-12 11:45:20 UTC,2013-09-12 11:45:20 UTC
1 starrs road ,Yarmouth,McDonalds, (902) 742-3188,NS, 05:00,11:00, 05:00,11:00, 05:00,11:00, 05:00,11:00, 12:00,12:00, 12:00,12:00, 05:00,11:00,B5A 2S9,-66.1146,43.8462,true,2013-09-12 11:45:20 UTC,2013-09-12 11:45:20 UTC
7 allen st. ,Weyburn,McDonalds, (306) 842-4660,SK, 05:00,01:00, 05:00,01:00, 05:00,01:00, 05:00,01:00, 05:00,01:00, 05:00,01:00, 05:00,01:00,S4H 2L5,-103.856,49.6625,true,2013-09-12 11:45:21 UTC,2013-09-12 11:45:21 UTC
354 bayfield road ,Goderich,McDonalds, (519) 524-4622,ON, 05:00,11:59, 05:00,11:59, 05:00,11:59, 05:00,11:59, 05:00,01:00, 05:00,01:00, 05:00,11:59,N7A 4E7,-81.7066,43.7294,true,2013-09-12 11:45:21 UTC,2013-09-12 11:45:21 UTC
"2700, boul. laurier ",Sainte-foy,McDonalds, (418) 657-2202,QC, 07:30,05:00, 07:30,05:00, 07:30,05:00, 07:30,05:00, 07:30,05:00, 07:30,05:00, 07:30,05:00,G1V 2L8,-71.2849,46.7707,true,2013-09-12 11:45:21 UTC,2013-09-12 11:45:21 UTC
1829 lakeshore blvd west ,Clarkson,McDonalds, (905) 823-6480,ON, 06:00,11:59, 06:00,11:59, 06:00,11:59, 06:00,11:59, 06:00,11:59, 06:00,11:59, 06:00,11:59,L5J 1J6,-79.6246,43.5168,true,2013-09-12 11:45:22 UTC,2013-09-12 11:45:22 UTC
4490 fairview street ,Burlington,McDonalds, (905) 681-3040,ON, 05:00,11:59, 05:00,11:59, 05:00,11:59, 05:00,11:59, 05:00,11:59, 05:00,11:59, 05:00,11:59,L7L 5P9,-79.7626,43.3724,true,2013-09-12 11:45:22 UTC,2013-09-12 11:45:22 UTC
45 industrial drive ,Elmira,McDonalds, (519) 669-8980,ON, 05:00,11:59, 05:00,11:59, 05:00,11:59, 05:00,11:59, 05:00,11:59, 05:00,11:59, 05:00,11:59,N3B 3B1,-80.5598,43.5874,true,2013-09-12 11:45:23 UTC,2013-09-12 11:45:23 UTC
99-11th avenue e. ,Prince rupert,McDonalds, (250) 624-6190,BC, 05:00,11:59, 05:00,11:59, 05:00,11:59, 05:00,11:59, 05:00,11:59, 05:00,11:59, 05:00,11:59,V8J 2W2,-130.31,54.3115,true,2013-09-12 11:45:23 UTC,2013-09-12 11:45:23 UTC
278 goderich street ,Port elgin,McDonalds, (519) 389-4663,ON, 05:00,11:00, 05:00,11:00, 05:00,11:00, 05:00,11:00, 05:00,11:59, 05:00,11:59, 05:00,11:00,N0H 2C1,-81.3977,44.4305,true,2013-09-12 11:45:24 UTC,2013-09-12 11:45:24 UTC
"1401, boul. talbot place du royaume",Chicoutimi,McDonalds, (418) 543-3701,QC, 07:00,05:30, 07:00,05:30, 07:00,05:30, 07:00,09:00, 07:00,09:00, 07:30,05:00, 08:00,05:00,G7H 5N6,-71.0534,48.405,true,2013-09-12 11:45:26 UTC,2013-09-12 11:45:26 UTC
954 central avenue ,Greenwood,McDonalds, (902) 765-6381,NS, 05:00,11:59, 05:00,11:59, 05:00,11:59, 05:00,11:59, 05:00,01:00, 05:00,01:00, 05:00,11:59,B0P 1N0,-64.7887,44.8013,true,2013-09-12 11:45:26 UTC,2013-09-12 11:45:26 UTC
1835 - 56th street ,Delta,McDonalds, (604) 948-3630,BC, 05:00,11:59, 05:00,11:59, 05:00,11:59, 05:00,11:59, 05:00,01:00, 05:00,01:00, 05:00,11:59,V4L 2B4,-123.071,49.0375,true,2013-09-12 11:45:26 UTC,2013-09-12 11:45:26 UTC
Dufferin mall 900 dufferin street,Toronto,McDonalds, (416) 537-0934,ON, 07:00,09:00, 07:00,09:00, 07:00,09:00, 07:00,09:00, 07:00,09:00, 07:00,09:00, 09:00,06:30,M5H 4B1,-79.3846,43.6506,true,2013-09-12 11:45:27 UTC,2013-09-12 11:45:27 UTC
Malvern town centre 31 tapscott road,Scarborough,McDonalds, (416) 754-8071,ON, 06:00,11:00, 06:00,11:00, 06:00,11:00, 06:00,11:00, 06:00,11:59, 06:00,11:59, 06:00,11:00,M1B 4Y7,-79.2219,43.8064,true,2013-09-12 11:45:27 UTC,2013-09-12 11:45:27 UTC
Oakville town centre ii 210 north service road west,Oakville,McDonalds, (905) 338-0554,ON, 05:00,11:00, 05:00,11:00, 05:00,11:00, 05:00,11:00, 05:00,11:00, 05:00,11:00, 05:00,11:00,L6M 2Y2,-79.7005,43.4482,true,2013-09-12 11:45:27 UTC,2013-09-12 11:45:27 UTC
Unit 102-h 333 st. mary avenue ,Winnipeg,McDonalds, (204) 949-6038,MB, 07:00,08:00, 07:00,08:00, 07:00,08:00, 07:00,08:00, 07:00,08:00, 08:00,06:00, 11:00,04:00,R3C 4A5,-97.1429,49.8906,true,2013-09-12 11:45:28 UTC,2013-09-12 11:45:28 UTC
994 keewatin ,Winnipeg,McDonalds, (204) 949-6079,MB, 05:00,11:59, 05:00,11:59, 05:00,11:59, 05:00,11:59, 05:00,11:59, 05:00,11:59, 05:00,11:59,R2R 2V1,-97.1962,49.943,true,2013-09-12 11:45:28 UTC,2013-09-12 11:45:28 UTC
175 hampton road ,Quispamsis,McDonalds, (506) 847-9003,NB, 05:00,11:59, 05:00,11:59, 05:00,11:59, 05:00,11:59, 05:00,11:59, 05:00,11:59, 05:00,11:59,E2E 4J9,-65.9705,45.4035,true,2013-09-12 11:45:28 UTC,2013-09-12 11:45:28 UTC
2800 skymark avenue ,Mississauga,McDonalds, (905) 629-9994,ON, 06:00,11:59, 06:00,11:59, 06:00,11:59, 06:00,11:59, 06:00,11:59, 06:00,11:59, 06:00,11:59,L4W 5A6,-79.5925,43.6629,true,2013-09-12 11:45:29 UTC,2013-09-12 11:45:29 UTC
"1111, boul. jutras est la grande place des bois francs",Victoriaville,McDonalds, (819) 357-3657,QC, 10:00,05:30, 10:00,05:30, 10:00,05:30, 10:00,09:00, 10:00,09:00, 10:00,05:00, 10:00,05:00,G6S 1C1,-71.9253,46.0604,true,2013-09-12 11:45:29 UTC,2013-09-12 11:45:29 UTC
39 king street ,Saint john,McDonalds, (506) 634-2700,NB, 07:00,06:00, 07:00,06:00, 07:00,06:00, 07:00,09:00, 07:00,09:00, 08:00,06:00, 12:00,05:00,E2L 4W3,-66.0615,45.2734,true,2013-09-12 11:45:29 UTC,2013-09-12 11:45:29 UTC
Jackson square 120 king street west,Hamilton,McDonalds, (905) 526-0984,ON, 06:00,10:00, 06:00,10:00, 06:00,10:00, 06:00,10:00, 06:00,10:00, 06:00,10:00, 06:00,10:00,L8P 4V2,-79.8727,43.2581,true,2013-09-12 11:45:30 UTC,2013-09-12 11:45:30 UTC
"1075, boul. firestone ",Joliette,McDonalds, (450) 752-1375,QC, 08:00,06:00, 08:00,06:00, 08:00,06:00, 08:00,09:00, 08:00,09:00, 08:00,05:00, 11:00,05:00,J6E 6X6,-73.4261,46.033,true,2013-09-12 11:45:30 UTC,2013-09-12 11:45:30 UTC
840 carmichael lane ,Hinton,McDonalds, (780) 865-5227,AB, 05:00,11:00, 05:00,11:00, 05:00,11:00, 05:00,11:00, 05:00,11:00, 05:00,11:00, 05:00,11:00,T7V 1V4,-117.572,53.4037,true,2013-09-12 11:45:30 UTC,2013-09-12 11:45:30 UTC
285 geneva street ,St catharines,McDonalds, (905) 646-4450,ON, 08:30,09:00, 08:30,09:00, 08:30,09:00, 08:30,09:00, 08:30,09:00, 08:30,09:00, 10:00,09:00,L2N 2G1,-79.2412,43.1779,true,2013-09-12 11:45:31 UTC,2013-09-12 11:45:31 UTC
360 george street north ,Peterborough,McDonalds, (705) 876-6227,ON, 07:00,09:00, 07:00,09:00, 07:00,09:00, 07:00,09:00, 07:00,10:00, 07:00,10:00, 09:00,07:00,K9H 7E7,-78.3193,44.3045,true,2013-09-12 11:45:31 UTC,2013-09-12 11:45:31 UTC
"Unit 5, waterfront centre 200 burrard st.",Vancouver,McDonalds, (604) 718-1120,BC, 06:00,09:00, 06:00,09:00, 06:00,09:00, 06:00,09:00, 06:00,09:00, 07:00,09:00, 07:00,09:00,V6C 3K1,-123.115,49.2872,true,2013-09-12 11:45:31 UTC,2013-09-12 11:45:31 UTC
181 bay st p.o. box 112,Toronto,McDonalds, (416) 360-4588,ON, 06:30,09:00, 06:30,09:00, 06:30,09:00, 06:30,09:00, 06:30,09:00, 11:00,09:00, 11:00,09:00,M5J 2S1,-79.3788,43.6466,true,2013-09-12 11:45:32 UTC,2013-09-12 11:45:32 UTC
151 dundas street ,London,McDonalds, (519) 661-0645,ON, 06:00,11:59, 06:00,11:59, 06:00,11:59, 06:00,11:59, 06:00,01:00, 06:00,01:00, 08:00,11:59,N6A 5R7,-81.2499,42.9835,true,2013-09-12 11:45:32 UTC,2013-09-12 11:45:32 UTC
"465, rue de la grande-anse ",La pocatiÈre,McDonalds, (418) 856-2066,QC, 05:00,11:59, 05:00,11:59, 05:00,11:59, 05:00,11:59, 05:00,11:59, 05:00,11:59, 05:00,11:59,G0R 1Z0,-70.0405,47.3286,true,2013-09-12 11:45:32 UTC,2013-09-12 11:45:32 UTC
1020 ottawa street north ,Kitchener,McDonalds, (519) 896-2115,ON, 05:00,11:00, 05:00,11:00, 05:00,11:00, 05:00,11:00, 05:00,11:59, 05:00,11:59, 05:00,11:00,N2A 3Z3,-80.4436,43.4518,true,2013-09-12 11:45:32 UTC,2013-09-12 11:45:32 UTC
1285 cliveden avenue ,Delta,McDonalds, (604) 718-1125,BC, 04:00,01:00, 04:00,01:00, 04:00,01:00, 04:00,01:00, 04:00,01:00, 05:00,11:59, 05:00,11:59,V3M 6C7,-122.958,49.1712,true,2013-09-12 11:45:33 UTC,2013-09-12 11:45:33 UTC
157 chadwick court ,North vancouver,McDonalds, (604) 986-6100,BC, 05:30,01:00, 05:30,01:00, 05:30,01:00, 05:30,01:00, 05:30,01:00, 05:30,01:00, 06:00,11:59,V7M 3K2,-123.084,49.3106,true,2013-09-12 11:45:33 UTC,2013-09-12 11:45:33 UTC
3990 johnston road ,Port alberni,McDonalds, (250) 723-3722,BC, 05:00,11:00, 05:00,11:00, 05:00,11:00, 05:00,11:00, 05:00,11:00, 05:00,11:00, 05:00,11:00,V9Y 5N5,-124.792,49.2643,true,2013-09-12 11:45:33 UTC,2013-09-12 11:45:33 UTC
484 mcphillips street ,Winnipeg,McDonalds, (204) 949-6060,MB, 09:30,03:00, 09:30,03:00, 09:30,03:00, 09:30,03:00, 09:30,03:00, 09:30,03:00, 11:30,03:00,R2X 2G8,-97.1717,49.9183,true,2013-09-12 11:45:34 UTC,2013-09-12 11:45:34 UTC
1401 - 2929 barnet highway ,Coquitlam,McDonalds, (604) 941-9135,BC, 09:30,06:00, 09:30,06:00, 09:30,09:00, 09:30,09:00, 09:30,09:00, 09:30,06:00, 10:30,05:30,V3B 5R5,-122.803,49.2777,true,2013-09-12 11:45:34 UTC,2013-09-12 11:45:34 UTC
261 main street north ,Exeter,McDonalds, (519) 235-4227,ON, 05:00,11:59, 05:00,11:59, 05:00,11:59, 05:00,11:59, 05:00,01:00, 05:00,01:00, 05:00,11:59,N0M 1S3,-81.4773,43.363,true,2013-09-12 11:45:34 UTC,2013-09-12 11:45:34 UTC
1168 st clair avenue west ,Toronto,McDonalds, (416) 652-9536,ON, 06:00,11:59, 06:00,11:59, 06:00,11:59, 06:00,11:59, 06:00,01:00, 06:00,01:00, 06:00,11:59,M6E 1B4,-79.4441,43.678,true,2013-09-12 11:45:35 UTC,2013-09-12 11:45:35 UTC
347 yonge street ,Barrie,McDonalds, (705) 739-0397,ON, 05:00,11:00, 05:00,11:00, 05:00,11:00, 05:00,11:00, 05:00,11:59, 05:00,11:59, 05:00,11:00,L4N 4C9,-79.6653,44.3689,true,2013-09-12 11:45:35 UTC,2013-09-12 11:45:35 UTC
"5155, rue queen-mary ",MontrÉal,McDonalds, (514) 369-8904,QC, 06:00,11:00, 06:00,11:00, 06:00,11:00, 06:00,11:00, 06:00,11:00, 06:00,11:00, 06:00,11:00,H3W 1X6,-73.6285,45.4852,true,2013-09-12 11:45:35 UTC,2013-09-12 11:45:35 UTC
440 king street king's place mall,Fredericton,McDonalds, (506) 444-6235,NB, 06:30,06:30, 06:30,06:30, 06:30,06:30, 06:30,08:30, 06:30,08:30, 09:00,05:00,Closed,Closed,E3B 5H8,-66.6432,45.9612,true,2013-09-12 11:45:36 UTC,2013-09-12 11:45:36 UTC
"300 borough drive, suite #4 ",Scarborough,McDonalds, (416) 290-6195,ON, 07:00,09:00, 07:00,09:00, 07:00,09:00, 07:00,09:00, 07:00,09:00, 07:00,07:00, 09:00,06:00,M1P 4P5,-79.2585,43.7767,true,2013-09-12 11:45:36 UTC,2013-09-12 11:45:36 UTC
419 king street west oshawa centre,Oshawa,McDonalds, (905) 576-3400,ON, 07:00,09:00, 07:00,09:00, 07:00,09:00, 07:00,09:00, 07:00,09:00, 07:00,06:00, 09:00,06:00,L1J 2K5,-78.8811,43.893,true,2013-09-12 11:45:36 UTC,2013-09-12 11:45:36 UTC
1105 wellington road south wal-mart - white oaks mall,London,McDonalds, (519) 680-0503,ON, 07:00,10:00, 07:00,10:00, 07:00,10:00, 07:00,10:00, 07:00,10:00, 07:00,10:00, 08:00,08:00,N6E 1V4,-81.225,42.9319,true,2013-09-12 11:45:37 UTC,2013-09-12 11:45:37 UTC
2960 kingsway drive wal-mart - fairview park,Kitchener,McDonalds, (519) 896-0040,ON, 08:00,10:00, 08:00,10:00, 08:00,10:00, 08:00,10:00, 08:00,10:00, 08:00,09:00, 08:00,08:00,N2C 1X1,-80.4411,43.4307,true,2013-09-12 11:45:37 UTC,2013-09-12 11:45:37 UTC
525 welland ave wal-mart - lincoln mall,St catharines,McDonalds, (905) 688-8306,ON, 08:00,10:00, 08:00,10:00, 08:00,10:00, 08:00,10:00, 08:00,10:00, 08:00,10:00, 08:00,10:00,L2M 6P3,-79.2144,43.176,true,2013-09-12 11:45:37 UTC,2013-09-12 11:45:37 UTC
3850 sheppard avenue east wal-mart - agincourt s.c.,Agincourt,McDonalds, (416) 754-4337,ON, 07:00,11:00, 07:00,11:00, 07:00,11:00, 07:00,11:00, 07:00,11:00, 07:00,11:00, 07:00,11:00,M1T 3L4,-79.292,43.7837,true,2013-09-12 11:45:38 UTC,2013-09-12 11:45:38 UTC
19 cromer avenue wal-mart - exploits valley mall,Grand falls,McDonalds, (709) 489-7510,NL, 08:00,10:00, 08:00,10:00, 08:00,10:00, 08:00,10:00, 08:00,10:00, 08:00,10:00, 09:00,07:00,A2A 1X3,-55.6555,48.9426,true,2013-09-12 11:45:38 UTC,2013-09-12 11:45:38 UTC
65 keltic drive wal-mart - cape breton,Sydney river,McDonalds, (902) 562-5877,NS, 08:00,10:00, 08:00,10:00, 08:00,10:00, 08:00,10:00, 08:00,10:00, 08:00,10:00, 10:30,06:00,B1S 1P4,-60.2273,46.1096,true,2013-09-12 11:45:38 UTC,2013-09-12 11:45:38 UTC
477 paul street wal-mart - champlain place,Dieppe,McDonalds, (506) 862-1606,NB, 08:00,10:00, 08:00,10:00, 08:00,10:00, 08:00,10:00, 08:00,10:00, 08:00,10:00, 09:00,06:00,E1A 5B2,-64.7608,46.0968,true,2013-09-12 11:45:38 UTC,2013-09-12 11:45:38 UTC
"1005, boul. laure wal-mart - galeries montagnaises",Sept-Îles,McDonalds, (418) 962-0508,QC, 08:00,09:00, 08:00,09:00, 08:00,09:00, 08:00,09:00, 08:00,09:00, 08:00,05:00, 08:00,05:00,G4R 4S6,-66.3941,50.2261,true,2013-09-12 11:45:39 UTC,2013-09-12 11:45:39 UTC
"100, boul. brien, bureau16 wal-mart - galeries rive-nord",Repentigny,McDonalds, (450) 657-0759,QC, 08:00,09:00, 08:00,09:00, 08:00,09:00, 08:00,09:00, 08:00,09:00, 08:00,05:00, 08:00,05:00,J6A 5N4,-73.4581,45.7425,true,2013-09-12 11:45:39 UTC,2013-09-12 11:45:39 UTC
4520 boul. des rÉcollets wal-mart - carrefour trois riviÈres,Trois-riviÈres,McDonalds, (819) 373-5408,QC, 08:00,09:00, 08:00,09:00, 08:00,09:00, 08:00,09:00, 08:00,09:00, 08:00,05:00, 08:00,05:00,G9A 4N2,-72.5666,46.3267,true,2013-09-12 11:45:39 UTC,2013-09-12 11:45:39 UTC
"300, rue barkoff wal-mart - galeries du cap",Trois-riviÈres,McDonalds, (819) 373-7921,QC, 08:00,09:00, 08:00,09:00, 08:00,09:00, 08:00,09:00, 08:00,09:00, 08:00,05:00, 08:00,05:00,G8T 2A3,-72.5584,46.3718,true,2013-09-12 11:45:40 UTC,2013-09-12 11:45:40 UTC
"1999,boul. roland-therrien wal-mart - centre commercial",Longueuil,McDonalds, (450) 448-6699,QC, 08:00,09:00, 08:00,09:00, 08:00,09:00, 08:00,09:00, 08:00,09:00, 08:00,05:00, 09:00,05:00,J4N 1A3,-73.4759,45.5377,true,2013-09-12 11:45:40 UTC,2013-09-12 11:45:40 UTC
"7445, boul. langelier wal-mart - centre langelier",Saint-lÉonard,McDonalds, (514) 252-1105,QC, 08:00,09:00, 08:00,09:00, 08:00,09:00, 08:00,09:00, 08:00,09:00, 08:00,05:00, 08:00,05:00,H1S 1V9,-73.5724,45.5928,true,2013-09-12 11:45:40 UTC,2013-09-12 11:45:40 UTC
Highway 17 east wal-mart - hwy 17 east,Dryden,McDonalds, (807) 223-5907,ON, 08:00,10:00, 08:00,10:00, 08:00,10:00, 08:00,10:00, 08:00,10:00, 08:00,10:00, 08:00,08:00,P8N 2Y6,-92.8355,49.7845,true,2013-09-12 11:45:41 UTC,2013-09-12 11:45:41 UTC
5000 highway #7 wal-mart - markville s.c.,Markham,McDonalds, (905) 415-1424,ON, 07:00,11:00, 07:00,11:00, 07:00,11:00, 07:00,11:00, 07:00,11:00, 07:00,11:00, 07:00,11:00,L3R 4W9,-79.2854,43.8602,true,2013-09-12 11:45:41 UTC,2013-09-12 11:45:41 UTC
900 dufferin street wal-mart - dufferin mall,Toronto,McDonalds, (416) 537-8169,ON, 07:00,11:00, 07:00,11:00, 07:00,11:00, 07:00,11:00, 07:00,11:00, 07:00,11:00, 07:00,09:00,M6H 4E9,-79.4462,43.6669,true,2013-09-12 11:45:41 UTC,2013-09-12 11:45:41 UTC
1350 richmond rd wal-mart - lincoln height galleria,Ottawa,McDonalds, (613) 721-9239,ON, 08:00,10:00, 08:00,10:00, 08:00,10:00, 08:00,10:00, 08:00,10:00, 08:00,10:00, 08:00,08:00,K2B 7Z3,-75.7865,45.3664,true,2013-09-12 11:45:42 UTC,2013-09-12 11:45:42 UTC
100 city centre drive wal-mart - square one sc,Mississauga,McDonalds, (905) 276-3898,ON, 07:00,11:00, 07:00,11:00, 07:00,11:00, 07:00,11:00, 07:00,11:00, 07:00,11:00, 07:00,11:00,L5B 2C9,-79.6425,43.5931,true,2013-09-12 11:45:42 UTC,2013-09-12 11:45:42 UTC
1305 lawrence avenue west wal-mart - north park s.c.,Toronto,McDonalds, (416) 247-2030,ON, 08:00,11:00, 08:00,11:00, 08:00,11:00, 08:00,11:00, 08:00,11:00, 08:00,11:00, 09:00,10:00,M6L 1A5,-79.4761,43.7092,true,2013-09-12 11:45:42 UTC,2013-09-12 11:45:42 UTC
950 brookdale mall wal-mart - brookdale mall,Cornwall,McDonalds, (613) 933-9214,ON, 07:00,10:00, 07:00,10:00, 07:00,10:00, 07:00,10:00, 07:00,10:00, 07:00,10:00, 07:00,08:00,K6J 4P5,-74.7509,45.0229,true,2013-09-12 11:45:43 UTC,2013-09-12 11:45:43 UTC
Unit 300-9855 austin avenue lougheed mall wal-mart,Burnaby,McDonalds, (604) 718-1140,BC, 07:00,11:00, 07:00,11:00, 07:00,11:00, 07:00,11:00, 07:00,11:00, 07:00,11:00, 07:00,11:00,V3J 1N5,-122.897,49.2508,true,2013-09-12 11:45:43 UTC,2013-09-12 11:45:43 UTC
1000 guilford town centre wal-mart - guildford town centre,Surrey,McDonalds, (604) 930-1812,BC, 07:00,11:00, 07:00,11:00, 07:00,11:00, 07:00,11:00, 07:00,11:00, 07:00,11:00, 07:00,11:00,V3R 1N3,-122.805,49.1905,true,2013-09-12 11:45:43 UTC,2013-09-12 11:45:43 UTC
925 marine drive wal-mart - capilano mall,North vancouver,McDonalds, (604) 985-6757,BC, 07:00,11:00, 07:00,11:00, 07:00,11:00, 07:00,11:00, 07:00,11:00, 07:00,11:00, 07:00,11:00,V7P 1S2,-123.1,49.3228,true,2013-09-12 11:45:44 UTC,2013-09-12 11:45:44 UTC
3835 memorial drive n.e. wal-mart - marlborough mall,Calgary,McDonalds, (403) 569-1754,AB, 07:00,11:00, 07:00,11:00, 07:00,11:00, 07:00,11:00, 07:00,11:00, 07:00,11:00, 07:00,11:00,T2A 2K2,-113.98,51.0538,true,2013-09-12 11:45:44 UTC,2013-09-12 11:45:44 UTC
9650 macleod trail wal-mart - macleod mall,Calgary,McDonalds, (403) 252-8929,AB, 07:00,11:00, 07:00,11:00, 07:00,11:00, 07:00,11:00, 07:00,11:00, 07:00,11:00, 07:00,11:00,T2J 0P7,-114.07,50.9671,true,2013-09-12 11:45:44 UTC,2013-09-12 11:45:44 UTC
1212 - 37th street s.w. wal-mart - westbrook plaza,Calgary,McDonalds, (403) 686-6579,AB, 07:00,11:00, 07:00,11:00, 07:00,11:00, 07:00,11:00, 07:00,11:00, 07:00,11:00, 07:00,11:00,T3C 1S3,-114.139,51.041,true,2013-09-12 11:45:44 UTC,2013-09-12 11:45:44 UTC
6375 - 50th avenue wal-mart - parkland mall,Red deer,McDonalds, (403) 340-1065,AB, 07:00,11:00, 07:00,11:00, 07:00,11:00, 07:00,11:00, 07:00,11:00, 07:00,11:00, 07:00,11:00,T4N 4C7,-113.812,52.2863,true,2013-09-12 11:45:45 UTC,2013-09-12 11:45:45 UTC
50th street and 101 avenue wal-mart - capilano s.c.,Edmonton,McDonalds, (780) 414-8481,AB, 07:00,11:00, 07:00,11:00, 07:00,11:00, 07:00,11:00, 07:00,11:00, 07:00,11:00, 07:00,11:00,T6A 0A2,-113.423,53.5394,true,2013-09-12 11:45:45 UTC,2013-09-12 11:45:45 UTC
#54 - 1225 st. mary's rd. ,Winnipeg,McDonalds, (204) 949-5419,MB, 07:00,11:00, 07:00,11:00, 07:00,11:00, 07:00,11:00, 07:00,11:00, 07:00,11:00, 09:00,06:00,R2M 5E6,-97.1136,49.8296,true,2013-09-12 11:45:45 UTC,2013-09-12 11:45:45 UTC
313 old airport road wal-mart,Yellowknife,McDonalds, (867) 873-9556,NT, 08:00,10:00, 08:00,10:00, 08:00,10:00, 08:00,10:00, 08:00,10:00, 08:00,10:00, 08:00,06:00,X1A 3T3,-114.403,62.4538,true,2013-09-12 11:45:46 UTC,2013-09-12 11:45:46 UTC
5005 northland drive n.w. wal-mart - northland village s.c.,Calgary,McDonalds, (403) 247-8743,AB, 07:00,11:00, 07:00,11:00, 07:00,11:00, 07:00,11:00, 07:00,11:00, 07:00,11:00, 07:00,11:00,T2L 2K1,-114.144,51.0969,true,2013-09-12 11:45:46 UTC,2013-09-12 11:45:46 UTC
97 main st. compartment 13,Picton,McDonalds, (613) 476-9090,ON, 05:00,11:59, 05:00,11:59, 05:00,11:59, 05:00,11:59, 05:00,11:59, 05:00,11:59, 05:00,11:59,K0K 2T0,-77.1375,44.0089,true,2013-09-12 11:45:46 UTC,2013-09-12 11:45:46 UTC
"630, boul. laflÈcheche wal-mart - centre rÉgional manicouagan",Baie-comeau,McDonalds, (418) 589-6236,QC, 08:00,09:00, 08:00,09:00, 08:00,09:00, 08:00,09:00, 08:00,09:00, 08:00,05:00, 08:00,05:00,G5C 2Y3,-68.2578,49.2002,true,2013-09-12 11:45:47 UTC,2013-09-12 11:45:47 UTC
"1451, boul. talbot wal-mart - centre commercial ",Chicoutimi,McDonalds, (418) 693-4753,QC, 08:00,09:00, 08:00,09:00, 08:00,09:00, 08:00,09:00, 08:00,09:00, 08:00,05:00, 08:00,05:00,G7H 5N6,-71.0534,48.405,true,2013-09-12 11:45:47 UTC,2013-09-12 11:45:47 UTC
"100, pl. charles-lemoyne bureau 109",Longueuil,McDonalds, (450) 442-2295,QC, 05:30,00:30, 05:30,00:30, 05:30,00:30, 05:30,00:30, 05:30,01:00, 05:30,01:00, 05:30,00:30,J4K 2T4,-73.5223,45.5246,true,2013-09-12 11:45:47 UTC,2013-09-12 11:45:47 UTC
Canadian forces base 7 niagara park dr vimy box cfb kingston,Kingston,McDonalds, (613) 542-4228,ON, 05:00,11:00, 05:00,11:00, 05:00,11:00, 05:00,11:00, 05:00,11:59, 05:00,11:59, 05:00,11:00,K7K 5L0,-76.4924,44.2571,true,2013-09-12 11:45:48 UTC,2013-09-12 11:45:48 UTC
"4840, 52nd avenue ",Red deer,McDonalds, (403) 347-7171,AB, 05:00,11:59, 05:00,11:59, 05:00,11:59, 05:00,11:59, 05:00,11:59, 05:00,11:59, 05:00,11:59,T4N 6Y8,-113.819,52.2681,true,2013-09-12 11:45:48 UTC,2013-09-12 11:45:48 UTC
777 memorial avenue ,Thunder bay,McDonalds, (807) 344-0788,ON, 07:00,10:00, 07:00,10:00, 07:00,10:00, 07:00,10:00, 07:00,10:00, 07:00,10:00, 07:00,06:00,P7B 3Z7,-89.2414,48.4119,true,2013-09-12 11:45:48 UTC,2013-09-12 11:45:48 UTC
274 millennium parkway ,Belleville,McDonalds, (613) 962-2705,ON, 07:00,10:00, 07:00,10:00, 07:00,10:00, 07:00,10:00, 07:00,10:00, 07:00,10:00, 07:00,10:00,K8N 4Z5,-77.453,44.1909,true,2013-09-12 11:45:49 UTC,2013-09-12 11:45:49 UTC
35 mapleview drive west walmart - barrie,Barrie,McDonalds, (705) 739-8047,ON, 07:30,10:00, 07:30,10:00, 07:30,10:00, 07:30,10:00, 07:30,10:30, 07:30,10:00, 08:00,07:00,L4N 9H5,-79.686,44.333,true,2013-09-12 11:45:49 UTC,2013-09-12 11:45:49 UTC
"640, boul. maloney ouest wal-mart - gatineau",Gatineau,McDonalds, (819) 246-8202,QC, 08:00,09:00, 08:00,09:00, 08:00,09:00, 08:00,09:00, 08:00,09:00, 08:00,05:00, 08:00,05:00,J8P 7M4,-75.628,45.4836,true,2013-09-12 11:45:49 UTC,2013-09-12 11:45:49 UTC
452 highway 303 ,Digby,McDonalds, (902) 245-4468,NS, 05:00,11:59, 05:00,11:59, 05:00,11:59, 05:00,11:59, 05:00,01:00, 05:00,01:00, 05:00,11:59,B0V 1A0,-65.8243,44.6064,true,2013-09-12 11:45:50 UTC,2013-09-12 11:45:50 UTC
124 highway 20 east ,Fonthill,McDonalds, (905) 892-7906,ON, 07:00,11:00, 07:00,11:00, 07:00,11:00, 07:00,11:00, 07:00,11:00, 07:00,11:00, 07:00,11:00,L0S 1E6,-79.2508,43.0784,true,2013-09-12 11:45:50 UTC,2013-09-12 11:45:50 UTC
1501  highway 11 west ,Hearst,McDonalds, (705) 362-5066,ON, 05:00,11:00, 05:00,11:00, 05:00,11:00, 05:00,11:00, 05:00,11:00, 05:00,11:00, 05:00,11:00,P0L 1N0,-83.8124,49.7922,true,2013-09-12 11:45:50 UTC,2013-09-12 11:45:50 UTC