address,city,company_name,phone,state,mon_from,mon_to,tue_from,tue_to,wed_from,wed_to,thu_from,thu_to,fri_from,fri_to,sat_from,sat_to,sun_from,sun_to,zip_code,longitude,latitude,gmaps,created_at,updated_at
1280 Steeles Ave. East,Milton,Walmart,905-864-6027,ON,7:00am,11:00pm,7:00am,11:00pm,7:00am,11:00pm,7:00am,11:00pm,7:00am,11:00pm,7:00am,11:00pm,7:00am,11:00pm,L9T 6R1,-79.8691,43.5437,,2013-09-16 12:34:03 UTC,2013-09-16 12:34:03 UTC
2320 Highway 2,Bowmanville,Walmart,905-623-0110,ON,7:00am,11:00pm,7:00am,11:00pm,7:00am,11:00pm,7:00am,11:00pm,7:00am,11:00pm,7:00am,11:00pm,7:00am,11:00pm,L1C 3K7,-78.7048,43.9118,,2013-09-16 12:34:03 UTC,2013-09-16 12:34:03 UTC
16 Pinegrove Road,Bridgewater,Walmart,902-543-8680,NS,8:00am,10:00pm,8:00am,10:00pm,8:00am,10:00pm,8:00am,10:00pm,8:00am,10:00pm,8:00am,10:00pm,10:00am,8:00pm,B4V 7P7,-64.5368,44.3998,,2013-09-16 12:34:03 UTC,2013-09-16 12:34:03 UTC
2525 St Clair Ave West,Toronto,Walmart,416-763-7325,ON,7:00am,11:00pm,7:00am,11:00pm,7:00am,11:00pm,7:00am,11:00pm,7:00am,11:00pm,7:00am,11:00pm,7:00am,11:00pm,M6N 4Z5,-79.4849,43.6687,,2013-09-16 12:34:03 UTC,2013-09-16 12:34:03 UTC
1400 Ottawa St.South Unit E.,Kitchener,Walmart,519-745-2297,ON,7:00am,11:00pm,7:00am,11:00pm,7:00am,11:00pm,7:00am,11:00pm,7:00am,11:00pm,7:00am,11:00pm,7:00am,11:00pm,N2E 4E2,-80.5119,43.4164,,2013-09-16 12:34:03 UTC,2013-09-16 12:34:03 UTC
5217 Power Centre Blvd,Drayton Valley,Walmart,780-514-3207,AB,8:00am,10:00pm,8:00am,10:00pm,8:00am,10:00pm,8:00am,10:00pm,8:00am,10:00pm,8:00am,10:00pm,8:00am,10:00pm,T7A 1S7,-115.0,53.224,,2013-09-16 12:34:03 UTC,2013-09-16 12:34:03 UTC
5005 Dahl Drive,Whitecourt,Walmart,780-706-3323,AB,8:00am,10:00pm,8:00am,10:00pm,8:00am,10:00pm,8:00am,10:00pm,8:00am,10:00pm,8:00am,10:00pm,8:00am,10:00pm,T7S 1P6,-115.671,54.1407,,2013-09-16 12:34:03 UTC,2013-09-16 12:34:03 UTC
1601 Marcolin Drive,Trail,Walmart,250-364-2688,BC,8:00am,9:00pm,8:00am,9:00pm,8:00am,9:00pm,8:00am,9:00pm,8:00am,9:00pm,8:00am,9:00pm,8:00am,9:00pm,V1R 4Y1,-117.622,49.085,,2013-09-16 12:34:03 UTC,2013-09-16 12:34:03 UTC
23550 Woodbine Ave,Keswick,Walmart,905-476-1729,ON,7:00am,10:00pm,7:00am,10:00pm,7:00am,10:00pm,7:00am,10:00pm,7:00am,10:00pm,7:00am,10:00pm,7:00am,10:00pm,L4P 3E9,-79.4449,44.2189,,2013-09-16 12:34:03 UTC,2013-09-16 12:34:03 UTC
494 Rue Madawaska,Grand Falls,Walmart,506-473-6837,NB,8:00am,10:00pm,8:00am,10:00pm,8:00am,10:00pm,8:00am,10:00pm,8:00am,10:00pm,8:00am,10:00pm,9:00am,6:00pm,E3Y 1A3,-67.754,47.0589,,2013-09-16 12:34:03 UTC,2013-09-16 12:34:03 UTC
50 Market Street,Antigonish,Walmart,902-867-1279,NS,8:00am,10:00pm,8:00am,10:00pm,8:00am,10:00pm,8:00am,10:00pm,8:00am,10:00pm,8:00am,10:00pm,10:00am,8:00pm,B2G 3B4,-62.0128,45.6105,,2013-09-16 12:34:03 UTC,2013-09-16 12:34:03 UTC
39210 Discovery Way,Squamish,Walmart,604-815-4337,BC,8:00am,10:00pm,8:00am,10:00pm,8:00am,10:00pm,8:00am,10:00pm,8:00am,10:00pm,8:00am,10:00pm,8:00am,10:00pm,V8B 0N1,-123.151,49.7215,,2013-09-16 12:34:03 UTC,2013-09-16 12:34:03 UTC
108 Starrs Road,Yarmouth,Walmart,902-749-2306,NS,8:00am,10:00pm,8:00am,10:00pm,8:00am,10:00pm,8:00am,10:00pm,8:00am,10:00pm,8:00am,10:00pm,10:00am,8:00pm,B5A 2T5,-66.1007,43.8434,,2013-09-16 12:34:03 UTC,2013-09-16 12:34:03 UTC
492 Highway 303,Digby,Walmart,902-245-6020,NS,8:00am,10:00pm,8:00am,10:00pm,8:00am,10:00pm,8:00am,10:00pm,8:00am,10:00pm,8:00am,10:00pm,10:00am,6:00pm,B0V 1A0,-65.7707,44.5995,,2013-09-16 12:34:03 UTC,2013-09-16 12:34:03 UTC
3355 Johnston Road Hwy 4,Port Alberni,Walmart,250-720-0912,BC,7:00am,11:00pm,7:00am,11:00pm,7:00am,11:00pm,7:00am,11:00pm,7:00am,11:00pm,7:00am,11:00pm,7:00am,11:00pm,V9Y 8K1,-124.782,49.2661,,2013-09-16 12:34:03 UTC,2013-09-16 12:34:03 UTC
"3130,rue Laval",Lac-M,Walmart,819-583-2882,QC,8:00am,9:00pm,8:00am,9:00pm,8:00am,9:00pm,8:00am,9:00pm,8:00am,9:00pm,8:00am,5:00pm,8:00am,5:00pm,G6B 1A4,-70.9117,45.5932,,2013-09-16 12:34:03 UTC,2013-09-16 12:34:03 UTC
"400,rue Laverdure",Sainte-Agathe-des-Monts,Walmart,819-326-9559,QC,8:00am,9:00pm,8:00am,9:00pm,8:00am,9:00pm,8:00am,9:00pm,8:00am,9:00pm,8:00am,5:00pm,8:00am,5:00pm,J8C 0A2,-74.2727,46.0446,,2013-09-16 12:34:03 UTC,2013-09-16 12:34:03 UTC
1000 Navigator Rd,Winkler,Walmart,204-325-4141,MB,8:00am,10:00pm,8:00am,10:00pm,8:00am,10:00pm,8:00am,10:00pm,8:00am,10:00pm,8:00am,10:00pm,Closed,Closed,R6W 4B6,-97.9365,49.194,,2013-09-16 12:34:03 UTC,2013-09-16 12:34:03 UTC
1 Pine Drive,Parry Sound,Walmart,705-746-1573,ON,7:00am,10:00pm,7:00am,10:00pm,7:00am,10:00pm,7:00am,10:00pm,7:00am,10:00pm,7:00am,10:00pm,7:00am,10:00pm,P2A 2C3,-80.0102,45.3439,,2013-09-16 12:34:03 UTC,2013-09-16 12:34:03 UTC
"150,rue Piuze",Matane,Walmart,418-566-4779,QC,8:00am,9:00pm,8:00am,9:00pm,8:00am,9:00pm,8:00am,9:00pm,8:00am,9:00pm,8:00am,5:00pm,8:00am,5:00pm,G4W 4T2,-67.5639,48.8439,,2013-09-16 12:34:03 UTC,2013-09-16 12:34:03 UTC
272 McGettigan Blvd.,Marystown,Walmart,709-279-3022,NL,8:00am,10:00pm,8:00am,10:00pm,8:00am,10:00pm,8:00am,10:00pm,8:00am,10:00pm,8:00am,10:00pm,9:00am,7:00pm,A0E 2M0,-55.1481,47.1808,,2013-09-16 12:34:03 UTC,2013-09-16 12:34:03 UTC
1016 Manitoba Ave.,Selkirk,Walmart,204-785-1886,MB,8:00am,10:00pm,8:00am,10:00pm,8:00am,10:00pm,8:00am,10:00pm,8:00am,10:00pm,8:00am,10:00pm,9:00am,6:00pm,R1A 4M1,-96.8982,50.1561,,2013-09-16 12:34:03 UTC,2013-09-16 12:34:03 UTC
"1801 South Railway Ave,",Drumheller,Walmart,403-820-7744,AB,8:00am,9:00pm,8:00am,9:00pm,8:00am,9:00pm,8:00am,9:00pm,8:00am,9:00pm,8:00am,9:00pm,8:00am,9:00pm,T0J 0Y0,-112.682,51.4451,,2013-09-16 12:34:04 UTC,2013-09-16 12:34:04 UTC
1050 Hoover Park Drive,Stouffville,Walmart,905-640-8848,ON,8:00am,10:00pm,8:00am,10:00pm,8:00am,10:00pm,8:00am,10:00pm,8:00am,10:00pm,8:00am,10:00pm,8:00am,10:00pm,L4A 0K2,-79.2749,43.958,,2013-09-16 12:34:04 UTC,2013-09-16 12:34:04 UTC
601 - 1500 Main Street S. W.,Slave Lake,Walmart,780-849-9579,AB,8:00am,10:00pm,8:00am,10:00pm,8:00am,10:00pm,8:00am,10:00pm,8:00am,10:00pm,8:00am,10:00pm,8:00am,10:00pm,T0G 2A4,-114.78,55.2689,,2013-09-16 12:34:04 UTC,2013-09-16 12:34:04 UTC
450 Terminal Avenue,Ottawa,Walmart,613-562-0500,ON,7:00am,11:00pm,7:00am,11:00pm,7:00am,11:00pm,7:00am,11:00pm,7:00am,11:00pm,7:00am,11:00pm,7:00am,11:00pm,K1G 0Z3,-75.6512,45.4147,,2013-09-16 12:34:04 UTC,2013-09-16 12:34:04 UTC
"5205,boul. Robert-Bourassa Laval",Laval,Walmart,450-661-7447,QC,8:00am,9:00pm,8:00am,9:00pm,8:00am,9:00pm,8:00am,9:00pm,8:00am,9:00pm,8:00am,5:00pm,8:00am,5:00pm,H7E 0A3,-73.6986,45.6096,,2013-09-16 12:34:04 UTC,2013-09-16 12:34:04 UTC
805 Victoria St.,Edmundston,Walmart,506-735-3939,NB,8:00am,10:00pm,8:00am,10:00pm,8:00am,10:00pm,8:00am,10:00pm,8:00am,10:00pm,8:00am,10:00pm,9:00am,6:00pm,E3V 3T3,-68.3446,47.3945,,2013-09-16 12:34:04 UTC,2013-09-16 12:34:04 UTC
4721-70th Street,Stettler,Walmart,403-742-4404,AB,8:00am,9:00pm,8:00am,9:00pm,8:00am,9:00pm,8:00am,9:00pm,8:00am,9:00pm,8:00am,9:00pm,9:00am,9:00pm,T0C 2L1,-112.74,52.3217,,2013-09-16 12:34:04 UTC,2013-09-16 12:34:04 UTC
500 Vanier Ave.,Labrador City,Walmart,709-944-3378,NL,8:00am,10:00pm,8:00am,10:00pm,8:00am,10:00pm,8:00am,10:00pm,8:00am,10:00pm,8:00am,10:00pm,Closed,Closed,A2V 2W7,-66.9219,52.9483,,2013-09-16 12:34:04 UTC,2013-09-16 12:34:04 UTC
100 - 3900 Crawford Avenue,Merritt,Walmart,250-315-1366,BC,8:00am,9:00pm,8:00am,9:00pm,8:00am,9:00pm,8:00am,9:00pm,8:00am,9:00pm,8:00am,9:00pm,9:00am,7:00pm,V1K 0A4,-120.763,50.1219,,2013-09-16 12:34:04 UTC,2013-09-16 12:34:04 UTC
"150 Carroll Street East,RR 1",Strathroy,Walmart,519-245-7200,ON,8:00am,10:00pm,8:00am,10:00pm,8:00am,10:00pm,8:00am,10:00pm,8:00am,10:00pm,8:00am,9:00pm,8:00am,8:00pm,N7G 3H3,-81.6076,42.9493,,2013-09-16 12:34:04 UTC,2013-09-16 12:34:04 UTC
10 Cambridge Street,Collingwood,Walmart,705-445-9262,ON,7:00am,10:00pm,7:00am,10:00pm,7:00am,10:00pm,7:00am,10:00pm,7:00am,10:00pm,7:00am,10:00pm,7:00am,10:00pm,L9Y 0A1,-80.2378,44.5009,,2013-09-16 12:34:04 UTC,2013-09-16 12:34:04 UTC
"750,107e Rue",Saint-Georges-de-Beauce,Walmart,418-220-0101,QC,8:00am,9:00pm,8:00am,9:00pm,8:00am,9:00pm,8:00am,9:00pm,8:00am,9:00pm,8:00am,5:00pm,8:00am,5:00pm,G5Y 0A1,-70.6769,46.1314,,2013-09-16 12:34:04 UTC,2013-09-16 12:34:04 UTC
89 Jim Kimmett Blvd.,Napanee,Walmart,613-354-3100,ON,7:00am,10:00pm,7:00am,10:00pm,7:00am,10:00pm,7:00am,10:00pm,7:00am,10:00pm,7:00am,10:00pm,8:00am,8:00pm,K7R 3L1,-76.9614,44.2584,,2013-09-16 12:34:04 UTC,2013-09-16 12:34:04 UTC
2190 Rymal Road East,Hamilton,Walmart,905-692-7000,ON,7:00am,11:00pm,7:00am,11:00pm,7:00am,11:00pm,7:00am,11:00pm,7:00am,11:00pm,7:00am,11:00pm,7:00am,11:00pm,L0R 1P0,-79.7784,43.1696,,2013-09-16 12:34:04 UTC,2013-09-16 12:34:04 UTC
430 Connell Street,Woodstock,Walmart,506-324-8099,NB,8:00am,10:00pm,8:00am,10:00pm,8:00am,10:00pm,8:00am,10:00pm,8:00am,10:00pm,8:00am,10:00pm,12:00pm,5:00pm,E7M 5R5,-67.6048,46.173,,2013-09-16 12:34:04 UTC,2013-09-16 12:34:04 UTC
"700,rue de la Concorde",Saint-Romuald,Walmart,418-834-5115,QC,8:00am,9:00pm,8:00am,9:00pm,8:00am,9:00pm,8:00am,9:00pm,8:00am,9:00pm,8:00am,5:00pm,8:00am,5:00pm,G6W 8A8,-71.2738,46.7289,,2013-09-16 12:34:04 UTC,2013-09-16 12:34:04 UTC
4500 - 64th Street,Taber,Walmart,403-223-3458,AB,8:00am,10:00pm,8:00am,10:00pm,8:00am,10:00pm,8:00am,10:00pm,8:00am,10:00pm,8:00am,10:00pm,8:00am,10:00pm,T1G 0A4,-112.127,49.7831,,2013-09-16 12:34:04 UTC,2013-09-16 12:34:04 UTC
3000 Highway 43,Kemptville,Walmart,613-258-6295,ON,7:00am,10:00pm,7:00am,10:00pm,7:00am,10:00pm,7:00am,10:00pm,7:00am,10:00pm,7:00am,10:00pm,7:00am,10:00pm,K0G 1J0,-75.626,45.0254,,2013-09-16 12:34:04 UTC,2013-09-16 12:34:04 UTC
5750 - 2nd Avenue,Edson,Walmart,780-723-6357,AB,8:00am,10:00pm,8:00am,10:00pm,8:00am,10:00pm,8:00am,10:00pm,8:00am,10:00pm,8:00am,10:00pm,8:00am,10:00pm,T7E 0A1,-116.448,53.5763,,2013-09-16 12:34:04 UTC,2013-09-16 12:34:04 UTC
200 Ranch Market,Strathmore,Walmart,403-934-9776,AB,8:00am,10:00pm,8:00am,10:00pm,8:00am,10:00pm,8:00am,10:00pm,8:00am,10:00pm,8:00am,10:00pm,8:00am,10:00pm,T1P 0A8,-113.38,51.0382,,2013-09-16 12:34:05 UTC,2013-09-16 12:34:05 UTC
2881 Main Street SW,Airdrie,Walmart,403-945-1295,AB,6:00am,12:00am,6:00am,12:00am,6:00am,12:00am,6:00am,12:00am,6:00am,12:00am,6:00am,12:00am,6:00am,12:00am,T4B 3G5,-114.004,51.2627,,2013-09-16 12:34:05 UTC,2013-09-16 12:34:05 UTC
80 Main Street,Sussex,Walmart,506-432-1814,NB,8:00am,9:00pm,8:00am,9:00pm,8:00am,9:00pm,8:00am,9:00pm,8:00am,9:00pm,8:00am,9:00pm,12:00pm,5:00pm,E4E 1Y6,-65.5281,45.7249,,2013-09-16 12:34:05 UTC,2013-09-16 12:34:05 UTC
40 Depot Drive,Bracebridge,Walmart,705-646-0550,ON,7:00am,10:00pm,7:00am,10:00pm,7:00am,10:00pm,7:00am,10:00pm,7:00am,10:00pm,7:00am,10:00pm,7:00am,10:00pm,P1L 0A1,-79.2921,45.049,,2013-09-16 12:34:05 UTC,2013-09-16 12:34:05 UTC
680 Laval Drive,Oshawa,Walmart,905-438-1400,ON,7:00am,11:00pm,7:00am,11:00pm,7:00am,11:00pm,7:00am,11:00pm,7:00am,11:00pm,7:00am,11:00pm,7:00am,11:00pm,L1J 0B5,-78.8793,43.8776,,2013-09-16 12:34:05 UTC,2013-09-16 12:34:05 UTC
"3050,boul. de la Gare",Vaudreuil-Dorion,Walmart,450-510-3314,QC,8:00am,9:00pm,8:00am,9:00pm,8:00am,9:00pm,8:00am,9:00pm,8:00am,9:00pm,8:00am,5:00pm,8:00am,5:00pm,J7V 9J5,-74.0542,45.3982,,2013-09-16 12:34:05 UTC,2013-09-16 12:34:05 UTC
5122-Hwy 21,Port Elgin,Walmart,519-389-6150,ON,7:00am,10:00pm,7:00am,10:00pm,7:00am,10:00pm,7:00am,10:00pm,7:00am,10:00pm,7:00am,10:00pm,7:00am,10:00pm,N0H 2C0,-81.4166,44.4166,,2013-09-16 12:34:05 UTC,2013-09-16 12:34:05 UTC
3001 Richelieu St.,Rockland,Walmart,613-446-5730,ON,7:00am,10:00pm,7:00am,10:00pm,7:00am,10:00pm,7:00am,10:00pm,7:00am,10:00pm,7:00am,10:00pm,7:00am,6:00pm,K4K 0B5,-75.3055,45.5338,,2013-09-16 12:34:05 UTC,2013-09-16 12:34:05 UTC
800 Matheson Blvd. West,Mississauga,Walmart,905-817-9688,ON,7:00am,11:00pm,7:00am,11:00pm,7:00am,11:00pm,7:00am,11:00pm,7:00am,11:00pm,7:00am,11:00pm,7:00am,11:00pm,L5V 2N6,-79.6905,43.6079,,2013-09-16 12:34:05 UTC,2013-09-16 12:34:05 UTC
2901 - 13th Ave,Wainwright,Walmart,780-842-3144,AB,8:00am,10:00pm,8:00am,10:00pm,8:00am,10:00pm,8:00am,10:00pm,8:00am,10:00pm,8:00am,10:00pm,8:00am,10:00pm,T9W 0A1,-110.83,52.8426,,2013-09-16 12:34:05 UTC,2013-09-16 12:34:05 UTC
"60 McNaughton Avenue,Unit 16",Wallaceburg,Walmart,519-627-8840,ON,7:00am,9:00pm,7:00am,9:00pm,7:00am,9:00pm,7:00am,9:00pm,7:00am,9:00pm,7:00am,9:00pm,8:00am,6:00pm,N8A 1R9,-82.3838,42.5866,,2013-09-16 12:34:05 UTC,2013-09-16 12:34:05 UTC
710 - 11th Ave East,Kindersley,Walmart,306-463-1330,SK,8:00am,10:00pm,8:00am,10:00pm,8:00am,10:00pm,8:00am,10:00pm,8:00am,10:00pm,8:00am,10:00pm,8:00am,10:00pm,S0L 1S0,-109.144,51.4741,,2013-09-16 12:34:05 UTC,2013-09-16 12:34:05 UTC
125 Two Nations Crossing,Fredericton,Walmart,506-444-9186,NB,8:00am,10:00pm,8:00am,10:00pm,8:00am,10:00pm,8:00am,10:00pm,8:00am,10:00pm,8:00am,10:00pm,12:00pm,5:00pm,E3A 0T3,-66.627,45.986,,2013-09-16 12:34:05 UTC,2013-09-16 12:34:05 UTC
9701- 78th Street,Peace River,Walmart,780-624-8911,AB,8:00am,10:00pm,8:00am,10:00pm,8:00am,10:00pm,8:00am,10:00pm,8:00am,10:00pm,8:00am,10:00pm,8:00am,10:00pm,T8S 0A3,-117.339,56.2355,,2013-09-16 12:34:05 UTC,2013-09-16 12:34:05 UTC
1535 Highway 7A - Building A,Port Perry,Walmart,905-985-1531,ON,7:00am,10:00pm,7:00am,10:00pm,7:00am,10:00pm,7:00am,10:00pm,7:00am,10:00pm,7:00am,10:00pm,8:00am,8:00pm,L9L 1B5,-78.963,44.094,,2013-09-16 12:34:05 UTC,2013-09-16 12:34:05 UTC
1100 Table Mountain Road,Pincher Creek,Walmart,403-627-1790,AB,8:00am,10:00pm,8:00am,10:00pm,8:00am,10:00pm,8:00am,10:00pm,8:00am,10:00pm,8:00am,10:00pm,8:00am,10:00pm,T0K 1W0,-113.948,49.4984,,2013-09-16 12:34:05 UTC,2013-09-16 12:34:05 UTC
6809 Highway 16A West,Vegreville,Walmart,780-632-6016,AB,8:00am,10:00pm,8:00am,10:00pm,8:00am,10:00pm,8:00am,10:00pm,8:00am,10:00pm,8:00am,10:00pm,8:00am,10:00pm,T9C 0A2,-112.085,53.5059,,2013-09-16 12:34:05 UTC,2013-09-16 12:34:05 UTC
400 Sandwich St. South,Amherstburg,Walmart,519-736-5600,ON,7:00am,9:00pm,7:00am,9:00pm,7:00am,9:00pm,7:00am,9:00pm,7:00am,9:00pm,7:00am,9:00pm,8:00am,6:00pm,N9V 3L4,-83.1081,42.0972,,2013-09-16 12:34:05 UTC,2013-09-16 12:34:05 UTC
450 McNeely Avenue,Carleton Place,Walmart,613-253-1319,ON,7:00am,10:00pm,7:00am,10:00pm,7:00am,10:00pm,7:00am,10:00pm,7:00am,10:00pm,7:00am,10:00pm,7:00am,10:00pm,K7C 0A6,-76.1235,45.1361,,2013-09-16 12:34:05 UTC,2013-09-16 12:34:05 UTC
"1935,rue Sherbrooke",Magog,Walmart,819-868-0471,QC,8:00am,9:00pm,8:00am,9:00pm,8:00am,9:00pm,8:00am,9:00pm,8:00am,9:00pm,8:00am,5:00pm,8:00am,5:00pm,J1X 2T5,-72.1268,45.2799,,2013-09-16 12:34:06 UTC,2013-09-16 12:34:06 UTC
1477 Island Highway,Campbell River,Walmart,250-287-3631,BC,7:00am,11:00pm,7:00am,11:00pm,7:00am,11:00pm,7:00am,11:00pm,7:00am,11:00pm,7:00am,11:00pm,7:00am,11:00pm,V9W 8C9,-125.26,50.0329,,2013-09-16 12:34:06 UTC,2013-09-16 12:34:06 UTC
3195 - 26th Ave North,Lethbridge,Walmart,403-380-6722,AB,7:00am,11:00pm,7:00am,11:00pm,7:00am,11:00pm,7:00am,11:00pm,7:00am,11:00pm,7:00am,11:00pm,7:00am,11:00pm,T1H 5P4,-112.794,49.7272,,2013-09-16 12:34:06 UTC,2013-09-16 12:34:06 UTC
9455 Mississauga Rd,Brampton,Walmart,905-451-6307,ON,7:00am,11:00pm,7:00am,11:00pm,7:00am,11:00pm,7:00am,11:00pm,7:00am,11:00pm,7:00am,11:00pm,7:00am,11:00pm,L6X 0B3,-79.8148,43.6561,,2013-09-16 12:34:06 UTC,2013-09-16 12:34:06 UTC
5995 Steeles Avenue East,Scarborough,Walmart,416-298-1210,ON,8:00am,10:00pm,8:00am,10:00pm,8:00am,10:00pm,8:00am,10:00pm,8:00am,10:00pm,8:00am,10:00pm,8:00am,10:00pm,M1V 5P6,-79.2517,43.8365,,2013-09-16 12:34:06 UTC,2013-09-16 12:34:06 UTC
8300-Hwy 27,Woodbridge,Walmart,905-851-4648,ON,7:00am,11:00pm,7:00am,11:00pm,7:00am,11:00pm,7:00am,11:00pm,7:00am,11:00pm,7:00am,11:00pm,7:00am,11:00pm,L4H 0R9,-79.625,43.7864,,2013-09-16 12:34:06 UTC,2013-09-16 12:34:06 UTC
30 Dunham Drive,Alliston,Walmart,705-435-7100,ON,7:00am,10:00pm,7:00am,10:00pm,7:00am,10:00pm,7:00am,10:00pm,7:00am,10:00pm,7:00am,10:00pm,7:00am,10:00pm,L9R 0G1,-79.8232,44.1624,,2013-09-16 12:34:06 UTC,2013-09-16 12:34:06 UTC
"Unit 400-6900,46th Street",Olds,Walmart,403-556-3844,AB,8:00am,10:00pm,8:00am,10:00pm,8:00am,10:00pm,8:00am,10:00pm,8:00am,10:00pm,8:00am,10:00pm,8:00am,10:00pm,T4H 0A2,-114.137,51.796,,2013-09-16 12:34:06 UTC,2013-09-16 12:34:06 UTC
"1001,rue des Migrateurs",Lachenaie,Walmart,450-657-7407,QC,8:00am,9:00pm,8:00am,9:00pm,8:00am,9:00pm,8:00am,9:00pm,8:00am,9:00pm,8:00am,5:00pm,8:00am,5:00pm,J6V 0A8,-73.505,45.7141,,2013-09-16 12:34:06 UTC,2013-09-16 12:34:06 UTC
"51,boul. de la Gappe",Gatineau,Walmart,819-246-4633,QC,8:00am,9:00pm,8:00am,9:00pm,8:00am,9:00pm,8:00am,9:00pm,8:00am,9:00pm,8:00am,5:00pm,8:00am,5:00pm,J8T 0B5,-75.719,45.4635,,2013-09-16 12:34:06 UTC,2013-09-16 12:34:06 UTC
100 Stonebridge Blvd.,Wasaga Beach,Walmart,705-422-7100,ON,7:00am,10:00pm,7:00am,10:00pm,7:00am,10:00pm,7:00am,10:00pm,7:00am,10:00pm,7:00am,10:00pm,7:00am,10:00pm,L9Z 0C1,-80.0068,44.5249,,2013-09-16 12:34:06 UTC,2013-09-16 12:34:06 UTC
7979 - 11 St. SE,Calgary,Walmart,403-301-2051,AB,6:00am,12:00am,6:00am,12:00am,6:00am,12:00am,6:00am,12:00am,6:00am,12:00am,6:00am,12:00am,6:00am,12:00am,T2H 0B8,-114.043,50.9837,,2013-09-16 12:34:06 UTC,2013-09-16 12:34:06 UTC
2170 Louie Drive,Westbank,Walmart,250-768-2417,BC,7:00am,11:00pm,7:00am,11:00pm,7:00am,11:00pm,7:00am,11:00pm,7:00am,11:00pm,7:00am,11:00pm,7:00am,11:00pm,V4T 1Y2,-119.612,49.8404,,2013-09-16 12:34:06 UTC,2013-09-16 12:34:06 UTC
6110 Currents Dr. NW,Edmonton,Walmart,780-438-1190,AB,7:00am,11:00pm,7:00am,11:00pm,7:00am,11:00pm,7:00am,11:00pm,7:00am,11:00pm,7:00am,11:00pm,7:00am,11:00pm,T6W 0L7,-113.602,53.4373,,2013-09-16 12:34:06 UTC,2013-09-16 12:34:06 UTC
3600 Major Mackenzie Drive,Vaughan,Walmart,905-832-4060,ON,7:00am,11:00pm,7:00am,11:00pm,7:00am,11:00pm,7:00am,11:00pm,7:00am,11:00pm,7:00am,11:00pm,7:00am,11:00pm,L6A 1S1,-79.5542,43.8456,,2013-09-16 12:34:06 UTC,2013-09-16 12:34:06 UTC
545 Holland St. West,Bradford,Walmart,905-775-1610,ON,7:00am,10:00pm,7:00am,10:00pm,7:00am,10:00pm,7:00am,10:00pm,7:00am,10:00pm,7:00am,10:00pm,7:00am,10:00pm,L3Z 0C1,-79.5959,44.1073,,2013-09-16 12:34:06 UTC,2013-09-16 12:34:06 UTC
3420 - 47th Ave,Sylvan Lake,Walmart,403-887-7590,AB,8:00am,10:00pm,8:00am,10:00pm,8:00am,10:00pm,8:00am,10:00pm,8:00am,10:00pm,8:00am,10:00pm,8:00am,10:00pm,T4S 0B6,-114.074,52.3047,,2013-09-16 12:34:06 UTC,2013-09-16 12:34:06 UTC
3585 Grandview Highway,Vancouver,Walmart,604-435-6905,BC,7:00am,11:00pm,7:00am,11:00pm,7:00am,11:00pm,7:00am,11:00pm,7:00am,11:00pm,7:00am,11:00pm,7:00am,11:00pm,V5M 2G7,-123.027,49.2593,,2013-09-16 12:34:06 UTC,2013-09-16 12:34:06 UTC
2416 Long Lake Rd,Sudbury,Walmart,705-523-1300,ON,7:00am,10:00pm,7:00am,10:00pm,7:00am,10:00pm,7:00am,10:00pm,7:00am,10:00pm,7:00am,10:00pm,7:00am,6:00pm,P3E 5H5,-81.0054,46.4417,,2013-09-16 12:34:06 UTC,2013-09-16 12:34:06 UTC
1205 Prosperity Way,Williams Lake,Walmart,250-305-6868,BC,8:00am,10:00pm,8:00am,10:00pm,8:00am,10:00pm,8:00am,10:00pm,8:00am,10:00pm,8:00am,10:00pm,8:00am,10:00pm,V2G 0A5,-122.134,52.1147,,2013-09-16 12:34:07 UTC,2013-09-16 12:34:07 UTC
90 Dundas Street East,Waterdown,Walmart,905-690-7090,ON,7:00am,11:00pm,7:00am,11:00pm,7:00am,11:00pm,7:00am,11:00pm,7:00am,11:00pm,7:00am,11:00pm,7:00am,11:00pm,L0R 2H2,-79.9113,43.3176,,2013-09-16 12:34:07 UTC,2013-09-16 12:34:07 UTC
500 Copper Creek Drive,Markham,Walmart,905-472-9582,ON,8:00am,10:00pm,8:00am,10:00pm,8:00am,10:00pm,8:00am,10:00pm,8:00am,10:00pm,8:00am,10:00pm,8:00am,10:00pm,L6B 0S1,-79.2151,43.869,,2013-09-16 12:34:07 UTC,2013-09-16 12:34:07 UTC
1375 Baseline Rd,Ottawa,Walmart,613-224-2664,ON,7:00am,11:00pm,7:00am,11:00pm,7:00am,11:00pm,7:00am,11:00pm,7:00am,11:00pm,7:00am,11:00pm,7:00am,11:00pm,K2C 0A8,-75.7364,45.363,,2013-09-16 12:34:07 UTC,2013-09-16 12:34:07 UTC
100 The Boardwalk,Kitchener,Walmart,519-745-1800,ON,7:00am,11:00pm,7:00am,11:00pm,7:00am,11:00pm,7:00am,11:00pm,7:00am,11:00pm,7:00am,11:00pm,7:00am,11:00pm,N2N 0B1,,-80.5574,,2013-09-16 12:34:07 UTC,2013-09-16 12:34:07 UTC
2150 Hawkins Street,Port Coquitlam,Walmart,604-472-1225,BC,7:00am,11:00pm,7:00am,11:00pm,7:00am,11:00pm,7:00am,11:00pm,7:00am,11:00pm,7:00am,11:00pm,7:00am,11:00pm,V3B 0G6,-122.736,49.2532,,2013-09-16 12:34:07 UTC,2013-09-16 12:34:07 UTC
3122 Mt. Lehman Road,Abbotsford,Walmart,604-504-2080,BC,7:00am,11:00pm,7:00am,11:00pm,7:00am,11:00pm,7:00am,11:00pm,7:00am,11:00pm,7:00am,11:00pm,7:00am,11:00pm,V4X 0B3,-122.381,49.0584,,2013-09-16 12:34:07 UTC,2013-09-16 12:34:07 UTC
1900 Major Mackenzie Drive,Maple,Walmart,905-417-3766,ON,7:00am,11:00pm,7:00am,11:00pm,7:00am,11:00pm,7:00am,11:00pm,7:00am,11:00pm,7:00am,11:00pm,7:00am,11:00pm,L6A 4R9,-79.5012,43.858,,2013-09-16 12:34:07 UTC,2013-09-16 12:34:07 UTC
255 Silver Linden Drive Richmond Hill,Richmond Hill,Walmart,905-747-0628,ON,7:00am,11:00pm,7:00am,11:00pm,7:00am,11:00pm,7:00am,11:00pm,7:00am,11:00pm,7:00am,11:00pm,7:00am,11:00pm,L4B 4V5,-79.4144,43.8412,,2013-09-16 12:34:07 UTC,2013-09-16 12:34:07 UTC
3132 Eglington Avenue East Scarborough,East Scarborough,Walmart,416-265-2355,ON,7:00am,10:00pm,7:00am,10:00pm,7:00am,10:00pm,7:00am,10:00pm,7:00am,10:00pm,7:00am,10:00pm,7:00am,10:00pm,M1J 2H1,-79.2264,43.7421,,2013-09-16 12:34:07 UTC,2013-09-16 12:34:07 UTC
5357 Fernbank Road,Kanata,Walmart,613-831-2636,ON,7:00am,11:00pm,7:00am,11:00pm,7:00am,11:00pm,7:00am,11:00pm,7:00am,11:00pm,7:00am,11:00pm,7:00am,11:00pm,K2S 1B6,-75.8707,45.2738,,2013-09-16 12:34:07 UTC,2013-09-16 12:34:07 UTC
31956 Lougheed Hwy Mission,Mission,Walmart,604-820-0048,BC,7:00am,11:00pm,7:00am,11:00pm,7:00am,11:00pm,7:00am,11:00pm,7:00am,11:00pm,7:00am,11:00pm,7:00am,11:00pm,V2V 1A1,-122.339,49.132,,2013-09-16 12:34:07 UTC,2013-09-16 12:34:07 UTC
1115 Barton Street E.,Hamilton,Walmart,905-548-6680,ON,7:00am,11:00pm,7:00am,11:00pm,7:00am,11:00pm,7:00am,11:00pm,7:00am,11:00pm,7:00am,11:00pm,7:00am,11:00pm,L8H 2V2,-79.815,43.2512,,2013-09-16 12:34:07 UTC,2013-09-16 12:34:07 UTC
16940 -127th Street North West Edmonton,North West Edmonton,Walmart,780-457-4366,AB,7:00am,11:00pm,7:00am,11:00pm,7:00am,11:00pm,7:00am,11:00pm,7:00am,11:00pm,7:00am,11:00pm,7:00am,11:00pm,T6V 1S8,-113.545,53.6242,,2013-09-16 12:34:07 UTC,2013-09-16 12:34:07 UTC
400 - 7000 Emerald Drive Sherwood Park,Sherwood Park,Walmart,780-464-0318,AB,7:00am,11:00pm,7:00am,11:00pm,7:00am,11:00pm,7:00am,11:00pm,7:00am,11:00pm,7:00am,11:00pm,7:00am,11:00pm,T8H 0P5,-113.298,53.5565,,2013-09-16 12:34:07 UTC,2013-09-16 12:34:07 UTC
1500 Dundas Street East Mississauga,East Mississauga,Walmart,905-615-1018,ON,7:00am,11:00pm,7:00am,11:00pm,7:00am,11:00pm,7:00am,11:00pm,7:00am,11:00pm,7:00am,11:00pm,7:00am,11:00pm,L4X 1L4,-79.5803,43.6126,,2013-09-16 12:34:08 UTC,2013-09-16 12:34:08 UTC
801 St. David Street N.,Fergus,Walmart,519-843-1591,ON,7:00am,11:00pm,7:00am,11:00pm,7:00am,11:00pm,7:00am,11:00pm,7:00am,11:00pm,7:00am,11:00pm,7:00am,11:00pm,N1M 2L1,-80.39,43.7132,,2013-09-16 12:34:08 UTC,2013-09-16 12:34:08 UTC
"250,boul. Brisebois Ch",Ch,Walmart,450-699-3435,QC,8:00am,9:00pm,8:00am,9:00pm,8:00am,9:00pm,8:00am,9:00pm,8:00am,9:00pm,8:00am,5:00pm,8:00am,5:00pm,J6K 4W8,-73.7651,45.3447,,2013-09-16 12:34:08 UTC,2013-09-16 12:34:08 UTC
7333 Goreway Dr Westwood Mall,Malton,Walmart,905-612-8076,ON,7:00am,11:00pm,7:00am,11:00pm,7:00am,11:00pm,7:00am,11:00pm,7:00am,11:00pm,7:00am,11:00pm,7:00am,11:00pm,L4T 2T8,-79.6399,43.721,,2013-09-16 12:34:08 UTC,2013-09-16 12:34:08 UTC
"400,avenue Dorval",Dorval,Walmart,514-636-1145,QC,8:00am,9:00pm,8:00am,9:00pm,8:00am,9:00pm,8:00am,9:00pm,8:00am,9:00pm,8:00am,5:00pm,8:00am,5:00pm,H9S 3H7,-73.7412,45.4452,,2013-09-16 12:34:08 UTC,2013-09-16 12:34:08 UTC
184 Highway 12 North,Steinbach,Walmart,204-346-9717,MB,8:00am,10:00pm,8:00am,10:00pm,8:00am,10:00pm,8:00am,10:00pm,8:00am,10:00pm,8:00am,10:00pm,Closed,Closed,R5G 0Y1,-96.6885,49.5414,,2013-09-16 12:34:08 UTC,2013-09-16 12:34:08 UTC
500-2nd Avenue West,Prince Rupert,Walmart,250-624-8686,BC,8:00am,9:00pm,8:00am,9:00pm,8:00am,9:00pm,8:00am,9:00pm,8:00am,9:00pm,8:00am,9:00pm,9:00am,6:00pm,V8J 3T6,-130.327,54.3127,,2013-09-16 12:34:08 UTC,2013-09-16 12:34:08 UTC
1221 Canyon Meadows Drive SE,Calgary,Walmart,403-225-6638,AB,6:00am,12:00am,6:00am,12:00am,6:00am,12:00am,6:00am,12:00am,6:00am,12:00am,6:00am,12:00am,6:00am,12:00am,T2J 6G2,-114.031,50.9311,,2013-09-16 12:34:08 UTC,2013-09-16 12:34:08 UTC
3931 Calgary Trail NW,Edmonton,Walmart,780-437-7468,AB,8:00am,10:00pm,8:00am,10:00pm,8:00am,10:00pm,8:00am,10:00pm,8:00am,10:00pm,8:00am,10:00pm,8:00am,10:00pm,T6J 5M8,-113.496,53.4734,,2013-09-16 12:34:08 UTC,2013-09-16 12:34:08 UTC
9402-135th Avenue North West,Edmonton,Walmart,780-406-8807,AB,8:00am,10:00pm,8:00am,10:00pm,8:00am,10:00pm,8:00am,10:00pm,8:00am,10:00pm,8:00am,10:00pm,8:00am,10:00pm,T5E 5R8,-113.487,53.5972,,2013-09-16 12:34:08 UTC,2013-09-16 12:34:08 UTC
1 Westmount Shopping Centre NW,Edmonton,Walmart,780-453-5801,AB,8:00am,10:00pm,8:00am,10:00pm,8:00am,10:00pm,8:00am,10:00pm,8:00am,10:00pm,8:00am,10:00pm,8:00am,10:00pm,T5M 3L7,-113.573,53.5604,,2013-09-16 12:34:08 UTC,2013-09-16 12:34:08 UTC
100 Meadowlark Shopping Centre NW Suite 100,Edmonton,Walmart,780-483-4522,AB,8:00am,10:00pm,8:00am,10:00pm,8:00am,10:00pm,8:00am,10:00pm,8:00am,10:00pm,8:00am,10:00pm,8:00am,10:00pm,T5R 5X1,-113.594,53.5208,,2013-09-16 12:34:08 UTC,2013-09-16 12:34:08 UTC
2202 Jane Street,Toronto,Walmart,416-243-2363,ON,7:00am,10:00pm,7:00am,10:00pm,7:00am,10:00pm,7:00am,10:00pm,7:00am,10:00pm,7:00am,10:00pm,7:00am,9:00pm,M3M 1A4,-79.5129,43.7201,,2013-09-16 12:34:08 UTC,2013-09-16 12:34:08 UTC
3487 Lawrence Avenue East,Scarborough,Walmart,416-289-4067,ON,7:00am,10:00pm,7:00am,10:00pm,7:00am,10:00pm,7:00am,10:00pm,7:00am,10:00pm,7:00am,10:00pm,7:00am,10:00pm,M1H 1B2,-79.2265,43.7582,,2013-09-16 12:34:08 UTC,2013-09-16 12:34:08 UTC
499 Mohawk Rd. E.,Hamilton,Walmart,905-574-5804,ON,8:00am,9:00pm,8:00am,9:00pm,8:00am,9:00pm,8:00am,9:00pm,8:00am,9:00pm,8:00am,9:00pm,8:00am,9:00pm,L8V 4L7,-79.8531,43.2216,,2013-09-16 12:34:08 UTC,2013-09-16 12:34:08 UTC
1005 Ottawa Street North,Kitchener,Walmart,519-748-2118,ON,8:00am,10:00pm,8:00am,10:00pm,8:00am,10:00pm,8:00am,10:00pm,8:00am,10:00pm,8:00am,10:00pm,8:00am,9:00pm,N2A 1H2,-80.4477,43.4505,,2013-09-16 12:34:08 UTC,2013-09-16 12:34:08 UTC
70 Bridgeport Road East,Waterloo,Walmart,519-746-1378,ON,7:00am,11:00pm,7:00am,11:00pm,7:00am,11:00pm,7:00am,11:00pm,7:00am,11:00pm,7:00am,11:00pm,7:00am,11:00pm,N2J 2J9,-80.5151,43.4692,,2013-09-16 12:34:08 UTC,2013-09-16 12:34:08 UTC
1275 Highbury Avenue N.,London,Walmart,519-452-7814,ON,8:00am,10:00pm,8:00am,10:00pm,8:00am,10:00pm,8:00am,10:00pm,8:00am,10:00pm,8:00am,10:00pm,8:00am,9:00pm,N5Y 1A8,-81.2151,43.019,,2013-09-16 12:34:08 UTC,2013-09-16 12:34:08 UTC
1980 Ogilvie Road,Ottawa,Walmart,613-842-0111,ON,7:00am,11:00pm,7:00am,11:00pm,7:00am,11:00pm,7:00am,11:00pm,7:00am,11:00pm,7:00am,11:00pm,7:00am,11:00pm,K1J 9L3,-75.6103,45.4318,,2013-09-16 12:34:08 UTC,2013-09-16 12:34:08 UTC
1550 Cameron St.,Hawkesbury,Walmart,613-632-3455,ON,8:00am,10:00pm,8:00am,10:00pm,8:00am,10:00pm,8:00am,10:00pm,8:00am,10:00pm,8:00am,6:00pm,8:00am,6:00pm,K6A 3S5,-74.6,45.5932,,2013-09-16 12:34:08 UTC,2013-09-16 12:34:08 UTC
600 Mitchell Road S.,Listowel,Walmart,519-291-9117,ON,7:00am,11:00pm,7:00am,11:00pm,7:00am,11:00pm,7:00am,11:00pm,7:00am,11:00pm,7:00am,11:00pm,8:00am,10:00pm,N4W 3T1,-80.9775,43.7206,,2013-09-16 12:34:09 UTC,2013-09-16 12:34:09 UTC
1111 Davis Drive,Newmarket,Walmart,905-830-9243,ON,8:00am,10:00pm,8:00am,10:00pm,8:00am,10:00pm,8:00am,10:00pm,8:00am,10:00pm,8:00am,10:00pm,8:00am,10:00pm,L3Y 8X2,-79.4299,44.0663,,2013-09-16 12:34:09 UTC,2013-09-16 12:34:09 UTC
950 Lansdowne Street West,Peterborough,Walmart,705-876-9617,ON,7:00am,11:00pm,7:00am,11:00pm,7:00am,11:00pm,7:00am,11:00pm,7:00am,11:00pm,7:00am,11:00pm,7:00am,11:00pm,K9J 1Z9,-78.3442,44.285,,2013-09-16 12:34:09 UTC,2013-09-16 12:34:09 UTC
293 Bay Street,Sault-Ste-Marie,Walmart,705-254-1962,ON,7:00am,10:00pm,7:00am,10:00pm,7:00am,10:00pm,7:00am,10:00pm,7:00am,10:00pm,7:00am,10:00pm,7:00am,10:00pm,P6A 1X3,-84.3361,46.512,,2013-09-16 12:34:09 UTC,2013-09-16 12:34:09 UTC
285 Geneva Street,St Catharines,Walmart,905-646-4566,ON,7:00am,11:00pm,7:00am,11:00pm,7:00am,11:00pm,7:00am,11:00pm,7:00am,11:00pm,7:00am,11:00pm,7:00am,11:00pm,L2N 2G1,-79.2409,43.1773,,2013-09-16 12:34:09 UTC,2013-09-16 12:34:09 UTC
1101 Arthur Street West,Thunder Bay,Walmart,807-473-8035,ON,7:00am,10:00pm,7:00am,10:00pm,7:00am,10:00pm,7:00am,10:00pm,7:00am,10:00pm,7:00am,10:00pm,7:00am,10:00pm,P7E 5S2,-89.306,48.3808,,2013-09-16 12:34:09 UTC,2013-09-16 12:34:09 UTC
1020 Dawson Road,Thunder Bay,Walmart,807-345-8490,ON,7:00am,10:00pm,7:00am,10:00pm,7:00am,10:00pm,7:00am,10:00pm,7:00am,10:00pm,7:00am,10:00pm,7:00am,10:00pm,P7B 1K6,-89.2563,48.4525,,2013-09-16 12:34:09 UTC,2013-09-16 12:34:09 UTC
"2877,chemin de Chambly",Longueuil,Walmart,450-670-5335,QC,8:00am,9:00pm,8:00am,9:00pm,8:00am,9:00pm,8:00am,9:00pm,8:00am,9:00pm,8:00am,5:00pm,8:00am,5:00pm,J4L 1M8,-73.4614,45.521,,2013-09-16 12:34:09 UTC,2013-09-16 12:34:09 UTC
"3121,avenue de Granby",Montr,Walmart,514-255-7676,QC,8:00am,9:00pm,8:00am,9:00pm,8:00am,9:00pm,8:00am,9:00pm,8:00am,9:00pm,8:00am,5:00pm,8:00am,5:00pm,H1N 2Z7,-73.5409,45.5802,,2013-09-16 12:34:09 UTC,2013-09-16 12:34:09 UTC
"12 675,rue Sherbrooke S.",Pointe-aux-Trembles,Walmart,514-642-4441,QC,8:00am,9:00pm,8:00am,9:00pm,8:00am,9:00pm,8:00am,9:00pm,8:00am,9:00pm,8:00am,5:00pm,8:00am,5:00pm,H1A 3W7,-73.5125,45.6552,,2013-09-16 12:34:09 UTC,2013-09-16 12:34:09 UTC
"6700,chemin de la C",Montr,Walmart,514-737-1661,QC,8:00am,9:00pm,8:00am,9:00pm,8:00am,9:00pm,8:00am,9:00pm,8:00am,9:00pm,8:00am,5:00pm,8:00am,5:00pm,H3S 2B2,-73.6371,45.503,,2013-09-16 12:34:09 UTC,2013-09-16 12:34:09 UTC
"101,boul. Cardinal-L",Pincourt,Walmart,514-453-5868,QC,8:00am,9:00pm,8:00am,9:00pm,8:00am,9:00pm,8:00am,9:00pm,8:00am,9:00pm,8:00am,5:00pm,8:00am,5:00pm,J7V 3Y3,-73.9932,45.3849,,2013-09-16 12:34:09 UTC,2013-09-16 12:34:09 UTC
"940,13e Avenue Nord",Sherbrooke,Walmart,819-346-2626,QC,8:00am,9:00pm,8:00am,9:00pm,8:00am,9:00pm,8:00am,9:00pm,8:00am,9:00pm,8:00am,5:00pm,8:00am,5:00pm,J1E 3J7,-71.8729,45.4222,,2013-09-16 12:34:09 UTC,2013-09-16 12:34:09 UTC
"450,boul. Poliquin",Sorel-Tracy,Walmart,450-743-2992,QC,8:00am,9:00pm,8:00am,9:00pm,8:00am,9:00pm,8:00am,9:00pm,8:00am,9:00pm,8:00am,5:00pm,8:00am,5:00pm,J3P 7R5,-73.1034,46.0233,,2013-09-16 12:34:09 UTC,2013-09-16 12:34:09 UTC
621 Fairville Blvd.,Saint John,Walmart,506-693-1668,NB,8:00am,10:00pm,8:00am,10:00pm,8:00am,10:00pm,8:00am,10:00pm,8:00am,10:00pm,8:00am,10:00pm,12:00pm,5:00pm,E2M 4X5,-66.0928,45.2564,,2013-09-16 12:34:09 UTC,2013-09-16 12:34:09 UTC
900 Cole Harbour Rd.,Dartmouth,Walmart,902-462-6236,NS,8:00am,10:00pm,8:00am,10:00pm,8:00am,10:00pm,8:00am,10:00pm,8:00am,10:00pm,8:00am,10:00pm,10:00am,8:00pm,B2V 2J5,-63.5005,44.671,,2013-09-16 12:34:09 UTC,2013-09-16 12:34:09 UTC
1065 Central Avenue,Greenwood,Walmart,,NS,8:00am,10:00pm,8:00am,10:00pm,8:00am,10:00pm,8:00am,10:00pm,8:00am,10:00pm,8:00am,10:00pm,10:00am,8:00pm,B0P 1N0,-64.9218,44.9662,,2013-09-16 12:34:09 UTC,2013-09-16 12:34:09 UTC
116 King St.,North Sydney,Walmart,902-794-6021,NS,8:00am,10:00pm,8:00am,10:00pm,8:00am,10:00pm,8:00am,10:00pm,8:00am,10:00pm,8:00am,10:00pm,10:00am,8:00pm,B2A 3R7,-60.2649,46.2154,,2013-09-16 12:34:09 UTC,2013-09-16 12:34:09 UTC
470 Topsail Road,St. John's,Walmart,709-368-9903,NL,7:00am,11:00pm,7:00am,11:00pm,7:00am,11:00pm,7:00am,11:00pm,7:00am,11:00pm,7:00am,11:00pm,7:00am,11:00pm,A1E 2C3,-52.7517,47.5328,,2013-09-16 12:34:09 UTC,2013-09-16 12:34:09 UTC
3850 Sheppard Ave. East Agincourt Mall,Agincourt,Walmart,416-291-4100,ON,7:00am,11:00pm,7:00am,11:00pm,7:00am,11:00pm,7:00am,11:00pm,7:00am,11:00pm,7:00am,11:00pm,7:00am,11:00pm,M1T 3L4,-79.2923,43.7824,,2013-09-16 12:34:09 UTC,2013-09-16 12:34:09 UTC
270 Kingston Road East R.R. #1,Ajax,Walmart,905-426-6160,ON,7:00am,11:00pm,7:00am,11:00pm,7:00am,11:00pm,7:00am,11:00pm,7:00am,11:00pm,7:00am,11:00pm,7:00am,11:00pm,L1S 4S7,-79.02,43.8632,,2013-09-16 12:34:09 UTC,2013-09-16 12:34:09 UTC
"630,boul. Lafl",Baie-Comeau,Walmart,418-589-9971,QC,8:00am,9:00pm,8:00am,9:00pm,8:00am,9:00pm,8:00am,9:00pm,8:00am,9:00pm,8:00am,5:00pm,8:00am,5:00pm,G5C 2Y3,-68.2571,49.2002,,2013-09-16 12:34:10 UTC,2013-09-16 12:34:10 UTC
900 St. Anne Street,Bathurst,Walmart,506-546-0500,NB,8:00am,10:00pm,8:00am,10:00pm,8:00am,10:00pm,8:00am,10:00pm,8:00am,10:00pm,8:00am,10:00pm,8:00am,6:00pm,E2A 6X2,-65.6873,47.6264,,2013-09-16 12:34:10 UTC,2013-09-16 12:34:10 UTC
903-18TH Street North,Brandon,Walmart,204-726-5821,MB,7:00am,10:00pm,7:00am,10:00pm,7:00am,10:00pm,7:00am,10:00pm,7:00am,10:00pm,7:00am,10:00pm,9:00am,6:00pm,R7A 7S1,-99.9618,49.8655,,2013-09-16 12:34:10 UTC,2013-09-16 12:34:10 UTC
1 - 300 King Georges Rd. 24 Hwy.,Brantford,Walmart,519-759-3450,ON,7:00am,11:00pm,7:00am,11:00pm,7:00am,11:00pm,7:00am,11:00pm,7:00am,11:00pm,7:00am,11:00pm,7:00am,11:00pm,N3R 5L7,-80.2812,43.1821,,2013-09-16 12:34:10 UTC,2013-09-16 12:34:10 UTC
1942 Parkdale Avenue,Brockville,Walmart,613-342-9293,ON,7:00am,11:00pm,7:00am,11:00pm,7:00am,11:00pm,7:00am,11:00pm,7:00am,11:00pm,7:00am,11:00pm,7:00am,11:00pm,K6V 3G9,-75.6855,44.6138,,2013-09-16 12:34:10 UTC,2013-09-16 12:34:10 UTC
"9000,boul. Leduc",Brossard,Walmart,450-672-5000,QC,8:00am,9:00pm,8:00am,9:00pm,8:00am,9:00pm,8:00am,9:00pm,8:00am,9:00pm,8:00am,5:00pm,8:00am,5:00pm,J4Y 0E6,-73.4408,45.4471,,2013-09-16 12:34:10 UTC,2013-09-16 12:34:10 UTC
9855 Austin Ave. Suite 300 Lougheed Mall,Burnaby,Walmart,604-421-0661,BC,7:00am,11:00pm,7:00am,11:00pm,7:00am,11:00pm,7:00am,11:00pm,7:00am,11:00pm,7:00am,11:00pm,7:00am,11:00pm,V3J 1N5,-122.896,49.249,,2013-09-16 12:34:10 UTC,2013-09-16 12:34:10 UTC
1212 - 37th St. SW,Calgary,Walmart,403-242-2205,AB,6:00am,12:00am,6:00am,12:00am,6:00am,12:00am,6:00am,12:00am,6:00am,12:00am,6:00am,12:00am,6:00am,12:00am,T3C 1S3,-114.141,51.0412,,2013-09-16 12:34:10 UTC,2013-09-16 12:34:10 UTC
9650 Macleod Trail Macleod Mall,Calgary,Walmart,403-258-3988,AB,6:00am,12:00am,6:00am,12:00am,6:00am,12:00am,6:00am,12:00am,6:00am,12:00am,6:00am,12:00am,6:00am,12:00am,T2J 0P7,-114.071,50.9671,,2013-09-16 12:34:10 UTC,2013-09-16 12:34:10 UTC
5005 Northland Drive NW. Northland Village Shopping Centre,Calgary,Walmart,403-247-8585,AB,6:00am,12:00am,6:00am,12:00am,6:00am,12:00am,6:00am,12:00am,6:00am,12:00am,6:00am,12:00am,6:00am,12:00am,T2L 2K1,-114.141,51.0971,,2013-09-16 12:34:10 UTC,2013-09-16 12:34:10 UTC
"3800 Memorial Drive NE,Unit 1100 Malborough Mall",Calgary,Walmart,403-235-2352,AB,6:00am,12:00am,6:00am,12:00am,6:00am,12:00am,6:00am,12:00am,6:00am,12:00am,6:00am,12:00am,6:00am,12:00am,T2A 2K2,-113.98,51.0525,,2013-09-16 12:34:10 UTC,2013-09-16 12:34:10 UTC
1110 - 57th Avenue NE,Calgary,Walmart,403-730-0990,AB,6:00am,12:00am,6:00am,12:00am,6:00am,12:00am,6:00am,12:00am,6:00am,12:00am,6:00am,12:00am,6:00am,12:00am,T2E 9B7,-114.038,51.1062,,2013-09-16 12:34:10 UTC,2013-09-16 12:34:10 UTC
"300,rue Barkoff Galeries du Cap",Cap-de-la-Madeleine,Walmart,819-379-2992,QC,8:00am,9:00pm,8:00am,9:00pm,8:00am,9:00pm,8:00am,9:00pm,8:00am,9:00pm,8:00am,5:00pm,8:00am,5:00pm,G8T 2A3,-72.5545,46.3667,,2013-09-16 12:34:10 UTC,2013-09-16 12:34:10 UTC
120 Columbus Drive Conception Square,Carbonear,Walmart,709-596-5009,NL,8:00am,10:00pm,8:00am,10:00pm,8:00am,10:00pm,8:00am,10:00pm,8:00am,10:00pm,8:00am,10:00pm,8:00am,10:00pm,A1Y 1B3,-53.2454,47.7264,,2013-09-16 12:34:10 UTC,2013-09-16 12:34:10 UTC
881 St. Clair Street,Chatham,Walmart,519-352-1142,ON,7:00am,10:00pm,7:00am,10:00pm,7:00am,10:00pm,7:00am,10:00pm,7:00am,10:00pm,7:00am,10:00pm,7:00am,10:00pm,N7M 5J7,-82.2223,42.4331,,2013-09-16 12:34:10 UTC,2013-09-16 12:34:10 UTC
"1451,boul. Talbot Place du Royaume",Chicoutimi,Walmart,418-693-1500,QC,8:00am,9:00pm,8:00am,9:00pm,8:00am,9:00pm,8:00am,9:00pm,8:00am,9:00pm,8:00am,5:00pm,8:00am,5:00pm,G7H 4C1,-71.0588,48.404,,2013-09-16 12:34:10 UTC,2013-09-16 12:34:10 UTC
11 Shoal Harbour Drive,Clarenville,Walmart,709-466-3014,NL,8:00am,10:00pm,8:00am,10:00pm,8:00am,10:00pm,8:00am,10:00pm,8:00am,10:00pm,8:00am,10:00pm,10:00am,6:00pm,A5A 2C3,-53.9871,48.1678,,2013-09-16 12:34:10 UTC,2013-09-16 12:34:10 UTC
1812 Vedder Way,Abbotsford,Walmart,604-854-3575,BC,7:00am,11:00pm,7:00am,11:00pm,7:00am,11:00pm,7:00am,11:00pm,7:00am,11:00pm,7:00am,11:00pm,7:00am,11:00pm,V2S 8K1,-122.271,49.0343,,2013-09-16 12:34:10 UTC,2013-09-16 12:34:10 UTC
950 Brookdale Ave. Unit #20,Cornwall,Walmart,613-933-8366,ON,7:00am,11:00pm,7:00am,11:00pm,7:00am,11:00pm,7:00am,11:00pm,7:00am,11:00pm,7:00am,11:00pm,7:00am,11:00pm,K6J 4P5,-74.7497,45.0247,,2013-09-16 12:34:10 UTC,2013-09-16 12:34:10 UTC
90 Lamont Terrace,Dartmouth,Walmart,902-461-4474,NS,7:00am,11:00pm,7:00am,11:00pm,7:00am,11:00pm,7:00am,11:00pm,7:00am,11:00pm,7:00am,11:00pm,10:00am,10:00pm,B3B 0B5,-63.5673,44.6987,,2013-09-16 12:34:10 UTC,2013-09-16 12:34:10 UTC
1450 Main St. South,Dauphin,Walmart,204-638-4808,MB,8:00am,10:00pm,8:00am,10:00pm,8:00am,10:00pm,8:00am,10:00pm,8:00am,10:00pm,8:00am,10:00pm,9:00am,6:00pm,R7N 3H4,-100.063,51.1371,,2013-09-16 12:34:10 UTC,2013-09-16 12:34:10 UTC
"1205,boul. Ren",Drummondville,Walmart,819-472-6313,QC,8:00am,9:00pm,8:00am,9:00pm,8:00am,9:00pm,8:00am,9:00pm,8:00am,9:00pm,8:00am,5:00pm,8:00am,5:00pm,J2C 7V4,-72.5184,45.8967,,2013-09-16 12:34:11 UTC,2013-09-16 12:34:11 UTC
Hwy 17 East,Dryden,Walmart,807-223-7190,ON,8:00am,10:00pm,8:00am,10:00pm,8:00am,10:00pm,8:00am,10:00pm,8:00am,10:00pm,8:00am,10:00pm,8:00am,8:00pm,P8N 2Y6,-92.8144,49.7824,,2013-09-16 12:34:11 UTC,2013-09-16 12:34:11 UTC
3020 Drinkwater Road,Duncan,Walmart,250-748-2566,BC,6:00am,12:00am,6:00am,12:00am,6:00am,12:00am,6:00am,12:00am,6:00am,12:00am,6:00am,12:00am,6:00am,12:00am,V9L 6C6,-123.721,48.8031,,2013-09-16 12:34:11 UTC,2013-09-16 12:34:11 UTC
1- 5004 98 AVE. NW,Edmonton,Walmart,780-466-2002,AB,7:00am,11:00pm,7:00am,11:00pm,7:00am,11:00pm,7:00am,11:00pm,7:00am,11:00pm,7:00am,11:00pm,7:00am,11:00pm,T6A 0A2,-113.42,53.538,,2013-09-16 12:34:11 UTC,2013-09-16 12:34:11 UTC
18521 Stony Plain Rd. NW,Edmonton,Walmart,780-487-8626,AB,7:00am,12:00am,7:00am,12:00am,7:00am,12:00am,7:00am,12:00am,7:00am,12:00am,7:00am,12:00am,7:00am,12:00am,T5S 2V9,-113.642,53.5413,,2013-09-16 12:34:11 UTC,2013-09-16 12:34:11 UTC
13703 - 40th St. NW,Edmonton,Walmart,780-476-4460,AB,7:00am,11:00pm,7:00am,11:00pm,7:00am,11:00pm,7:00am,11:00pm,7:00am,11:00pm,7:00am,11:00pm,7:00am,11:00pm,T5Y 3B5,-113.403,53.5987,,2013-09-16 12:34:11 UTC,2013-09-16 12:34:11 UTC
1203 Parsons Road N.W.,Edmonton,Walmart,780-463-6030,AB,7:00am,12:00am,7:00am,12:00am,7:00am,12:00am,7:00am,12:00am,7:00am,12:00am,7:00am,12:00am,7:00am,12:00am,T6N 0A9,-113.481,53.4405,,2013-09-16 12:34:11 UTC,2013-09-16 12:34:11 UTC
413 Kensington Ave.,Estevan,Walmart,306-634-2110,SK,8:00am,10:00pm,8:00am,10:00pm,8:00am,10:00pm,8:00am,10:00pm,8:00am,10:00pm,8:00am,10:00pm,8:00am,10:00pm,S4A 2A5,-102.969,49.1428,,2013-09-16 12:34:11 UTC,2013-09-16 12:34:11 UTC
165 North Queen Street,Etobicoke,Walmart,416-239-7090,ON,7:00am,11:00pm,7:00am,11:00pm,7:00am,11:00pm,7:00am,11:00pm,7:00am,11:00pm,7:00am,11:00pm,7:00am,11:00pm,M9C 1A7,-79.5575,43.6184,,2013-09-16 12:34:11 UTC,2013-09-16 12:34:11 UTC
1399 Regent Street Regent Mall,Fredericton,Walmart,506-452-1511,NB,8:00am,10:00pm,8:00am,10:00pm,8:00am,10:00pm,8:00am,10:00pm,8:00am,10:00pm,8:00am,10:00pm,12:00pm,5:00pm,E3C 1A3,-66.6633,45.9326,,2013-09-16 12:34:11 UTC,2013-09-16 12:34:11 UTC
55 Roe Avenue,Gander,Walmart,709-256-7581,NL,8:00am,10:00pm,8:00am,10:00pm,8:00am,10:00pm,8:00am,10:00pm,8:00am,10:00pm,8:00am,10:00pm,8:00am,10:00pm,A1V 1W8,-54.5897,48.9584,,2013-09-16 12:34:11 UTC,2013-09-16 12:34:11 UTC
300 Guelph Street Georgetown Market Place,Georgetown,Walmart,905-873-0400,ON,7:00am,10:00pm,7:00am,10:00pm,7:00am,10:00pm,7:00am,10:00pm,7:00am,10:00pm,7:00am,10:00pm,7:00am,8:00pm,L7G 4B1,-79.8944,43.6498,,2013-09-16 12:34:11 UTC,2013-09-16 12:34:11 UTC
"75,rue Simonds Nord Galeries de Granby",Granby,Walmart,450-777-8863,QC,8:00am,9:00pm,8:00am,9:00pm,8:00am,9:00pm,8:00am,9:00pm,8:00am,9:00pm,8:00am,5:00pm,8:00am,5:00pm,J2J 2S3,-72.7537,45.4169,,2013-09-16 12:34:11 UTC,2013-09-16 12:34:11 UTC
19 Cromer Ave. Exploits Valley Mall,Grand Falls-Windsor,Walmart,709-489-5739,NL,8:00am,10:00pm,8:00am,10:00pm,8:00am,10:00pm,8:00am,10:00pm,8:00am,10:00pm,8:00am,10:00pm,9:00am,7:00pm,A2A 1X3,-55.6541,48.9464,,2013-09-16 12:34:11 UTC,2013-09-16 12:34:11 UTC
675 Upper James St.,Hamilton,Walmart,905-389-6333,ON,7:00am,11:00pm,7:00am,11:00pm,7:00am,11:00pm,7:00am,11:00pm,7:00am,11:00pm,7:00am,11:00pm,7:00am,11:00pm,L9C 2Z5,-79.8789,43.2351,,2013-09-16 12:34:11 UTC,2013-09-16 12:34:11 UTC
100-900 Carmichael Lane Parks West Mall,Hinton,Walmart,780-865-1421,AB,8:00am,9:00pm,8:00am,9:00pm,8:00am,9:00pm,8:00am,9:00pm,8:00am,9:00pm,8:00am,9:00pm,8:00am,9:00pm,T7V 1Y6,-117.626,53.3813,,2013-09-16 12:34:11 UTC,2013-09-16 12:34:11 UTC
"1505,boul. Firestone",Joliette,Walmart,450-752-5221,QC,8:00am,9:00pm,8:00am,9:00pm,8:00am,9:00pm,8:00am,9:00pm,8:00am,9:00pm,8:00am,5:00pm,8:00am,5:00pm,J6E 9E5,-73.4169,46.0383,,2013-09-16 12:34:11 UTC,2013-09-16 12:34:11 UTC
1055 Hillside Drive Unit #100,Kamloops,Walmart,250-374-1591,BC,8:00am,10:00pm,8:00am,10:00pm,8:00am,10:00pm,8:00am,10:00pm,8:00am,10:00pm,8:00am,10:00pm,8:00am,10:00pm,V2E 2S5,-120.372,50.6645,,2013-09-16 12:34:11 UTC,2013-09-16 12:34:11 UTC
350 Government Road E,Kapuskasing,Walmart,705-335-6111,ON,7:00am,10:00pm,7:00am,10:00pm,7:00am,10:00pm,7:00am,10:00pm,7:00am,10:00pm,7:00am,10:00pm,7:00am,9:00pm,P5N 2X7,-82.3773,49.3997,,2013-09-16 12:34:12 UTC,2013-09-16 12:34:12 UTC
1555 Banks Road,Kelowna,Walmart,250-860-8811,BC,7:00am,11:00pm,7:00am,11:00pm,7:00am,11:00pm,7:00am,11:00pm,7:00am,11:00pm,7:00am,11:00pm,7:00am,11:00pm,V1X 7Y8,-119.427,49.8875,,2013-09-16 12:34:12 UTC,2013-09-16 12:34:12 UTC
1130 Midland Avenue,Kingston,Walmart,613-384-9071,ON,7:00am,11:00pm,7:00am,11:00pm,7:00am,11:00pm,7:00am,11:00pm,7:00am,11:00pm,7:00am,11:00pm,7:00am,11:00pm,K7P 2X9,-76.5742,44.2642,,2013-09-16 12:34:12 UTC,2013-09-16 12:34:12 UTC
"17 000,autoroute Transcanadienne",Kirkland,Walmart,514-695-3040,QC,8:00am,9:00pm,8:00am,9:00pm,8:00am,9:00pm,8:00am,9:00pm,8:00am,9:00pm,8:00am,5:00pm,8:00am,5:00pm,H9J 2M5,-73.8599,45.4486,,2013-09-16 12:34:12 UTC,2013-09-16 12:34:12 UTC
2960 Kingsway Drive Fairview Park Mall,Kitchener,Walmart,519-894-6600,ON,7:00am,11:00pm,7:00am,11:00pm,7:00am,11:00pm,7:00am,11:00pm,7:00am,11:00pm,7:00am,11:00pm,7:00am,11:00pm,N2C 1X1,-80.4414,43.4242,,2013-09-16 12:34:12 UTC,2013-09-16 12:34:12 UTC
"6797,boul. Newman",LaSalle,Walmart,514-368-2248,QC,8:00am,9:00pm,8:00am,9:00pm,8:00am,9:00pm,8:00am,9:00pm,8:00am,9:00pm,8:00am,5:00pm,8:00am,5:00pm,H8N 3E4,-73.6081,45.4492,,2013-09-16 12:34:12 UTC,2013-09-16 12:34:12 UTC
"2075,boul. Chomedey,suite 100",Laval,Walmart,450-681-1126,QC,8:00am,9:00pm,8:00am,9:00pm,8:00am,9:00pm,8:00am,9:00pm,8:00am,9:00pm,8:00am,5:00pm,8:00am,5:00pm,H7T 0G5,-73.743,45.5601,,2013-09-16 12:34:12 UTC,2013-09-16 12:34:12 UTC
3700 Mayor Magrath Drive South,Lethbridge,Walmart,403-328-6277,AB,7:00am,11:00pm,7:00am,11:00pm,7:00am,11:00pm,7:00am,11:00pm,7:00am,11:00pm,7:00am,11:00pm,7:00am,11:00pm,T1K 7T6,-112.793,49.6583,,2013-09-16 12:34:12 UTC,2013-09-16 12:34:12 UTC
330 Clarke Road,London,Walmart,519-455-8910,ON,7:00am,10:00pm,7:00am,10:00pm,7:00am,10:00pm,7:00am,10:00pm,7:00am,10:00pm,7:00am,10:00pm,7:00am,9:00pm,N5W 6G4,-81.1745,43.0021,,2013-09-16 12:34:12 UTC,2013-09-16 12:34:12 UTC
1280 Fanshawe Park Rd. West,London,Walmart,519-472-7100,ON,7:00am,11:00pm,7:00am,11:00pm,7:00am,11:00pm,7:00am,11:00pm,7:00am,11:00pm,7:00am,11:00pm,7:00am,11:00pm,N6G 5B1,-81.3324,43.0121,,2013-09-16 12:34:12 UTC,2013-09-16 12:34:12 UTC
1105 Wellington Rd. S. White Oaks Mall,London,Walmart,519-681-7500,ON,7:00am,10:00pm,7:00am,10:00pm,7:00am,10:00pm,7:00am,10:00pm,7:00am,10:00pm,7:00am,10:00pm,7:00am,9:00pm,N6E 1V4,-81.2215,42.9317,,2013-09-16 12:34:12 UTC,2013-09-16 12:34:12 UTC
"1999,boul. Roland-Therrien Centre Commercial Longueuil",Longueuil,Walmart,450-448-2688,QC,8:00am,9:00pm,8:00am,9:00pm,8:00am,9:00pm,8:00am,9:00pm,8:00am,9:00pm,8:00am,5:00pm,8:00am,5:00pm,J4N 1A3,-73.4748,45.5374,,2013-09-16 12:34:12 UTC,2013-09-16 12:34:12 UTC
5000 Highway 7 Unit Y006A Markville Shopping Centre,Markham,Walmart,905-477-6060,ON,7:00am,10:00pm,7:00am,10:00pm,7:00am,10:00pm,7:00am,10:00pm,7:00am,10:00pm,7:00am,10:00pm,7:00am,10:00pm,L3R 4M9,-79.2903,43.8716,,2013-09-16 12:34:12 UTC,2013-09-16 12:34:12 UTC
3155 Argentia Road,Mississauga,Walmart,905-821-8150,ON,7:00am,11:00pm,7:00am,11:00pm,7:00am,11:00pm,7:00am,11:00pm,7:00am,11:00pm,7:00am,11:00pm,7:00am,11:00pm,L5N 8E1,-79.7869,43.5946,,2013-09-16 12:34:12 UTC,2013-09-16 12:34:12 UTC
100 City Centre Drive,Mississauga,Walmart,905-270-9300,ON,7:00am,11:00pm,7:00am,11:00pm,7:00am,11:00pm,7:00am,11:00pm,7:00am,11:00pm,7:00am,11:00pm,7:00am,11:00pm,L5B 2C9,-79.6393,43.5921,,2013-09-16 12:34:12 UTC,2013-09-16 12:34:12 UTC
477 Paul Street Champlain Place,Dieppe,Walmart,506-857-2500,NB,8:00am,10:00pm,8:00am,10:00pm,8:00am,10:00pm,8:00am,10:00pm,8:00am,10:00pm,8:00am,10:00pm,9:00am,6:00pm,E1A 5B2,-64.7587,46.0976,,2013-09-16 12:34:12 UTC,2013-09-16 12:34:12 UTC
925 Marine Drive Capilano Mall,North Vancouver,Walmart,604-984-6830,BC,7:00am,11:00pm,7:00am,11:00pm,7:00am,11:00pm,7:00am,11:00pm,7:00am,11:00pm,7:00am,11:00pm,7:00am,11:00pm,V7P 1S2,-123.099,49.3226,,2013-09-16 12:34:12 UTC,2013-09-16 12:34:12 UTC
601 Carlton Trail,North Battleford,Walmart,306-445-8105,SK,8:00am,10:00pm,8:00am,10:00pm,8:00am,10:00pm,8:00am,10:00pm,8:00am,10:00pm,8:00am,10:00pm,8:00am,10:00pm,S9A 4A9,-108.273,52.7626,,2013-09-16 12:34:12 UTC,2013-09-16 12:34:12 UTC
6801 Island Highway North Woodgrove Centre,Nanaimo,Walmart,250-390-2344,BC,7:00am,11:00pm,7:00am,11:00pm,7:00am,11:00pm,7:00am,11:00pm,7:00am,11:00pm,7:00am,11:00pm,7:00am,11:00pm,V9T 6N8,-124.05,49.2386,,2013-09-16 12:34:12 UTC,2013-09-16 12:34:12 UTC
1000 Lakeside Dr. Chako Mika Mall,Nelson,Walmart,250-352-3782,BC,8:00am,9:00pm,8:00am,9:00pm,8:00am,9:00pm,8:00am,9:00pm,8:00am,9:00pm,8:00am,9:00pm,8:00am,9:00pm,V1L 5Z4,-117.294,49.4965,,2013-09-16 12:34:12 UTC,2013-09-16 12:34:12 UTC
"713 Westville,Road",New Glasgow,Walmart,902-928-0008,NS,8:00am,10:00pm,8:00am,10:00pm,8:00am,10:00pm,8:00am,10:00pm,8:00am,10:00pm,8:00am,10:00pm,10:00am,8:00pm,B2H 2J6,-62.6656,45.5782,,2013-09-16 12:34:12 UTC,2013-09-16 12:34:12 UTC
17940 Yonge Street,Newmarket,Walmart,905-853-8811,ON,7:00am,11:00pm,7:00am,11:00pm,7:00am,11:00pm,7:00am,11:00pm,7:00am,11:00pm,7:00am,11:00pm,7:00am,11:00pm,L3Y 8S4,-79.4828,44.0646,,2013-09-16 12:34:13 UTC,2013-09-16 12:34:13 UTC
1500 Fisher St. Northgate Shopping Centre,North Bay,Walmart,705-472-1704,ON,7:00am,11:00pm,7:00am,11:00pm,7:00am,11:00pm,7:00am,11:00pm,7:00am,11:00pm,7:00am,11:00pm,7:00am,11:00pm,P1B 2H3,-79.443,46.3129,,2013-09-16 12:34:13 UTC,2013-09-16 12:34:13 UTC
234 Hays Boulevard,Oakville,Walmart,905 257-5740,ON,7:00am,11:00pm,7:00am,11:00pm,7:00am,11:00pm,7:00am,11:00pm,7:00am,11:00pm,7:00am,11:00pm,7:00am,11:00pm,L6H 6M4,-79.7195,43.4832,,2013-09-16 12:34:13 UTC,2013-09-16 12:34:13 UTC
3900 Innes Road,Orleans,Walmart,613-837-9399,ON,7:00am,11:00pm,7:00am,11:00pm,7:00am,11:00pm,7:00am,11:00pm,7:00am,11:00pm,7:00am,11:00pm,7:00am,11:00pm,K1C 1T1,-75.5106,45.4534,,2013-09-16 12:34:13 UTC,2013-09-16 12:34:13 UTC
1350 Richmond Road Lincoln Fields Shopping Centre,Ottawa,Walmart,613-820-8767,ON,7:00am,11:00pm,7:00am,11:00pm,7:00am,11:00pm,7:00am,11:00pm,7:00am,11:00pm,7:00am,11:00pm,7:00am,11:00pm,K2B 7Z3,-75.7873,45.3664,,2013-09-16 12:34:13 UTC,2013-09-16 12:34:13 UTC
1555 18th Avenue East,Owen Sound,Walmart,519-371-6900,ON,7:00am,10:00pm,7:00am,10:00pm,7:00am,10:00pm,7:00am,10:00pm,7:00am,10:00pm,7:00am,10:00pm,7:00am,10:00pm,N4K 6Y3,-80.9129,44.5744,,2013-09-16 12:34:13 UTC,2013-09-16 12:34:13 UTC
47 Paint Street Unit 17 Port Hawkesbury Centre,Port Hawkesbury,Walmart,902-625-0954,NS,8:00am,10:00pm,8:00am,10:00pm,8:00am,10:00pm,8:00am,10:00pm,8:00am,10:00pm,8:00am,10:00pm,10:00am,8:00pm,B9A 3J9,-61.3324,45.6175,,2013-09-16 12:34:13 UTC,2013-09-16 12:34:13 UTC
2348 Sissons Drive,Portage La Prairie,Walmart,204-857-5011,MB,8:00am,10:00pm,8:00am,10:00pm,8:00am,10:00pm,8:00am,10:00pm,8:00am,10:00pm,8:00am,10:00pm,9:00am,6:00pm,R1N 0G5,-98.324,49.9736,,2013-09-16 12:34:13 UTC,2013-09-16 12:34:13 UTC
275 Green Ave. W. Peachtree Mall,Penticton,Walmart,250-493-8396,BC,8:00am,10:00pm,8:00am,10:00pm,8:00am,10:00pm,8:00am,10:00pm,8:00am,10:00pm,8:00am,10:00pm,8:00am,10:00pm,V2A 7J2,-119.59,49.4631,,2013-09-16 12:34:13 UTC,2013-09-16 12:34:13 UTC
1002 Chemong Road,Peterborough,Walmart,705-742-5090,ON,7:00am,11:00pm,7:00am,11:00pm,7:00am,11:00pm,7:00am,11:00pm,7:00am,11:00pm,7:00am,11:00pm,7:00am,11:00pm,K9H 7E2,-78.3368,44.3245,,2013-09-16 12:34:13 UTC,2013-09-16 12:34:13 UTC
7100 Alberni St. Town Centre Mall,Powell River,Walmart,604-485-9811,BC,9:00am,9:00pm,9:00am,9:00pm,9:00am,9:00pm,9:00am,9:00pm,9:00am,9:00pm,9:00am,9:00pm,10:00am,6:00pm,V8A 5K9,-124.518,49.8465,,2013-09-16 12:34:13 UTC,2013-09-16 12:34:13 UTC
800 15th Street East,Prince Albert,Walmart,306-764-9770,SK,7:00am,11:00pm,7:00am,11:00pm,7:00am,11:00pm,7:00am,11:00pm,7:00am,11:00pm,7:00am,11:00pm,7:00am,11:00pm,S6V 8E3,-105.73,53.1994,,2013-09-16 12:34:13 UTC,2013-09-16 12:34:13 UTC
"1700,boul. Lebourgneuf",Qu,Walmart,418-623-7339,QC,8:00am,9:00pm,8:00am,9:00pm,8:00am,9:00pm,8:00am,9:00pm,8:00am,9:00pm,8:00am,5:00pm,8:00am,5:00pm,G2K 2M4,-71.304,46.8321,,2013-09-16 12:34:13 UTC,2013-09-16 12:34:13 UTC
6375 - 50th Avenue Parkland Mall,Red Deer,Walmart,403-346-6650,AB,7:00am,11:00pm,7:00am,11:00pm,7:00am,11:00pm,7:00am,11:00pm,7:00am,11:00pm,7:00am,11:00pm,7:00am,11:00pm,T4N 4C7,-113.814,52.2835,,2013-09-16 12:34:13 UTC,2013-09-16 12:34:13 UTC
3939 Rochdale Blvd.,Regina,Walmart,306-543-3237,SK,7:00am,11:00pm,7:00am,11:00pm,7:00am,11:00pm,7:00am,11:00pm,7:00am,11:00pm,7:00am,11:00pm,7:00am,11:00pm,S4X 4P7,-104.637,50.4966,,2013-09-16 12:34:13 UTC,2013-09-16 12:34:13 UTC
4500 Gordon Road,Regina,Walmart,306-584-0061,SK,7:00am,11:00pm,7:00am,11:00pm,7:00am,11:00pm,7:00am,11:00pm,7:00am,11:00pm,7:00am,11:00pm,7:00am,11:00pm,S4S 6H7,-104.646,50.4083,,2013-09-16 12:34:13 UTC,2013-09-16 12:34:13 UTC
980 O'Brien Road R.R. #1,Renfrew,Walmart,613-432-4676,ON,7:00am,10:00pm,7:00am,10:00pm,7:00am,10:00pm,7:00am,10:00pm,7:00am,10:00pm,7:00am,6:00pm,10:00am,6:00pm,K7V 0B4,-76.7096,45.4846,,2013-09-16 12:34:14 UTC,2013-09-16 12:34:14 UTC
"100,boul. Brien,suite 66 Galeries Rive-Nord",Repentigny,Walmart,450-654-8886,QC,8:00am,9:00pm,8:00am,9:00pm,8:00am,9:00pm,8:00am,9:00pm,8:00am,9:00pm,8:00am,5:00pm,8:00am,5:00pm,J6A 5N4,-73.4553,45.7444,,2013-09-16 12:34:14 UTC,2013-09-16 12:34:14 UTC
"401,boul. Cur",Rosem,Walmart,450-435-2982,QC,8:00am,9:00pm,8:00am,9:00pm,8:00am,9:00pm,8:00am,9:00pm,8:00am,9:00pm,8:00am,5:00pm,8:00am,5:00pm,J7A 3T2,-73.8179,45.6335,,2013-09-16 12:34:14 UTC,2013-09-16 12:34:14 UTC
141 Damascus Road,Bedford,Walmart,902-865-4000,NS,8:00am,10:00pm,8:00am,10:00pm,8:00am,10:00pm,8:00am,10:00pm,8:00am,10:00pm,8:00am,10:00pm,10:00am,8:00pm,B4A 0C2,-63.6438,44.751,,2013-09-16 12:34:14 UTC,2013-09-16 12:34:14 UTC
1444 Quinn Drive,Sarnia,Walmart,519-542-4272,ON,7:00am,11:00pm,7:00am,11:00pm,7:00am,11:00pm,7:00am,11:00pm,7:00am,11:00pm,7:00am,11:00pm,7:00am,11:00pm,N7S 6M8,-82.3496,42.9861,,2013-09-16 12:34:14 UTC,2013-09-16 12:34:14 UTC
225 Betts Avenue,Saskatoon,Walmart,306-382-5454,SK,7:00am,11:00pm,7:00am,11:00pm,7:00am,11:00pm,7:00am,11:00pm,7:00am,11:00pm,7:00am,11:00pm,7:00am,11:00pm,S7M 1L2,-106.759,52.1292,,2013-09-16 12:34:14 UTC,2013-09-16 12:34:14 UTC
1706 Preston Ave N.,Saskatoon,Walmart,306-373-2300,SK,7:00am,11:00pm,7:00am,11:00pm,7:00am,11:00pm,7:00am,11:00pm,7:00am,11:00pm,7:00am,11:00pm,7:00am,11:00pm,S7N V42,-106.607,52.1471,,2013-09-16 12:34:14 UTC,2013-09-16 12:34:14 UTC
"1005,boul. Laure Galeries Montagnaises",Sept-,Walmart,418-968-5151,QC,8:00am,9:00pm,8:00am,9:00pm,8:00am,9:00pm,8:00am,9:00pm,8:00am,9:00pm,8:00am,5:00pm,8:00am,5:00pm,G4R 4S6,-66.3916,50.227,,2013-09-16 12:34:14 UTC,2013-09-16 12:34:14 UTC
"4050,boul. Josaphat-Rancourt",Sherbrooke,Walmart,819-823-8382,QC,8:00am,9:00pm,8:00am,9:00pm,8:00am,9:00pm,8:00am,9:00pm,8:00am,9:00pm,8:00am,5:00pm,8:00am,5:00pm,J1L 3C6,-71.9653,45.4201,,2013-09-16 12:34:14 UTC,2013-09-16 12:34:14 UTC
700 St. Albert Rd.,St. Albert,Walmart,780-458-1629,AB,7:00am,11:00pm,7:00am,11:00pm,7:00am,11:00pm,7:00am,11:00pm,7:00am,11:00pm,7:00am,11:00pm,7:00am,11:00pm,T8N 7A5,-113.631,53.6581,,2013-09-16 12:34:14 UTC,2013-09-16 12:34:14 UTC
525 Welland Ave. Lincoln Mall,St. Catharines,Walmart,905-685-4100,ON,7:00am,11:00pm,7:00am,11:00pm,7:00am,11:00pm,7:00am,11:00pm,7:00am,11:00pm,7:00am,11:00pm,7:00am,11:00pm,L2M 5V2,-79.2117,43.176,,2013-09-16 12:34:14 UTC,2013-09-16 12:34:14 UTC
"764,boul. Arthur-Sauv",Saint-Eustache,Walmart,450-491-6922,QC,8:00am,9:00pm,8:00am,9:00pm,8:00am,9:00pm,8:00am,9:00pm,8:00am,9:00pm,8:00am,5:00pm,8:00am,5:00pm,J7R 4K3,-73.9147,45.5731,,2013-09-16 12:34:14 UTC,2013-09-16 12:34:14 UTC
"100,rue Omer-Marcil",Saint-Jean-sur-Richelieu,Walmart,450-349-0666,QC,8:00am,9:00pm,8:00am,9:00pm,8:00am,9:00pm,8:00am,9:00pm,8:00am,9:00pm,8:00am,5:00pm,8:00am,5:00pm,J2W 2X2,-73.2963,45.3329,,2013-09-16 12:34:14 UTC,2013-09-16 12:34:14 UTC
450 Westmorland Road,Saint John,Walmart,506-634-6600,NB,8:00am,10:00pm,8:00am,10:00pm,8:00am,10:00pm,8:00am,10:00pm,8:00am,10:00pm,8:00am,10:00pm,12:00pm,5:00pm,E2J 4Z2,-66.0182,45.3074,,2013-09-16 12:34:14 UTC,2013-09-16 12:34:14 UTC
75 Kelsey Dr.,St. John's,Walmart,709-722-5094,NL,7:00am,11:00pm,7:00am,11:00pm,7:00am,11:00pm,7:00am,11:00pm,7:00am,11:00pm,7:00am,11:00pm,7:00am,11:00pm,A1B 5C8,-52.7813,47.5579,,2013-09-16 12:34:14 UTC,2013-09-16 12:34:14 UTC
60 Merchant Drive,Mount Pearl,Walmart,709-364-4214,NL,7:00am,11:00pm,7:00am,11:00pm,7:00am,11:00pm,7:00am,11:00pm,7:00am,11:00pm,7:00am,11:00pm,7:00am,11:00pm,A1N 5J5,-52.8118,47.502,,2013-09-16 12:34:14 UTC,2013-09-16 12:34:14 UTC
"7445,boul. Langelier",Saint-L,Walmart,514-899-1889,QC,8:00am,9:00pm,8:00am,9:00pm,8:00am,9:00pm,8:00am,9:00pm,8:00am,9:00pm,8:00am,5:00pm,8:00am,5:00pm,H1S 1V9,-73.5729,45.5915,,2013-09-16 12:34:14 UTC,2013-09-16 12:34:14 UTC
42 Queen Street Stephenville Mall,Stephenville,Walmart,709-643-5018,NL,8:00am,10:00pm,8:00am,10:00pm,8:00am,10:00pm,8:00am,10:00pm,8:00am,10:00pm,8:00am,10:00pm,8:00am,10:00pm,A2N 2Z5,-58.5754,48.546,,2013-09-16 12:34:14 UTC,2013-09-16 12:34:14 UTC
510 Centennial Parkway North Stoney Creek,North Stoney Creek,Walmart,905-561-7600,ON,7:00am,11:00pm,7:00am,11:00pm,7:00am,11:00pm,7:00am,11:00pm,7:00am,11:00pm,7:00am,11:00pm,7:00am,11:00pm,L8E 0G2,-79.7558,43.2431,,2013-09-16 12:34:14 UTC,2013-09-16 12:34:14 UTC
1349 Lasalle Blvd. New Sudbury Centre,Sudbury,Walmart,705-566-3700,ON,7:00am,10:00pm,7:00am,10:00pm,7:00am,10:00pm,7:00am,10:00pm,7:00am,10:00pm,7:00am,10:00pm,7:00am,6:00pm,P3A 1Z2,-80.9489,46.522,,2013-09-16 12:34:14 UTC,2013-09-16 12:34:14 UTC
1000 Guildford Town Centre Guildford Town Centre,Surrey,Walmart,604-581-1932,BC,7:00am,11:00pm,7:00am,11:00pm,7:00am,11:00pm,7:00am,11:00pm,7:00am,11:00pm,7:00am,11:00pm,7:00am,11:00pm,V3R 1N3,-122.801,49.1887,,2013-09-16 12:34:14 UTC,2013-09-16 12:34:14 UTC
1800 22nd Avenue,Swift Current,Walmart,306-778-3489,SK,8:00am,10:00pm,8:00am,10:00pm,8:00am,10:00pm,8:00am,10:00pm,8:00am,10:00pm,8:00am,10:00pm,8:00am,10:00pm,S9H 5M8,-107.775,50.3071,,2013-09-16 12:34:14 UTC,2013-09-16 12:34:14 UTC
65 Keltic Drive Cape Breton Plaza,Sydney,Walmart,902-562-3353,NS,8:00am,10:00pm,8:00am,10:00pm,8:00am,10:00pm,8:00am,10:00pm,8:00am,10:00pm,8:00am,10:00pm,10:00am,8:00pm,B1S 1P4,-60.224,46.1104,,2013-09-16 12:34:14 UTC,2013-09-16 12:34:14 UTC
80 Sydney Port Access Road,Sydney,Walmart,902-562-1110,NS,8:00am,10:00pm,8:00am,10:00pm,8:00am,10:00pm,8:00am,10:00pm,8:00am,10:00pm,8:00am,10:00pm,10:00am,8:00pm,B1P 6S9,-60.1496,46.1502,,2013-09-16 12:34:15 UTC,2013-09-16 12:34:15 UTC
300 Mystery Lake Road City Centre Mall,Thompson,Walmart,204-778-4669,MB,8:00am,10:00pm,8:00am,10:00pm,8:00am,10:00pm,8:00am,10:00pm,8:00am,10:00pm,8:00am,10:00pm,12:00pm,6:00pm,R8N 0M2,-97.8495,55.7472,,2013-09-16 12:34:15 UTC,2013-09-16 12:34:15 UTC
170 Broadway Street,Tillsonburg,Walmart,519-842-7770,ON,7:00am,11:00pm,7:00am,11:00pm,7:00am,11:00pm,7:00am,11:00pm,7:00am,11:00pm,7:00am,11:00pm,7:00am,11:00pm,N4G 4X1,-80.7279,42.8618,,2013-09-16 12:34:15 UTC,2013-09-16 12:34:15 UTC
1870 Riverside Drive,Timmins,Walmart,705-267-6451,ON,7:00am,11:00pm,7:00am,11:00pm,7:00am,11:00pm,7:00am,11:00pm,7:00am,11:00pm,7:00am,11:00pm,7:00am,11:00pm,P4N 7C3,-81.3977,48.4725,,2013-09-16 12:34:15 UTC,2013-09-16 12:34:15 UTC
1305 Lawrence Ave. W.,North York,Walmart,416-244-1171,ON,8:00am,11:00pm,8:00am,11:00pm,8:00am,11:00pm,8:00am,11:00pm,8:00am,11:00pm,8:00am,11:00pm,8:00am,10:00pm,M6L 1A5,-79.4741,43.7099,,2013-09-16 12:34:15 UTC,2013-09-16 12:34:15 UTC
900 Dufferin Street Dufferin Mall,Toronto,Walmart,416-537-2561,ON,7:00am,11:00pm,7:00am,11:00pm,7:00am,11:00pm,7:00am,11:00pm,7:00am,11:00pm,7:00am,11:00pm,7:00am,9:00pm,M6H 4A9,-79.4343,43.657,,2013-09-16 12:34:15 UTC,2013-09-16 12:34:15 UTC
"4520,boul. Royal,suite 820",Trois-Rivi,Walmart,819-372-1181,QC,8:00am,9:00pm,8:00am,9:00pm,8:00am,9:00pm,8:00am,9:00pm,8:00am,9:00pm,8:00am,5:00pm,8:00am,5:00pm,G9A 4N2,-72.5636,46.3244,,2013-09-16 12:34:15 UTC,2013-09-16 12:34:15 UTC
3460 Saanich Rd.,Victoria,Walmart,250-475-3356,BC,7:00am,11:00pm,7:00am,11:00pm,7:00am,11:00pm,7:00am,11:00pm,7:00am,11:00pm,7:00am,11:00pm,7:00am,11:00pm,V8Z 0B9,-123.374,48.454,,2013-09-16 12:34:15 UTC,2013-09-16 12:34:15 UTC
102 Primeway Drive,Welland,Walmart,905-735-3500,ON,7:00am,11:00pm,7:00am,11:00pm,7:00am,11:00pm,7:00am,11:00pm,7:00am,11:00pm,7:00am,11:00pm,7:00am,11:00pm,L3B 0A1,-79.2292,43.0147,,2013-09-16 12:34:15 UTC,2013-09-16 12:34:15 UTC
799 Milner Avenue,Scarborough,Walmart,416-281-2929,ON,7:00am,11:00pm,7:00am,11:00pm,7:00am,11:00pm,7:00am,11:00pm,7:00am,11:00pm,7:00am,11:00pm,7:00am,11:00pm,M1B 3C3,-79.2025,43.7988,,2013-09-16 12:34:15 UTC,2013-09-16 12:34:15 UTC
3600 - 56th St. Suite 300,Wetaskiwin,Walmart,780-352-8093,AB,8:00am,10:00pm,8:00am,10:00pm,8:00am,10:00pm,8:00am,10:00pm,8:00am,10:00pm,8:00am,10:00pm,8:00am,10:00pm,T9A 3T5,-113.39,52.9528,,2013-09-16 12:34:15 UTC,2013-09-16 12:34:15 UTC
4100 Baldwin St. South,Whitby,Walmart,905-655-0206,ON,7:00am,11:00pm,7:00am,11:00pm,7:00am,11:00pm,7:00am,11:00pm,7:00am,11:00pm,7:00am,11:00pm,7:00am,11:00pm,L1R 3H8,-78.9581,43.9172,,2013-09-16 12:34:15 UTC,2013-09-16 12:34:15 UTC
3120 Dougall Avenue,Windsor,Walmart,519-969-8121,ON,7:00am,11:00pm,7:00am,11:00pm,7:00am,11:00pm,7:00am,11:00pm,7:00am,11:00pm,7:00am,11:00pm,7:00am,11:00pm,N9E 1S7,-83.012,42.27,,2013-09-16 12:34:15 UTC,2013-09-16 12:34:15 UTC
7100 Tecumseh Road East.,Windsor,Walmart,519-945-3065,ON,7:00am,11:00pm,7:00am,11:00pm,7:00am,11:00pm,7:00am,11:00pm,7:00am,11:00pm,7:00am,11:00pm,7:00am,11:00pm,N8T 1E6,-82.9418,42.3123,,2013-09-16 12:34:15 UTC,2013-09-16 12:34:15 UTC
3655 Portage Avenue,Winnipeg,Walmart,204-897-3410,MB,7:00am,11:00pm,7:00am,11:00pm,7:00am,11:00pm,7:00am,11:00pm,7:00am,11:00pm,7:00am,11:00pm,9:00am,6:00pm,R3K 2G6,-97.3127,49.8822,,2013-09-16 12:34:15 UTC,2013-09-16 12:34:15 UTC
Unit 54-1225 St. Mary's Road,Winnipeg,Walmart,204-256-7027,MB,7:00am,11:00pm,7:00am,11:00pm,7:00am,11:00pm,7:00am,11:00pm,7:00am,11:00pm,7:00am,11:00pm,9:00am,6:00pm,R2M 5E6,-97.1148,49.8289,,2013-09-16 12:34:15 UTC,2013-09-16 12:34:15 UTC
499 Norwich Avenue,Woodstock,Walmart,519-539-5120,ON,7:00am,11:00pm,7:00am,11:00pm,7:00am,11:00pm,7:00am,11:00pm,7:00am,11:00pm,7:00am,11:00pm,7:00am,11:00pm,N4S 9A2,-80.7378,43.1156,,2013-09-16 12:34:15 UTC,2013-09-16 12:34:15 UTC
313 Old Airport Road,Yellowknife,Walmart,867-873-4545,NT,8:00am,10:00pm,8:00am,10:00pm,8:00am,10:00pm,8:00am,10:00pm,8:00am,10:00pm,8:00am,10:00pm,8:00am,6:00pm,X1A 3T3,-114.407,62.4491,,2013-09-16 12:34:15 UTC,2013-09-16 12:34:15 UTC
274 Millennium Parkway,Belleville,Walmart,613-966-9466,ON,7:00am,11:00pm,7:00am,11:00pm,7:00am,11:00pm,7:00am,11:00pm,7:00am,11:00pm,7:00am,11:00pm,7:00am,11:00pm,K8N 4Z5,-77.3943,44.1948,,2013-09-16 12:34:15 UTC,2013-09-16 12:34:15 UTC
35 Mapleview Drive West,Barrie,Walmart,705-728-9122,ON,7:00am,11:00pm,7:00am,11:00pm,7:00am,11:00pm,7:00am,11:00pm,7:00am,11:00pm,7:00am,11:00pm,7:00am,11:00pm,L4N 9H5,-79.6887,44.3346,,2013-09-16 12:34:15 UTC,2013-09-16 12:34:15 UTC
777 Memorial Ave.,Thunder Bay,Walmart,807-346-9441,ON,7:00am,11:00pm,7:00am,11:00pm,7:00am,11:00pm,7:00am,11:00pm,7:00am,11:00pm,7:00am,11:00pm,7:00am,11:00pm,P7B 3Z7,-89.2433,48.4141,,2013-09-16 12:34:15 UTC,2013-09-16 12:34:15 UTC
"640,boul. Maloney Ouest",Gatineau,Walmart,819-246-8808,QC,8:00am,9:00pm,8:00am,9:00pm,8:00am,9:00pm,8:00am,9:00pm,8:00am,9:00pm,8:00am,5:00pm,8:00am,5:00pm,J8P 7M4,-75.676,45.4824,,2013-09-16 12:34:15 UTC,2013-09-16 12:34:15 UTC
35400 Huron Road,Goderich,Walmart,519 524-5060,ON,7:00am,10:00pm,7:00am,10:00pm,7:00am,10:00pm,7:00am,10:00pm,7:00am,10:00pm,7:00am,9:00pm,8:00am,8:00pm,N7A 3X8,-81.716,43.7568,,2013-09-16 12:34:16 UTC,2013-09-16 12:34:16 UTC
1051 Garner Road West,Ancaster,Walmart,905-648-9980,ON,7:00am,11:00pm,7:00am,11:00pm,7:00am,11:00pm,7:00am,11:00pm,7:00am,11:00pm,7:00am,11:00pm,7:00am,11:00pm,L9G 3K9,-80.0163,43.196,,2013-09-16 12:34:16 UTC,2013-09-16 12:34:16 UTC
"133,Highway 11",New Liskeard,Walmart,705-647-6344,ON,7:00am,10:00pm,7:00am,10:00pm,7:00am,10:00pm,7:00am,10:00pm,7:00am,10:00pm,7:00am,10:00pm,7:00am,10:00pm,P0J 1P0,-79.666,47.533,,2013-09-16 12:34:16 UTC,2013-09-16 12:34:16 UTC
1100-10th Street,Hanover,Walmart,519-364-0867,ON,7:00am,10:00pm,7:00am,10:00pm,7:00am,10:00pm,7:00am,10:00pm,7:00am,10:00pm,7:00am,10:00pm,7:00am,9:00pm,N4N 3B8,-81.0021,44.1561,,2013-09-16 12:34:16 UTC,2013-09-16 12:34:16 UTC
50 Quarry Edge Drive,Brampton,Walmart,905-874-0112,ON,7:00am,11:00pm,7:00am,11:00pm,7:00am,11:00pm,7:00am,11:00pm,7:00am,11:00pm,7:00am,11:00pm,7:00am,11:00pm,L6V 4K2,-79.7823,43.7053,,2013-09-16 12:34:16 UTC,2013-09-16 12:34:16 UTC
2210 Bank Street,Ottawa,Walmart,613-247-1184,ON,7:00am,11:00pm,7:00am,11:00pm,7:00am,11:00pm,7:00am,11:00pm,7:00am,11:00pm,7:00am,11:00pm,7:00am,11:00pm,K1V 1J5,-75.6536,45.3572,,2013-09-16 12:34:16 UTC,2013-09-16 12:34:16 UTC
"480,rue Bethany",Lachute,Walmart,450-562-0255,QC,8:00am,9:00pm,8:00am,9:00pm,8:00am,9:00pm,8:00am,9:00pm,8:00am,9:00pm,8:00am,5:00pm,9:00am,5:00pm,J8H 4H5,-74.3275,45.6385,,2013-09-16 12:34:16 UTC,2013-09-16 12:34:16 UTC
73 Strathy Road,Cobourg,Walmart,905-373-1239,ON,7:00am,10:00pm,7:00am,10:00pm,7:00am,10:00pm,7:00am,10:00pm,7:00am,10:00pm,7:00am,10:00pm,7:00am,10:00pm,K9A 5J7,-78.1991,43.9752,,2013-09-16 12:34:16 UTC,2013-09-16 12:34:16 UTC
500 Earl Grey Drive,Kanata,Walmart,613 599-6765,ON,7:00am,11:00pm,7:00am,11:00pm,7:00am,11:00pm,7:00am,11:00pm,7:00am,11:00pm,7:00am,11:00pm,7:00am,11:00pm,K2T 1B6,-75.9118,45.3102,,2013-09-16 12:34:16 UTC,2013-09-16 12:34:16 UTC
30 Coventry Rd.,Brampton,Walmart,905-793-1983,ON,7:00am,11:00pm,7:00am,11:00pm,7:00am,11:00pm,7:00am,11:00pm,7:00am,11:00pm,7:00am,11:00pm,7:00am,11:00pm,L6T 5P9,-79.6946,43.7393,,2013-09-16 12:34:16 UTC,2013-09-16 12:34:16 UTC
"5950,rue Martineau",Saint-Hyacinthe,Walmart,450-796-4001,QC,8:00am,9:00pm,8:00am,9:00pm,8:00am,9:00pm,8:00am,9:00pm,8:00am,9:00pm,8:00am,5:00pm,8:00am,5:00pm,J2R 2H6,-72.9771,45.6425,,2013-09-16 12:34:16 UTC,2013-09-16 12:34:16 UTC
220 Chain Lake Drive,Halifax,Walmart,902 450-5570,NS,8:00am,10:00pm,8:00am,10:00pm,8:00am,10:00pm,8:00am,10:00pm,8:00am,10:00pm,8:00am,10:00pm,10:00am,8:00pm,B3S 1C9,-63.6757,44.6506,,2013-09-16 12:34:16 UTC,2013-09-16 12:34:16 UTC
"1855,3e Avenue Ouest",Val-d'Or,Walmart,819-874-8411,QC,8:00am,9:00pm,8:00am,9:00pm,8:00am,9:00pm,8:00am,9:00pm,8:00am,9:00pm,8:00am,5:00pm,8:00am,5:00pm,J9P 7A9,-77.8367,48.0977,,2013-09-16 12:34:16 UTC,2013-09-16 12:34:16 UTC
"1475,boul. Saint-Bruno",Saint-Bruno-de-Montarville,Walmart,450-653-9996,QC,8:00am,9:00pm,8:00am,9:00pm,8:00am,9:00pm,8:00am,9:00pm,8:00am,9:00pm,8:00am,5:00pm,8:00am,5:00pm,J3V 6J1,-73.3826,45.5055,,2013-09-16 12:34:16 UTC,2013-09-16 12:34:16 UTC
2065 Fairview St.,Burlington,Walmart,905-637-3100,ON,7:00am,11:00pm,7:00am,11:00pm,7:00am,11:00pm,7:00am,11:00pm,7:00am,11:00pm,7:00am,11:00pm,7:00am,11:00pm,L7R 0B4,-79.8108,43.3377,,2013-09-16 12:34:16 UTC,2013-09-16 12:34:16 UTC
95 1st Street,Orangeville,Walmart,519-940-0018,ON,7:00am,10:00pm,7:00am,10:00pm,7:00am,10:00pm,7:00am,10:00pm,7:00am,10:00pm,7:00am,10:00pm,8:00am,8:00pm,L9W 2E8,-80.1,43.9294,,2013-09-16 12:34:17 UTC,2013-09-16 12:34:17 UTC
"35,boul. du Plateau",Hull,Walmart,819-772-1911,QC,8:00am,9:00pm,8:00am,9:00pm,8:00am,9:00pm,8:00am,9:00pm,8:00am,9:00pm,8:00am,5:00pm,8:00am,5:00pm,J9A 3G1,-75.7716,45.4365,,2013-09-16 12:34:17 UTC,2013-09-16 12:34:17 UTC
11 Woodlawn Rd. West,Guelph,Walmart,519-767-1600,ON,7:00am,11:00pm,7:00am,11:00pm,7:00am,11:00pm,7:00am,11:00pm,7:00am,11:00pm,7:00am,11:00pm,7:00am,11:00pm,N1H 1G8,-80.2782,43.5644,,2013-09-16 12:34:17 UTC,2013-09-16 12:34:17 UTC
101 Edgeley Blvd.,Vaughan,Walmart,905-761-7945,ON,7:00am,11:00pm,7:00am,11:00pm,7:00am,11:00pm,7:00am,11:00pm,7:00am,11:00pm,7:00am,11:00pm,7:00am,11:00pm,L4K 4Z4,-79.532,43.795,,2013-09-16 12:34:17 UTC,2013-09-16 12:34:17 UTC
"1470,rue Jules-Verne",Sainte-Foy,Walmart,418-874-6068,QC,8:00am,9:00pm,8:00am,9:00pm,8:00am,9:00pm,8:00am,9:00pm,8:00am,9:00pm,8:00am,5:00pm,8:00am,5:00pm,G2G 2R5,-71.3457,46.7825,,2013-09-16 12:34:17 UTC,2013-09-16 12:34:17 UTC
11050 103rd Ave.,Grande Prairie,Walmart,780-513-3740,AB,8:00am,10:00pm,8:00am,10:00pm,8:00am,10:00pm,8:00am,10:00pm,8:00am,10:00pm,8:00am,10:00pm,8:00am,10:00pm,T8V 7H1,-118.828,55.1714,,2013-09-16 12:34:17 UTC,2013-09-16 12:34:17 UTC
"5303,rue Louis-H.-La Fontaine",L,Walmart,418-833-8555,QC,8:00am,9:00pm,8:00am,9:00pm,8:00am,9:00pm,8:00am,9:00pm,8:00am,9:00pm,8:00am,5:00pm,8:00am,5:00pm,G6V 8X4,-71.1667,46.7823,,2013-09-16 12:34:17 UTC,2013-09-16 12:34:17 UTC
"155,Mont",Mascouche,Walmart,450-474-6010,QC,8:00am,9:00pm,8:00am,9:00pm,8:00am,9:00pm,8:00am,9:00pm,8:00am,9:00pm,8:00am,5:00pm,8:00am,5:00pm,J7K 3B4,-73.6191,45.7248,,2013-09-16 12:34:17 UTC,2013-09-16 12:34:17 UTC
2051 Strachan Rd SE,Medicine Hat,Walmart,403-504-4410,AB,7:00am,11:00pm,7:00am,11:00pm,7:00am,11:00pm,7:00am,11:00pm,7:00am,11:00pm,7:00am,11:00pm,7:00am,11:00pm,T1B 4J8,-110.651,49.999,,2013-09-16 12:34:17 UTC,2013-09-16 12:34:17 UTC
100 - 310 Shawville Blvd.,Shawnessy,Walmart,403-201-5415,AB,6:00am,12:00am,6:00am,12:00am,6:00am,12:00am,6:00am,12:00am,6:00am,12:00am,6:00am,12:00am,6:00am,12:00am,T2Y 3S4,-114.064,50.9003,,2013-09-16 12:34:17 UTC,2013-09-16 12:34:17 UTC
22 Pinebush Road,Cambridge,Walmart,519-624-7467,ON,7:00am,11:00pm,7:00am,11:00pm,7:00am,11:00pm,7:00am,11:00pm,7:00am,11:00pm,7:00am,11:00pm,7:00am,11:00pm,N1R 8K5,-80.3258,43.4084,,2013-09-16 12:34:17 UTC,2013-09-16 12:34:17 UTC
175 Murphy Rd. Building A,Orillia,Walmart,705-325-7403,ON,7:00am,11:00pm,7:00am,11:00pm,7:00am,11:00pm,7:00am,11:00pm,7:00am,11:00pm,7:00am,11:00pm,7:00am,11:00pm,L3V 0B5,-79.4467,44.6076,,2013-09-16 12:34:17 UTC,2013-09-16 12:34:17 UTC
239 Wye Road,Sherwood Park,Walmart,780-464-2105,AB,7:00am,11:00pm,7:00am,11:00pm,7:00am,11:00pm,7:00am,11:00pm,7:00am,11:00pm,7:00am,11:00pm,7:00am,11:00pm,T8B 1N1,-113.316,53.5109,,2013-09-16 12:34:17 UTC,2013-09-16 12:34:17 UTC
446 Great Northern Rd.,Sault Ste Marie,Walmart,705-253-9522,ON,7:00am,10:00pm,7:00am,10:00pm,7:00am,10:00pm,7:00am,10:00pm,7:00am,10:00pm,7:00am,10:00pm,7:00am,10:00pm,P6B 4Z9,-84.319,46.5395,,2013-09-16 12:34:18 UTC,2013-09-16 12:34:18 UTC
335 Farmers Market Rd.,Waterloo,Walmart,519-746-6700,ON,7:00am,10:00pm,7:00am,10:00pm,7:00am,10:00pm,7:00am,10:00pm,7:00am,10:00pm,7:00am,10:00pm,8:00am,9:00pm,N2V 0A4,-80.5507,43.5116,,2013-09-16 12:34:18 UTC,2013-09-16 12:34:18 UTC
2 Hospital Street,Fort McMurray,Walmart,780-790-6012,AB,7:00am,11:00pm,7:00am,11:00pm,7:00am,11:00pm,7:00am,11:00pm,7:00am,11:00pm,7:00am,11:00pm,7:00am,11:00pm,T9H 5E4,-111.357,56.7221,,2013-09-16 12:34:18 UTC,2013-09-16 12:34:18 UTC
20202 66th Avenue,Langley,Walmart,604-539-5210,BC,7:00am,11:00pm,7:00am,11:00pm,7:00am,11:00pm,7:00am,11:00pm,7:00am,11:00pm,7:00am,11:00pm,7:00am,11:00pm,V2Y 1P3,-122.663,49.1226,,2013-09-16 12:34:18 UTC,2013-09-16 12:34:18 UTC
1900 Eglinton Avenue East,Scarborough,Walmart,416-615-2027,ON,7:00am,11:00pm,7:00am,11:00pm,7:00am,11:00pm,7:00am,11:00pm,7:00am,11:00pm,7:00am,11:00pm,7:00am,11:00pm,M1L 2L9,-79.2952,43.7262,,2013-09-16 12:34:18 UTC,2013-09-16 12:34:18 UTC
7481 Oakwood Dr,Niagara Falls,Walmart,905-371-3999,ON,7:00am,11:00pm,7:00am,11:00pm,7:00am,11:00pm,7:00am,11:00pm,7:00am,11:00pm,7:00am,11:00pm,7:00am,11:00pm,L2E 6S5,-79.1178,43.0659,,2013-09-16 12:34:18 UTC,2013-09-16 12:34:18 UTC
1471 Harmony Road,Oshawa,Walmart,905-404-6581,ON,7:00am,11:00pm,7:00am,11:00pm,7:00am,11:00pm,7:00am,11:00pm,7:00am,11:00pm,7:00am,11:00pm,7:00am,11:00pm,L1H 7K5,-78.8425,43.9375,,2013-09-16 12:34:18 UTC,2013-09-16 12:34:18 UTC
80 Buchanan Drive,Charlottetown,Walmart,902-628-4600,PE,8:00am,10:00pm,8:00am,10:00pm,8:00am,10:00pm,8:00am,10:00pm,8:00am,10:00pm,8:00am,10:00pm,12:00pm,5:00pm,C1E 2E5,-63.1527,46.2624,,2013-09-16 12:34:18 UTC,2013-09-16 12:34:18 UTC
3199 Cliffe Avenue,Courtenay,Walmart,250-898-8998,BC,7:00am,11:00pm,7:00am,11:00pm,7:00am,11:00pm,7:00am,11:00pm,7:00am,11:00pm,7:00am,11:00pm,7:00am,11:00pm,V9N 2L9,-124.977,49.6684,,2013-09-16 12:34:18 UTC,2013-09-16 12:34:18 UTC
304 Erie Street South,Leamington,Walmart,519-326-3900,ON,7:00am,10:00pm,7:00am,10:00pm,7:00am,10:00pm,7:00am,10:00pm,7:00am,10:00pm,7:00am,10:00pm,8:00am,8:00pm,N8H 3C5,-82.601,42.0356,,2013-09-16 12:34:18 UTC,2013-09-16 12:34:18 UTC
"5400,rue Jean-Talon Ouest",Montr,Walmart,514-735-5295,QC,8:00am,9:00pm,8:00am,9:00pm,8:00am,9:00pm,8:00am,9:00pm,8:00am,9:00pm,8:00am,5:00pm,8:00am,5:00pm,H4P 2T5,-73.6544,45.4932,,2013-09-16 12:34:18 UTC,2013-09-16 12:34:18 UTC
450 Bayfield Street,Barrie,Walmart,705-728-2833,ON,7:00am,11:00pm,7:00am,11:00pm,7:00am,11:00pm,7:00am,11:00pm,7:00am,11:00pm,7:00am,11:00pm,7:00am,11:00pm,L4M 5A2,-79.7085,44.4104,,2013-09-16 12:34:18 UTC,2013-09-16 12:34:18 UTC
8249 Eagle Landing Parkway,Chilliwack,Walmart,604-858-5100,BC,7:00am,11:00pm,7:00am,11:00pm,7:00am,11:00pm,7:00am,11:00pm,7:00am,11:00pm,7:00am,11:00pm,7:00am,11:00pm,V2R 1A2,-121.961,49.1372,,2013-09-16 12:34:18 UTC,2013-09-16 12:34:18 UTC
4210 - 70th Avenue,Lloydminster,Walmart,780-875-4777,AB,7:00am,11:00pm,7:00am,11:00pm,7:00am,11:00pm,7:00am,11:00pm,7:00am,11:00pm,7:00am,11:00pm,7:00am,11:00pm,T9V 2X3,-110.048,53.276,,2013-09-16 12:34:18 UTC,2013-09-16 12:34:18 UTC
2200 - 58th Avenue,Vernon,Walmart,250-558-0526,BC,7:00am,11:00pm,7:00am,11:00pm,7:00am,11:00pm,7:00am,11:00pm,7:00am,11:00pm,7:00am,11:00pm,7:00am,11:00pm,V1T 9T2,-119.261,50.2891,,2013-09-16 12:34:18 UTC,2013-09-16 12:34:18 UTC
4515 Dundas St. West,Burlington,Walmart,905-331-0027,ON,7:00am,11:00pm,7:00am,11:00pm,7:00am,11:00pm,7:00am,11:00pm,7:00am,11:00pm,7:00am,11:00pm,7:00am,11:00pm,L7R 3X4,-79.8115,43.4033,,2013-09-16 12:34:18 UTC,2013-09-16 12:34:18 UTC
1108 Pembroke Street East,Pembroke,Walmart,613-735-4997,ON,7:00am,10:00pm,7:00am,10:00pm,7:00am,10:00pm,7:00am,10:00pm,7:00am,10:00pm,7:00am,10:00pm,7:00am,10:00pm,K8A 7R4,-77.079,45.8133,,2013-09-16 12:34:19 UTC,2013-09-16 12:34:19 UTC
551 Thatcher Drive East,Moose Jaw,Walmart,306-693-3218,SK,8:00am,10:00pm,8:00am,10:00pm,8:00am,10:00pm,8:00am,10:00pm,8:00am,10:00pm,8:00am,10:00pm,8:00am,10:00pm,S6J 1L8,-105.522,50.4118,,2013-09-16 12:34:19 UTC,2013-09-16 12:34:19 UTC
240 Hamilton Road,Yorkton,Walmart,306-782-9820,SK,8:00am,10:00pm,8:00am,10:00pm,8:00am,10:00pm,8:00am,10:00pm,8:00am,10:00pm,8:00am,10:00pm,8:00am,10:00pm,S3N 4C6,-102.447,51.2064,,2013-09-16 12:34:19 UTC,2013-09-16 12:34:19 UTC
1665 Kenaston Blvd.,Winnipeg,Walmart,204-488-2052,MB,7:00am,11:00pm,7:00am,11:00pm,7:00am,11:00pm,7:00am,11:00pm,7:00am,11:00pm,7:00am,11:00pm,9:00am,6:00pm,R3P 2M4,-97.2022,49.8229,,2013-09-16 12:34:19 UTC,2013-09-16 12:34:19 UTC
470 2nd Dughill Road,Trenton,Walmart,613-394-2191,ON,7:00am,10:00pm,7:00am,10:00pm,7:00am,10:00pm,7:00am,10:00pm,7:00am,10:00pm,7:00am,10:00pm,7:00am,10:00pm,K8V 5P7,-77.6019,44.0923,,2013-09-16 12:34:19 UTC,2013-09-16 12:34:19 UTC
2150 Prince Of Wales Drive,Regina,Walmart,306-780-3700,SK,7:00am,11:00pm,7:00am,11:00pm,7:00am,11:00pm,7:00am,11:00pm,7:00am,11:00pm,7:00am,11:00pm,7:00am,11:00pm,S4V 3A6,-104.533,50.4444,,2013-09-16 12:34:19 UTC,2013-09-16 12:34:19 UTC
Unit 400 Cornerstone 6800 48th Ave.,Camrose,Walmart,780-608-1211,AB,8:00am,10:00pm,8:00am,10:00pm,8:00am,10:00pm,8:00am,10:00pm,8:00am,10:00pm,8:00am,10:00pm,8:00am,10:00pm,T4V 4T1,-112.865,53.0175,,2013-09-16 12:34:19 UTC,2013-09-16 12:34:19 UTC
2100 Willowbrook Drive,Cranbrook,Walmart,250-489-3202,BC,8:00am,10:00pm,8:00am,10:00pm,8:00am,10:00pm,8:00am,10:00pm,8:00am,10:00pm,8:00am,10:00pm,8:00am,10:00pm,V1C 7H2,-115.749,49.5294,,2013-09-16 12:34:19 UTC,2013-09-16 12:34:19 UTC
140 Wade Road,Truro,Walmart,902-893-5582,NS,8:00am,10:00pm,8:00am,10:00pm,8:00am,10:00pm,8:00am,10:00pm,8:00am,10:00pm,8:00am,10:00pm,10:00am,8:00pm,B2N 7H3,-63.3048,45.354,,2013-09-16 12:34:19 UTC,2013-09-16 12:34:19 UTC
16 Murphy Square,Corner Brook,Walmart,709-634-2310,NL,8:00am,10:00pm,8:00am,10:00pm,8:00am,10:00pm,8:00am,10:00pm,8:00am,10:00pm,8:00am,10:00pm,8:00am,10:00pm,A2H 1R4,-57.9167,48.9595,,2013-09-16 12:34:19 UTC,2013-09-16 12:34:19 UTC
"1899 Brock Road,Unit 1",Pickering,Walmart,905-619-9588,ON,7:00am,11:00pm,7:00am,11:00pm,7:00am,11:00pm,7:00am,11:00pm,7:00am,11:00pm,7:00am,11:00pm,7:00am,11:00pm,L1V 4H7,-79.0738,43.8477,,2013-09-16 12:34:19 UTC,2013-09-16 12:34:19 UTC
860 Langford Parkway,Langford,Walmart,250-391-0224,BC,7:00am,11:00pm,7:00am,11:00pm,7:00am,11:00pm,7:00am,11:00pm,7:00am,11:00pm,7:00am,11:00pm,7:00am,11:00pm,V9B 2P3,-123.506,48.4426,,2013-09-16 12:34:19 UTC,2013-09-16 12:34:19 UTC
"700,autoroute Chomedey Ouest Laval",Laval,Walmart,450-969-3226,QC,8:00am,9:00pm,8:00am,9:00pm,8:00am,9:00pm,8:00am,9:00pm,8:00am,9:00pm,8:00am,5:00pm,8:00am,5:00pm,H7X 3S9,-73.784,45.5254,,2013-09-16 12:34:19 UTC,2013-09-16 12:34:19 UTC
"1030,boul. du Grand-H",Saint-J,Walmart,450-438-6776,QC,8:00am,9:00pm,8:00am,9:00pm,8:00am,9:00pm,8:00am,9:00pm,8:00am,9:00pm,8:00am,5:00pm,8:00am,5:00pm,J7Y 5K8,-74.017,45.7607,,2013-09-16 12:34:19 UTC,2013-09-16 12:34:19 UTC
9021 Quartz Rd.,Whitehorse,Walmart,867-667-2652,YT,8:00am,10:00pm,8:00am,10:00pm,8:00am,10:00pm,8:00am,10:00pm,8:00am,10:00pm,8:00am,10:00pm,8:00am,10:00pm,Y1A 4P9,-135.069,60.7344,,2013-09-16 12:34:19 UTC,2013-09-16 12:34:19 UTC
2010 50th Avenue,Red Deer,Walmart,403-358-5842,AB,7:00am,11:00pm,7:00am,11:00pm,7:00am,11:00pm,7:00am,11:00pm,7:00am,11:00pm,7:00am,11:00pm,7:00am,11:00pm,T4R 3A2,-113.814,52.2341,,2013-09-16 12:34:19 UTC,2013-09-16 12:34:19 UTC
1070 Major Mackenzie Dr. East,Richmond Hill,Walmart,905-737-3457,ON,7:00am,11:00pm,7:00am,11:00pm,7:00am,11:00pm,7:00am,11:00pm,7:00am,11:00pm,7:00am,11:00pm,7:00am,11:00pm,L4S 1P3,-79.4141,43.8762,,2013-09-16 12:34:20 UTC,2013-09-16 12:34:20 UTC
90 Aberdeen Avenue,St. John's,Walmart,709-738-4350,NL,7:00am,11:00pm,7:00am,11:00pm,7:00am,11:00pm,7:00am,11:00pm,7:00am,11:00pm,7:00am,11:00pm,7:00am,11:00pm,A1A 5N6,-52.7182,47.6195,,2013-09-16 12:34:20 UTC,2013-09-16 12:34:20 UTC
"1063 Talbot Street,Unit 60",St. Thomas,Walmart,519-637-7100,ON,7:00am,10:00pm,7:00am,10:00pm,7:00am,10:00pm,7:00am,10:00pm,7:00am,10:00pm,7:00am,10:00pm,7:00am,8:00pm,N5P 1G4,-81.172,42.7788,,2013-09-16 12:34:20 UTC,2013-09-16 12:34:20 UTC
"415,Mont",Rimouski,Walmart,418-722-1990,QC,8:00am,9:00pm,8:00am,9:00pm,8:00am,9:00pm,8:00am,9:00pm,8:00am,9:00pm,8:00am,5:00pm,8:00am,5:00pm,G5M 1Y1,-68.4935,48.453,,2013-09-16 12:34:20 UTC,2013-09-16 12:34:20 UTC
890 Rita Road,Quesnel,Walmart,250-747-4464,BC,8:00am,10:00pm,8:00am,10:00pm,8:00am,10:00pm,8:00am,10:00pm,8:00am,10:00pm,8:00am,10:00pm,8:00am,10:00pm,V2J 7J3,-122.441,52.965,,2013-09-16 12:34:20 UTC,2013-09-16 12:34:20 UTC
300 Borough Drive,Scarborough,Walmart,416-290-1916,ON,7:00am,11:00pm,7:00am,11:00pm,7:00am,11:00pm,7:00am,11:00pm,7:00am,11:00pm,7:00am,11:00pm,7:00am,11:00pm,M1P 4P5,-79.2539,43.7754,,2013-09-16 12:34:20 UTC,2013-09-16 12:34:20 UTC
6990 Mumford Rd.,Halifax,Walmart,902-454-7990,NS,8:00am,10:00pm,8:00am,10:00pm,8:00am,10:00pm,8:00am,10:00pm,8:00am,10:00pm,8:00am,10:00pm,10:00am,8:00pm,B3L 4W4,-63.6191,44.6473,,2013-09-16 12:34:20 UTC,2013-09-16 12:34:20 UTC
Grove 90 Campsite Rd.,Spruce Grove,Walmart,780-962-9002,AB,7:00am,11:00pm,7:00am,11:00pm,7:00am,11:00pm,7:00am,11:00pm,7:00am,11:00pm,7:00am,11:00pm,7:00am,11:00pm,T7X 4H4,-113.932,53.541,,2013-09-16 12:34:20 UTC,2013-09-16 12:34:20 UTC
3651 Strandherd Dr.,Barrhaven,Walmart,613-823-8714,ON,7:00am,11:00pm,7:00am,11:00pm,7:00am,11:00pm,7:00am,11:00pm,7:00am,11:00pm,7:00am,11:00pm,7:00am,11:00pm,K2J 4G8,-75.7425,45.2723,,2013-09-16 12:34:20 UTC,2013-09-16 12:34:20 UTC
"2050,boul. Monseigneur-Langlois",Salaberry-de-Valleyfield,Walmart,450-371-5188,QC,8:00am,9:00pm,8:00am,9:00pm,8:00am,9:00pm,8:00am,9:00pm,8:00am,9:00pm,8:00am,5:00pm,8:00am,5:00pm,J6S 5R1,-74.1196,45.2704,,2013-09-16 12:34:20 UTC,2013-09-16 12:34:20 UTC
4702 - 43rd Ave.,Cold Lake,Walmart,780-840-2340,AB,8:00am,10:00pm,8:00am,10:00pm,8:00am,10:00pm,8:00am,10:00pm,8:00am,10:00pm,8:00am,10:00pm,8:00am,10:00pm,T9M 1M9,-110.201,54.4071,,2013-09-16 12:34:20 UTC,2013-09-16 12:34:20 UTC
"500,voie de desserte de la route 132",Saint-Constant,Walmart,450-632-2192,QC,8:00am,9:00pm,8:00am,9:00pm,8:00am,9:00pm,8:00am,9:00pm,8:00am,9:00pm,8:00am,5:00pm,8:00am,5:00pm,J5A 2E7,-73.582,45.3889,,2013-09-16 12:34:20 UTC,2013-09-16 12:34:20 UTC
511 Granville St.,Summerside,Walmart,902-432-3570,PE,8:00am,10:00pm,8:00am,10:00pm,8:00am,10:00pm,8:00am,10:00pm,8:00am,10:00pm,8:00am,10:00pm,12:00pm,5:00pm,C1N 5J4,-63.7804,46.4172,,2013-09-16 12:34:20 UTC,2013-09-16 12:34:20 UTC
16845 Hwy 12 R.R. 1,Midland,Walmart,705-526-4754,ON,7:00am,10:00pm,7:00am,10:00pm,7:00am,10:00pm,7:00am,10:00pm,7:00am,10:00pm,7:00am,10:00pm,7:00am,10:00pm,L4R 4K3,-79.8731,44.7332,,2013-09-16 12:34:20 UTC,2013-09-16 12:34:20 UTC
"224,boul. Joseph-Casavant",Beauport,Walmart,418-660-4943,QC,8:00am,9:00pm,8:00am,9:00pm,8:00am,9:00pm,8:00am,9:00pm,8:00am,9:00pm,8:00am,5:00pm,8:00am,5:00pm,G1C 7Z3,-71.2048,46.872,,2013-09-16 12:34:20 UTC,2013-09-16 12:34:20 UTC
"1600,boul. Royal",Shawinigan,Walmart,819-537-3113,QC,8:00am,9:00pm,8:00am,9:00pm,8:00am,9:00pm,8:00am,9:00pm,8:00am,9:00pm,8:00am,5:00pm,8:00am,5:00pm,G9N 8S8,-72.7486,46.5549,,2013-09-16 12:34:20 UTC,2013-09-16 12:34:20 UTC
750 Garrison Rd.,Fort Erie,Walmart,905-991-9971,ON,8:00am,10:00pm,8:00am,10:00pm,8:00am,10:00pm,8:00am,10:00pm,8:00am,10:00pm,8:00am,10:00pm,8:00am,8:00pm,L2A 1N7,-78.9434,42.9052,,2013-09-16 12:34:20 UTC,2013-09-16 12:34:20 UTC
4705-130th Avenue,Calgary,Walmart,403-726-0430,AB,6:00am,12:00am,6:00am,12:00am,6:00am,12:00am,6:00am,12:00am,6:00am,12:00am,6:00am,12:00am,6:00am,12:00am,T2Z 4J2,-113.967,50.9319,,2013-09-16 12:34:20 UTC,2013-09-16 12:34:20 UTC
6565 Southridge Avenue,Prince George,Walmart,250-906-3203,BC,8:00am,10:00pm,8:00am,10:00pm,8:00am,10:00pm,8:00am,10:00pm,8:00am,10:00pm,8:00am,10:00pm,8:00am,10:00pm,V2N 6Z4,-122.784,53.864,,2013-09-16 12:34:20 UTC,2013-09-16 12:34:20 UTC
6 Welwood Rd.,Uxbridge,Walmart,905-862-0721,ON,8:00am,10:00pm,8:00am,10:00pm,8:00am,10:00pm,8:00am,10:00pm,8:00am,10:00pm,8:00am,9:00pm,8:00am,8:00pm,L9P 1Y4,-79.1341,44.0887,,2013-09-16 12:34:20 UTC,2013-09-16 12:34:20 UTC
2160 Burnhamthorpe Rd. West,Mississauga,Walmart,905-608-0922,ON,7:00am,11:00pm,7:00am,11:00pm,7:00am,11:00pm,7:00am,11:00pm,7:00am,11:00pm,7:00am,11:00pm,7:00am,11:00pm,L5L 5Z5,-79.6848,43.5452,,2013-09-16 12:34:20 UTC,2013-09-16 12:34:20 UTC
"100,rue des Cerisiers",Rivi,Walmart,418-862-3003,QC,8:00am,9:00pm,8:00am,9:00pm,8:00am,9:00pm,8:00am,9:00pm,8:00am,9:00pm,8:00am,5:00pm,8:00am,5:00pm,G5R 6E8,-69.556,47.8252,,2013-09-16 12:34:20 UTC,2013-09-16 12:34:20 UTC
"6140,boul. Henri-Bourassa Est",Montr,Walmart,514-324-7853,QC,8:00am,9:00pm,8:00am,9:00pm,8:00am,9:00pm,8:00am,9:00pm,8:00am,9:00pm,8:00am,5:00pm,8:00am,5:00pm,H1G 5X3,-73.6148,45.6084,,2013-09-16 12:34:20 UTC,2013-09-16 12:34:20 UTC
5302 Discovery Way,Leduc,Walmart,780-986-7574,AB,8:00am,10:00pm,8:00am,10:00pm,8:00am,10:00pm,8:00am,10:00pm,8:00am,10:00pm,8:00am,10:00pm,8:00am,10:00pm,T9E 8J7,-113.568,53.2674,,2013-09-16 12:34:20 UTC,2013-09-16 12:34:20 UTC
917 3rd Street West,Brooks,Walmart,403-793-2111,AB,8:00am,9:00pm,8:00am,9:00pm,8:00am,9:00pm,8:00am,9:00pm,8:00am,9:00pm,8:00am,9:00pm,8:00am,9:00pm,T1R 1L5,-111.9,50.5767,,2013-09-16 12:34:21 UTC,2013-09-16 12:34:21 UTC
25 Plaza Blvd.,Moncton,Walmart,506-853-7394,NB,8:00am,10:00pm,8:00am,10:00pm,8:00am,10:00pm,8:00am,10:00pm,8:00am,10:00pm,8:00am,10:00pm,9:00am,6:00pm,E1C 0E8,-64.8277,46.1136,,2013-09-16 12:34:21 UTC,2013-09-16 12:34:21 UTC
200 P.T.H. No. 10A,Flin Flon,Walmart,204-687-7005,MB,8:00am,10:00pm,8:00am,10:00pm,8:00am,10:00pm,8:00am,10:00pm,8:00am,10:00pm,8:00am,10:00pm,9:00am,6:00pm,R8A 0C6,-101.833,54.7648,,2013-09-16 12:34:21 UTC,2013-09-16 12:34:21 UTC
9007 96A Street,Fort St John,Walmart,250-261-5544,BC,8:00am,10:00pm,8:00am,10:00pm,8:00am,10:00pm,8:00am,10:00pm,8:00am,10:00pm,8:00am,10:00pm,8:00am,10:00pm,V1J 7B6,-120.838,56.2363,,2013-09-16 12:34:21 UTC,2013-09-16 12:34:21 UTC
4 Jagoe Street,Atholville,Walmart,506-753-7105,NB,8:00am,10:00pm,8:00am,10:00pm,8:00am,10:00pm,8:00am,10:00pm,8:00am,10:00pm,8:00am,10:00pm,12:00pm,5:00pm,E3N 5C3,-66.7024,47.9933,,2013-09-16 12:34:21 UTC,2013-09-16 12:34:21 UTC
9097 Commercial St.,New Minas,Walmart,902-681-4271,NS,8:00am,10:00pm,8:00am,10:00pm,8:00am,10:00pm,8:00am,10:00pm,8:00am,10:00pm,8:00am,10:00pm,10:00am,8:00pm,B4N 3E6,-64.4536,45.0674,,2013-09-16 12:34:21 UTC,2013-09-16 12:34:21 UTC
2245 Islington Avenue,Rexdale,Walmart,416-747-6499,ON,7:00am,11:00pm,7:00am,11:00pm,7:00am,11:00pm,7:00am,11:00pm,7:00am,11:00pm,7:00am,11:00pm,7:00am,11:00pm,M9W 3W7,-79.5541,43.7132,,2013-09-16 12:34:21 UTC,2013-09-16 12:34:21 UTC
500 - 201 SouthRidge Dr.,Okotoks,Walmart,403-995-1371,AB,6:00am,12:00am,6:00am,12:00am,6:00am,12:00am,6:00am,12:00am,6:00am,12:00am,6:00am,12:00am,6:00am,12:00am,T1S 2C8,-113.975,50.7051,,2013-09-16 12:34:21 UTC,2013-09-16 12:34:21 UTC
8888 Country Hills Boulevard 200,Calgary,Walmart,403-567-1502,AB,6:00am,12:00am,6:00am,12:00am,6:00am,12:00am,6:00am,12:00am,6:00am,12:00am,6:00am,12:00am,6:00am,12:00am,T3G 5T4,-114.219,51.1539,,2013-09-16 12:34:21 UTC,2013-09-16 12:34:21 UTC
150 McEwan Drive East,Bolton,Walmart,905-857-7004,ON,7:00am,10:00pm,7:00am,10:00pm,7:00am,10:00pm,7:00am,10:00pm,7:00am,10:00pm,7:00am,10:00pm,7:00am,10:00pm,L7E 2Y3,-79.7086,43.8624,,2013-09-16 12:34:21 UTC,2013-09-16 12:34:21 UTC
Unit #10 111 Howland Dr.,Huntsville,Walmart,705-787-1137,ON,7:00am,10:00pm,7:00am,10:00pm,7:00am,10:00pm,7:00am,10:00pm,7:00am,10:00pm,7:00am,10:00pm,8:00am,10:00pm,P1H 2P4,-79.2311,45.3425,,2013-09-16 12:34:21 UTC,2013-09-16 12:34:21 UTC
160 Queensway East,Simcoe,Walmart,519-426-6900,ON,7:00am,10:00pm,7:00am,10:00pm,7:00am,10:00pm,7:00am,10:00pm,7:00am,10:00pm,7:00am,10:00pm,7:00am,8:00pm,N3Y 0A8,-80.2892,42.8489,,2013-09-16 12:34:21 UTC,2013-09-16 12:34:21 UTC
9551 - 87 Avenue,Fort Saskatchewan,Walmart,780-998-3633,AB,7:00am,11:00pm,7:00am,11:00pm,7:00am,11:00pm,7:00am,11:00pm,7:00am,11:00pm,7:00am,11:00pm,7:00am,11:00pm,T8L 4N3,-113.238,53.692,,2013-09-16 12:34:22 UTC,2013-09-16 12:34:22 UTC
600 Highway #2,Dawson Creek,Walmart,250-719-0128,BC,8:00am,10:00pm,8:00am,10:00pm,8:00am,10:00pm,8:00am,10:00pm,8:00am,10:00pm,8:00am,10:00pm,8:00am,10:00pm,V1G 0A4,-120.22,55.7389,,2013-09-16 12:34:22 UTC,2013-09-16 12:34:22 UTC
805 Boyd St.,New Westminster,Walmart,604-524-1291,BC,7:00am,11:00pm,7:00am,11:00pm,7:00am,11:00pm,7:00am,11:00pm,7:00am,11:00pm,7:00am,11:00pm,7:00am,11:00pm,V3M 5X2,-122.946,49.191,,2013-09-16 12:34:22 UTC,2013-09-16 12:34:22 UTC
135 First Commerce Drive,Aurora,Walmart,905-841-0300,ON,7:00am,11:00pm,7:00am,11:00pm,7:00am,11:00pm,7:00am,11:00pm,7:00am,11:00pm,7:00am,11:00pm,7:00am,11:00pm,L4G 0G2,-79.4153,44.0149,,2013-09-16 12:34:22 UTC,2013-09-16 12:34:22 UTC
46 Robert Angus Drive,Amherst,Walmart,902-661-3476,NS,8:00am,10:00pm,8:00am,10:00pm,8:00am,10:00pm,8:00am,10:00pm,8:00am,10:00pm,8:00am,10:00pm,10:00am,8:00pm,B4H 4R7,-64.199,45.815,,2013-09-16 12:34:22 UTC,2013-09-16 12:34:22 UTC
1000 Sims Avenue,Weyburn,Walmart,306-842-6030,SK,8:00am,10:00pm,8:00am,10:00pm,8:00am,10:00pm,8:00am,10:00pm,8:00am,10:00pm,8:00am,10:00pm,8:00am,10:00pm,S4H 3N9,-103.867,49.6573,,2013-09-16 12:34:22 UTC,2013-09-16 12:34:22 UTC
"1755,avenue du Pont Sud",Alma,Walmart,418-480-3883,QC,8:00am,9:00pm,8:00am,9:00pm,8:00am,9:00pm,8:00am,9:00pm,8:00am,9:00pm,8:00am,5:00pm,8:00am,5:00pm,G8B 1W7,-71.653,48.5242,,2013-09-16 12:34:22 UTC,2013-09-16 12:34:22 UTC
1250 King's Highway,Fort Frances,Walmart,807-274-1373,ON,8:00am,10:00pm,8:00am,10:00pm,8:00am,10:00pm,8:00am,10:00pm,8:00am,10:00pm,8:00am,10:00pm,8:00am,8:00pm,P9A 2X6,-93.4372,48.6073,,2013-09-16 12:34:22 UTC,2013-09-16 12:34:22 UTC
114 Lombard Street,Smiths Falls,Walmart,613-284-0838,ON,7:00am,10:00pm,7:00am,10:00pm,7:00am,10:00pm,7:00am,10:00pm,7:00am,10:00pm,7:00am,10:00pm,7:00am,10:00pm,K7A 5B8,-76.0305,44.8921,,2013-09-16 12:34:22 UTC,2013-09-16 12:34:22 UTC
700 Centre Street,Thornhill,Walmart,905-709-4494,ON,7:00am,11:00pm,7:00am,11:00pm,7:00am,11:00pm,7:00am,11:00pm,7:00am,11:00pm,7:00am,11:00pm,7:00am,11:00pm,L4J 0A7,-79.451,43.8107,,2013-09-16 12:34:22 UTC,2013-09-16 12:34:22 UTC
"1025,boul. Frontenac Est",Thetford Mines,Walmart,418-338-4884,QC,8:00am,9:00pm,8:00am,9:00pm,8:00am,9:00pm,8:00am,9:00pm,8:00am,9:00pm,8:00am,5:00pm,8:00am,5:00pm,G6G 6S7,-71.2972,46.1127,,2013-09-16 12:34:22 UTC,2013-09-16 12:34:22 UTC
200 Douglastown Blvd,Miramichi,Walmart,506-778-8224,NB,8:00am,10:00pm,8:00am,10:00pm,8:00am,10:00pm,8:00am,10:00pm,8:00am,10:00pm,8:00am,10:00pm,12:00pm,5:00pm,E1V 7T9,-65.4926,47.0374,,2013-09-16 12:34:22 UTC,2013-09-16 12:34:22 UTC
4427 Hwy 16 West,Terrace,Walmart,250-615-4728,BC,8:00am,10:00pm,8:00am,10:00pm,8:00am,10:00pm,8:00am,10:00pm,8:00am,10:00pm,8:00am,10:00pm,8:00am,10:00pm,V8G 4R6,-128.58,54.5111,,2013-09-16 12:34:22 UTC,2013-09-16 12:34:22 UTC
12451 88th Avenue,Surrey,Walmart,604-597-7117,BC,7:00am,11:00pm,7:00am,11:00pm,7:00am,11:00pm,7:00am,11:00pm,7:00am,11:00pm,7:00am,11:00pm,7:00am,11:00pm,V3W 1P8,-122.878,49.1632,,2013-09-16 12:34:22 UTC,2013-09-16 12:34:22 UTC
"1770,rue du Sud",Cowansville,Walmart,450-263-6006,QC,8:00am,9:00pm,8:00am,9:00pm,8:00am,9:00pm,8:00am,9:00pm,8:00am,9:00pm,8:00am,5:00pm,8:00am,5:00pm,J2K 3G8,-72.7564,45.1895,,2013-09-16 12:34:22 UTC,2013-09-16 12:34:22 UTC
2355 160 St.,Surrey,Walmart,604-541-9015,BC,7:00am,11:00pm,7:00am,11:00pm,7:00am,11:00pm,7:00am,11:00pm,7:00am,11:00pm,7:00am,11:00pm,7:00am,11:00pm,V3S 9N6,-122.779,49.0443,,2013-09-16 12:34:22 UTC,2013-09-16 12:34:22 UTC
"24 Mikana Way,Unit #1",Kenora,Walmart,807-468-6379,ON,8:00am,10:00pm,8:00am,10:00pm,8:00am,10:00pm,8:00am,10:00pm,8:00am,10:00pm,8:00am,10:00pm,8:00am,8:00pm,P9N 4J1,-94.4727,49.7572,,2013-09-16 12:34:22 UTC,2013-09-16 12:34:22 UTC
3035 Clarence Ave South,Saskatoon,Walmart,306-653-8200,SK,7:00am,11:00pm,7:00am,11:00pm,7:00am,11:00pm,7:00am,11:00pm,7:00am,11:00pm,7:00am,11:00pm,7:00am,11:00pm,S7T 0B6,-106.646,52.0879,,2013-09-16 12:34:22 UTC,2013-09-16 12:34:22 UTC
3210-118 Avenue Northwest,Edmonton,Walmart,780-474-8015,AB,8:00am,10:00pm,8:00am,10:00pm,8:00am,10:00pm,8:00am,10:00pm,8:00am,10:00pm,8:00am,10:00pm,8:00am,10:00pm,T5W 4W1,-113.39,53.5705,,2013-09-16 12:34:22 UTC,2013-09-16 12:34:22 UTC
"110,boul. Arthabaska Ouest",Victoriaville,Walmart,819-758-2654,QC,8:00am,9:00pm,8:00am,9:00pm,8:00am,9:00pm,8:00am,9:00pm,8:00am,9:00pm,8:00am,5:00pm,9:00am,5:00pm,G6P 6S2,-71.9288,46.0907,,2013-09-16 12:34:22 UTC,2013-09-16 12:34:22 UTC
420 Vansickle Road,St. Catherines,Walmart,905-687-9215,ON,7:00am,11:00pm,7:00am,11:00pm,7:00am,11:00pm,7:00am,11:00pm,7:00am,11:00pm,7:00am,11:00pm,7:00am,11:00pm,L2S 0C7,-79.2706,43.1528,,2013-09-16 12:34:22 UTC,2013-09-16 12:34:22 UTC